{
"type": "FeatureCollection",
"name": "Isfahan_traffic_lights_merged",
"crs": { "type": "name", "properties": { "name": "urn:ogc:def:crs:EPSG::32639" } },
"features": [
{ "type": "Feature", "properties": { "cluster": 0, "count": 1 }, "geometry": { "type": "Point", "coordinates": [ 564155.872698201448657, 3613839.843788948375732 ] } },
{ "type": "Feature", "properties": { "cluster": 1, "count": 4 }, "geometry": { "type": "Point", "coordinates": [ 561976.376744850189425, 3619830.348285906948149 ] } },
{ "type": "Feature", "properties": { "cluster": 2, "count": 3 }, "geometry": { "type": "Point", "coordinates": [ 562386.525873846840113, 3610152.627487765625119 ] } },
{ "type": "Feature", "properties": { "cluster": 3, "count": 4 }, "geometry": { "type": "Point", "coordinates": [ 566904.73208217555657, 3612803.357201051432639 ] } },
{ "type": "Feature", "properties": { "cluster": 4, "count": 1 }, "geometry": { "type": "Point", "coordinates": [ 563634.693948134314269, 3610967.321916304528713 ] } },
{ "type": "Feature", "properties": { "cluster": 5, "count": 4 }, "geometry": { "type": "Point", "coordinates": [ 563356.502550407778472, 3619695.971535340417176 ] } },
{ "type": "Feature", "properties": { "cluster": 6, "count": 4 }, "geometry": { "type": "Point", "coordinates": [ 563126.307211788371205, 3611482.210045327432454 ] } },
{ "type": "Feature", "properties": { "cluster": 7, "count": 1 }, "geometry": { "type": "Point", "coordinates": [ 562780.248511876445264, 3606107.584611202590168 ] } },
{ "type": "Feature", "properties": { "cluster": 8, "count": 1 }, "geometry": { "type": "Point", "coordinates": [ 562844.749264595564455, 3606158.775649500079453 ] } },
{ "type": "Feature", "properties": { "cluster": 9, "count": 1 }, "geometry": { "type": "Point", "coordinates": [ 562833.451954614836723, 3606106.223198529798537 ] } },
{ "type": "Feature", "properties": { "cluster": 10, "count": 3 }, "geometry": { "type": "Point", "coordinates": [ 567214.19166902708821, 3613755.205227250233293 ] } },
{ "type": "Feature", "properties": { "cluster": 11, "count": 4 }, "geometry": { "type": "Point", "coordinates": [ 566967.770612019696273, 3615142.177954126149416 ] } },
{ "type": "Feature", "properties": { "cluster": 12, "count": 4 }, "geometry": { "type": "Point", "coordinates": [ 568328.428160346578807, 3615694.608235808089375 ] } },
{ "type": "Feature", "properties": { "cluster": 13, "count": 2 }, "geometry": { "type": "Point", "coordinates": [ 566403.34507225966081, 3613572.136353936977684 ] } },
{ "type": "Feature", "properties": { "cluster": 14, "count": 4 }, "geometry": { "type": "Point", "coordinates": [ 565098.772943962481804, 3612972.420793824829161 ] } },
{ "type": "Feature", "properties": { "cluster": 15, "count": 4 }, "geometry": { "type": "Point", "coordinates": [ 564974.727951870416291, 3612474.236521142534912 ] } },
{ "type": "Feature", "properties": { "cluster": 16, "count": 4 }, "geometry": { "type": "Point", "coordinates": [ 565506.921737837372348, 3612952.032371930778027 ] } },
{ "type": "Feature", "properties": { "cluster": 17, "count": 2 }, "geometry": { "type": "Point", "coordinates": [ 562496.744401956209913, 3613621.269484457094222 ] } },
{ "type": "Feature", "properties": { "cluster": 18, "count": 2 }, "geometry": { "type": "Point", "coordinates": [ 566490.312607505824417, 3614880.75188828073442 ] } },
{ "type": "Feature", "properties": { "cluster": 19, "count": 3 }, "geometry": { "type": "Point", "coordinates": [ 565783.294538306770846, 3614794.480623975396156 ] } },
{ "type": "Feature", "properties": { "cluster": 20, "count": 4 }, "geometry": { "type": "Point", "coordinates": [ 564526.408910748781636, 3615807.532468798104674 ] } },
{ "type": "Feature", "properties": { "cluster": 21, "count": 4 }, "geometry": { "type": "Point", "coordinates": [ 563321.512314946623519, 3609583.181325035169721 ] } },
{ "type": "Feature", "properties": { "cluster": 22, "count": 4 }, "geometry": { "type": "Point", "coordinates": [ 565047.625949522014707, 3611169.0224907589145 ] } },
{ "type": "Feature", "properties": { "cluster": 23, "count": 2 }, "geometry": { "type": "Point", "coordinates": [ 561846.43710645288229, 3620614.062351583503187 ] } },
{ "type": "Feature", "properties": { "cluster": 24, "count": 2 }, "geometry": { "type": "Point", "coordinates": [ 560312.547437818953767, 3614173.195624139159918 ] } },
{ "type": "Feature", "properties": { "cluster": 25, "count": 5 }, "geometry": { "type": "Point", "coordinates": [ 562526.602811766089872, 3608641.528902467340231 ] } },
{ "type": "Feature", "properties": { "cluster": 26, "count": 2 }, "geometry": { "type": "Point", "coordinates": [ 563318.709982222877443, 3614465.675995489582419 ] } },
{ "type": "Feature", "properties": { "cluster": 27, "count": 3 }, "geometry": { "type": "Point", "coordinates": [ 558734.390978999086656, 3609747.813157431781292 ] } },
{ "type": "Feature", "properties": { "cluster": 28, "count": 2 }, "geometry": { "type": "Point", "coordinates": [ 556086.884404944255948, 3617345.139355471823364 ] } },
{ "type": "Feature", "properties": { "cluster": 29, "count": 1 }, "geometry": { "type": "Point", "coordinates": [ 562793.229098484269343, 3606159.64871289068833 ] } },
{ "type": "Feature", "properties": { "cluster": 30, "count": 2 }, "geometry": { "type": "Point", "coordinates": [ 567323.191630778950639, 3610299.494455674663186 ] } },
{ "type": "Feature", "properties": { "cluster": 31, "count": 2 }, "geometry": { "type": "Point", "coordinates": [ 558904.97872366849333, 3619907.802105663344264 ] } },
{ "type": "Feature", "properties": { "cluster": 32, "count": 4 }, "geometry": { "type": "Point", "coordinates": [ 565045.204845875268802, 3614050.027969975955784 ] } },
{ "type": "Feature", "properties": { "cluster": 33, "count": 1 }, "geometry": { "type": "Point", "coordinates": [ 562507.245480665704235, 3614407.211318005342036 ] } },
{ "type": "Feature", "properties": { "cluster": 34, "count": 3 }, "geometry": { "type": "Point", "coordinates": [ 562520.714407117920928, 3613979.706183928996325 ] } },
{ "type": "Feature", "properties": { "cluster": 35, "count": 3 }, "geometry": { "type": "Point", "coordinates": [ 562405.778803482302465, 3612191.74315495416522 ] } },
{ "type": "Feature", "properties": { "cluster": 36, "count": 4 }, "geometry": { "type": "Point", "coordinates": [ 561832.490654557361268, 3612044.676746238023043 ] } },
{ "type": "Feature", "properties": { "cluster": 37, "count": 4 }, "geometry": { "type": "Point", "coordinates": [ 562855.945973845431581, 3614390.79078763583675 ] } },
{ "type": "Feature", "properties": { "cluster": 38, "count": 4 }, "geometry": { "type": "Point", "coordinates": [ 562962.245361821725965, 3609596.218737998045981 ] } },
{ "type": "Feature", "properties": { "cluster": 39, "count": 3 }, "geometry": { "type": "Point", "coordinates": [ 561716.977825128473341, 3609629.579383321572095 ] } },
{ "type": "Feature", "properties": { "cluster": 40, "count": 4 }, "geometry": { "type": "Point", "coordinates": [ 563223.171195291215554, 3608741.992351766675711 ] } },
{ "type": "Feature", "properties": { "cluster": 41, "count": 2 }, "geometry": { "type": "Point", "coordinates": [ 562819.417282048496418, 3608782.903962000738829 ] } },
{ "type": "Feature", "properties": { "cluster": 42, "count": 4 }, "geometry": { "type": "Point", "coordinates": [ 561170.012013356201351, 3609644.829391948413104 ] } },
{ "type": "Feature", "properties": { "cluster": 43, "count": 4 }, "geometry": { "type": "Point", "coordinates": [ 563014.041060031857342, 3610084.395686763338745 ] } },
{ "type": "Feature", "properties": { "cluster": 44, "count": 4 }, "geometry": { "type": "Point", "coordinates": [ 561742.688239473383874, 3610215.966718233656138 ] } },
{ "type": "Feature", "properties": { "cluster": 45, "count": 3 }, "geometry": { "type": "Point", "coordinates": [ 562507.029644028050825, 3611099.796070558484644 ] } },
{ "type": "Feature", "properties": { "cluster": 46, "count": 4 }, "geometry": { "type": "Point", "coordinates": [ 561820.391458692960441, 3611752.141692079603672 ] } },
{ "type": "Feature", "properties": { "cluster": 47, "count": 4 }, "geometry": { "type": "Point", "coordinates": [ 561285.492017643875442, 3611726.393078425433487 ] } },
{ "type": "Feature", "properties": { "cluster": 48, "count": 3 }, "geometry": { "type": "Point", "coordinates": [ 562583.222549984115176, 3611849.141954701859504 ] } },
{ "type": "Feature", "properties": { "cluster": 49, "count": 4 }, "geometry": { "type": "Point", "coordinates": [ 561237.628907050355338, 3610257.580639015883207 ] } },
{ "type": "Feature", "properties": { "cluster": 50, "count": 4 }, "geometry": { "type": "Point", "coordinates": [ 559704.112360864179209, 3609706.139915980398655 ] } },
{ "type": "Feature", "properties": { "cluster": 51, "count": 3 }, "geometry": { "type": "Point", "coordinates": [ 559848.588798065087758, 3610369.644433464389294 ] } },
{ "type": "Feature", "properties": { "cluster": 52, "count": 3 }, "geometry": { "type": "Point", "coordinates": [ 563050.660780242760666, 3611032.421237291302532 ] } },
{ "type": "Feature", "properties": { "cluster": 53, "count": 4 }, "geometry": { "type": "Point", "coordinates": [ 563205.249193258001469, 3608567.83817347837612 ] } },
{ "type": "Feature", "properties": { "cluster": 54, "count": 4 }, "geometry": { "type": "Point", "coordinates": [ 561242.47912225604523, 3612110.034646342508495 ] } },
{ "type": "Feature", "properties": { "cluster": 55, "count": 4 }, "geometry": { "type": "Point", "coordinates": [ 560013.220292283687741, 3611285.385193748865277 ] } },
{ "type": "Feature", "properties": { "cluster": 56, "count": 4 }, "geometry": { "type": "Point", "coordinates": [ 561790.45494605624117, 3611183.205544022843242 ] } },
{ "type": "Feature", "properties": { "cluster": 57, "count": 4 }, "geometry": { "type": "Point", "coordinates": [ 564263.114891617908143, 3610513.161105277016759 ] } },
{ "type": "Feature", "properties": { "cluster": 58, "count": 4 }, "geometry": { "type": "Point", "coordinates": [ 563607.173248287057504, 3610576.060557896737009 ] } },
{ "type": "Feature", "properties": { "cluster": 59, "count": 4 }, "geometry": { "type": "Point", "coordinates": [ 563310.890908330329694, 3611694.744083309546113 ] } },
{ "type": "Feature", "properties": { "cluster": 60, "count": 3 }, "geometry": { "type": "Point", "coordinates": [ 562823.083235063706525, 3612124.394258707296103 ] } },
{ "type": "Feature", "properties": { "cluster": 61, "count": 4 }, "geometry": { "type": "Point", "coordinates": [ 565072.563046552008018, 3610797.069465051405132 ] } },
{ "type": "Feature", "properties": { "cluster": 62, "count": 4 }, "geometry": { "type": "Point", "coordinates": [ 565112.59600907668937, 3610443.039058234542608 ] } },
{ "type": "Feature", "properties": { "cluster": 63, "count": 3 }, "geometry": { "type": "Point", "coordinates": [ 556465.645741501706652, 3623490.751391064375639 ] } },
{ "type": "Feature", "properties": { "cluster": 64, "count": 3 }, "geometry": { "type": "Point", "coordinates": [ 563008.645244871382602, 3610627.415890366304666 ] } },
{ "type": "Feature", "properties": { "cluster": 65, "count": 4 }, "geometry": { "type": "Point", "coordinates": [ 562819.066463485592976, 3601894.560554602183402 ] } },
{ "type": "Feature", "properties": { "cluster": 66, "count": 1 }, "geometry": { "type": "Point", "coordinates": [ 562739.20420553535223, 3613505.225657082628459 ] } },
{ "type": "Feature", "properties": { "cluster": 67, "count": 4 }, "geometry": { "type": "Point", "coordinates": [ 562261.895219543483108, 3620949.498249914497137 ] } },
{ "type": "Feature", "properties": { "cluster": 68, "count": 3 }, "geometry": { "type": "Point", "coordinates": [ 561075.85712223907467, 3614451.320661231409758 ] } },
{ "type": "Feature", "properties": { "cluster": 69, "count": 3 }, "geometry": { "type": "Point", "coordinates": [ 572646.531826707185246, 3612679.059838708490133 ] } },
{ "type": "Feature", "properties": { "cluster": 70, "count": 4 }, "geometry": { "type": "Point", "coordinates": [ 558567.708698246860877, 3608671.123445888049901 ] } },
{ "type": "Feature", "properties": { "cluster": 71, "count": 4 }, "geometry": { "type": "Point", "coordinates": [ 566577.387750214780681, 3613980.965360355563462 ] } },
{ "type": "Feature", "properties": { "cluster": 72, "count": 3 }, "geometry": { "type": "Point", "coordinates": [ 565785.578650380368344, 3614241.75368780316785 ] } },
{ "type": "Feature", "properties": { "cluster": 73, "count": 2 }, "geometry": { "type": "Point", "coordinates": [ 565909.52617363864556, 3614247.222450062632561 ] } },
{ "type": "Feature", "properties": { "cluster": 74, "count": 2 }, "geometry": { "type": "Point", "coordinates": [ 565865.678547055460513, 3614189.555333748459816 ] } },
{ "type": "Feature", "properties": { "cluster": 75, "count": 2 }, "geometry": { "type": "Point", "coordinates": [ 565829.976111258612946, 3614305.408811624161899 ] } },
{ "type": "Feature", "properties": { "cluster": 76, "count": 4 }, "geometry": { "type": "Point", "coordinates": [ 565115.0613365303725, 3614513.115856405347586 ] } },
{ "type": "Feature", "properties": { "cluster": 77, "count": 3 }, "geometry": { "type": "Point", "coordinates": [ 563185.809537375927903, 3614441.720424531027675 ] } },
{ "type": "Feature", "properties": { "cluster": 78, "count": 3 }, "geometry": { "type": "Point", "coordinates": [ 565700.968258499982767, 3611641.194467302411795 ] } },
{ "type": "Feature", "properties": { "cluster": 79, "count": 4 }, "geometry": { "type": "Point", "coordinates": [ 568386.327549761044793, 3615531.784685955382884 ] } },
{ "type": "Feature", "properties": { "cluster": 80, "count": 3 }, "geometry": { "type": "Point", "coordinates": [ 568597.040067498805001, 3616841.036595717072487 ] } },
{ "type": "Feature", "properties": { "cluster": 81, "count": 4 }, "geometry": { "type": "Point", "coordinates": [ 569069.177881643874571, 3617134.695408899337053 ] } },
{ "type": "Feature", "properties": { "cluster": 82, "count": 3 }, "geometry": { "type": "Point", "coordinates": [ 567920.822901396895759, 3613484.262715882156044 ] } },
{ "type": "Feature", "properties": { "cluster": 83, "count": 3 }, "geometry": { "type": "Point", "coordinates": [ 568566.383896664599888, 3613427.461427881848067 ] } },
{ "type": "Feature", "properties": { "cluster": 84, "count": 4 }, "geometry": { "type": "Point", "coordinates": [ 566748.290861670277081, 3612442.034979123156518 ] } },
{ "type": "Feature", "properties": { "cluster": 85, "count": 2 }, "geometry": { "type": "Point", "coordinates": [ 566431.85381681821309, 3611769.643211944028735 ] } },
{ "type": "Feature", "properties": { "cluster": 86, "count": 2 }, "geometry": { "type": "Point", "coordinates": [ 566388.221175146871246, 3611800.920376690104604 ] } },
{ "type": "Feature", "properties": { "cluster": 87, "count": 4 }, "geometry": { "type": "Point", "coordinates": [ 567719.150135509087704, 3614863.506061575375497 ] } },
{ "type": "Feature", "properties": { "cluster": 88, "count": 2 }, "geometry": { "type": "Point", "coordinates": [ 560320.311958235222846, 3613331.973433378152549 ] } },
{ "type": "Feature", "properties": { "cluster": 89, "count": 2 }, "geometry": { "type": "Point", "coordinates": [ 560371.650510269682854, 3613315.411526817828417 ] } },
{ "type": "Feature", "properties": { "cluster": 90, "count": 4 }, "geometry": { "type": "Point", "coordinates": [ 560350.320893861469813, 3612753.064744543284178 ] } },
{ "type": "Feature", "properties": { "cluster": 91, "count": 2 }, "geometry": { "type": "Point", "coordinates": [ 560732.089296160265803, 3612161.378604209050536 ] } },
{ "type": "Feature", "properties": { "cluster": 92, "count": 2 }, "geometry": { "type": "Point", "coordinates": [ 566548.676938154967502, 3610909.921588469296694 ] } },
{ "type": "Feature", "properties": { "cluster": 93, "count": 4 }, "geometry": { "type": "Point", "coordinates": [ 566238.060059836367145, 3612832.852412986569107 ] } },
{ "type": "Feature", "properties": { "cluster": 94, "count": 3 }, "geometry": { "type": "Point", "coordinates": [ 562264.767938379896805, 3608847.787916318979114 ] } }
]
}
