{
"type": "FeatureCollection",
"name": "Isfahan_traffic_lights_merged",
"crs": { "type": "name", "properties": { "name": "urn:ogc:def:crs:EPSG::32639" } },
"features": [
{ "type": "Feature", "properties": { "cluster": 0, "count": 4 }, "geometry": { "type": "Point", "coordinates": [ 1268084.885411099530756, 4049864.71408649161458 ] } },
{ "type": "Feature", "properties": { "cluster": 1, "count": 2 }, "geometry": { "type": "Point", "coordinates": [ 1273419.377834897255525, 4046813.02711224462837 ] } },
{ "type": "Feature", "properties": { "cluster": 2, "count": 4 }, "geometry": { "type": "Point", "coordinates": [ 1269471.232419207924977, 4050604.621595239732414 ] } },
{ "type": "Feature", "properties": { "cluster": 3, "count": 4 }, "geometry": { "type": "Point", "coordinates": [ 1269709.245295950211585, 4051445.125912999734282 ] } },
{ "type": "Feature", "properties": { "cluster": 4, "count": 4 }, "geometry": { "type": "Point", "coordinates": [ 1266872.634302407503128, 4054122.262682044878602 ] } },
{ "type": "Feature", "properties": { "cluster": 5, "count": 3 }, "geometry": { "type": "Point", "coordinates": [ 1268258.115355706075206, 4055693.983833497390151 ] } },
{ "type": "Feature", "properties": { "cluster": 6, "count": 1 }, "geometry": { "type": "Point", "coordinates": [ 1267723.837244898080826, 4054120.917746422346681 ] } },
{ "type": "Feature", "properties": { "cluster": 7, "count": 1 }, "geometry": { "type": "Point", "coordinates": [ 1267751.206884441897273, 4054214.592126454226673 ] } },
{ "type": "Feature", "properties": { "cluster": 8, "count": 1 }, "geometry": { "type": "Point", "coordinates": [ 1267589.938787486869842, 4054162.03490788070485 ] } },
{ "type": "Feature", "properties": { "cluster": 9, "count": 3 }, "geometry": { "type": "Point", "coordinates": [ 1268084.920710308477283, 4054126.803468325641006 ] } },
{ "type": "Feature", "properties": { "cluster": 10, "count": 4 }, "geometry": { "type": "Point", "coordinates": [ 1264013.031925917603076, 4054473.369779224973172 ] } },
{ "type": "Feature", "properties": { "cluster": 11, "count": 1 }, "geometry": { "type": "Point", "coordinates": [ 1269423.335528249386698, 4054121.257896070834249 ] } },
{ "type": "Feature", "properties": { "cluster": 12, "count": 2 }, "geometry": { "type": "Point", "coordinates": [ 1270102.165728312684223, 4054176.803464504890144 ] } },
{ "type": "Feature", "properties": { "cluster": 13, "count": 2 }, "geometry": { "type": "Point", "coordinates": [ 1273317.493153841234744, 4046703.033750629518181 ] } },
{ "type": "Feature", "properties": { "cluster": 14, "count": 2 }, "geometry": { "type": "Point", "coordinates": [ 1273275.45873780362308, 4046781.348460373003036 ] } },
{ "type": "Feature", "properties": { "cluster": 15, "count": 1 }, "geometry": { "type": "Point", "coordinates": [ 1273581.982345919124782, 4046551.771806917153299 ] } },
{ "type": "Feature", "properties": { "cluster": 16, "count": 4 }, "geometry": { "type": "Point", "coordinates": [ 1277218.722141155041754, 4051362.971635648515075 ] } },
{ "type": "Feature", "properties": { "cluster": 17, "count": 4 }, "geometry": { "type": "Point", "coordinates": [ 1274632.538338853511959, 4051829.629740970674902 ] } },
{ "type": "Feature", "properties": { "cluster": 18, "count": 2 }, "geometry": { "type": "Point", "coordinates": [ 1266250.067554470617324, 4050970.99554341007024 ] } },
{ "type": "Feature", "properties": { "cluster": 19, "count": 2 }, "geometry": { "type": "Point", "coordinates": [ 1265128.199079425539821, 4051524.068026303313673 ] } },
{ "type": "Feature", "properties": { "cluster": 20, "count": 4 }, "geometry": { "type": "Point", "coordinates": [ 1264306.146494291722775, 4052160.805984300561249 ] } },
{ "type": "Feature", "properties": { "cluster": 21, "count": 4 }, "geometry": { "type": "Point", "coordinates": [ 1263883.059272005455568, 4052480.982351917773485 ] } },
{ "type": "Feature", "properties": { "cluster": 22, "count": 4 }, "geometry": { "type": "Point", "coordinates": [ 1270717.057878305669874, 4055061.539904821664095 ] } },
{ "type": "Feature", "properties": { "cluster": 23, "count": 3 }, "geometry": { "type": "Point", "coordinates": [ 1269699.383416084339842, 4053614.480577441398054 ] } },
{ "type": "Feature", "properties": { "cluster": 24, "count": 2 }, "geometry": { "type": "Point", "coordinates": [ 1273307.93467337358743, 4046096.723936812020838 ] } },
{ "type": "Feature", "properties": { "cluster": 25, "count": 2 }, "geometry": { "type": "Point", "coordinates": [ 1273749.621844975277781, 4045838.772784780710936 ] } },
{ "type": "Feature", "properties": { "cluster": 26, "count": 1 }, "geometry": { "type": "Point", "coordinates": [ 1271753.007400018628687, 4051436.528484947513789 ] } },
{ "type": "Feature", "properties": { "cluster": 27, "count": 3 }, "geometry": { "type": "Point", "coordinates": [ 1270987.765399370109662, 4055428.105422914493829 ] } },
{ "type": "Feature", "properties": { "cluster": 28, "count": 1 }, "geometry": { "type": "Point", "coordinates": [ 1277393.570171524304897, 4052302.584388620685786 ] } },
{ "type": "Feature", "properties": { "cluster": 29, "count": 1 }, "geometry": { "type": "Point", "coordinates": [ 1273779.323079980909824, 4045218.260086162481457 ] } },
{ "type": "Feature", "properties": { "cluster": 30, "count": 4 }, "geometry": { "type": "Point", "coordinates": [ 1270182.99730268958956, 4050622.584962161723524 ] } },
{ "type": "Feature", "properties": { "cluster": 31, "count": 3 }, "geometry": { "type": "Point", "coordinates": [ 1271430.593479076167569, 4053212.908457963261753 ] } },
{ "type": "Feature", "properties": { "cluster": 32, "count": 4 }, "geometry": { "type": "Point", "coordinates": [ 1271881.97724558506161, 4053868.608286173548549 ] } },
{ "type": "Feature", "properties": { "cluster": 33, "count": 4 }, "geometry": { "type": "Point", "coordinates": [ 1270689.71604052814655, 4053337.520839790813625 ] } },
{ "type": "Feature", "properties": { "cluster": 34, "count": 4 }, "geometry": { "type": "Point", "coordinates": [ 1271508.609864006983116, 4054282.202525223139673 ] } },
{ "type": "Feature", "properties": { "cluster": 35, "count": 2 }, "geometry": { "type": "Point", "coordinates": [ 1269911.982926008291543, 4052093.864865322597325 ] } },
{ "type": "Feature", "properties": { "cluster": 36, "count": 1 }, "geometry": { "type": "Point", "coordinates": [ 1270084.539210208691657, 4052507.666948983911425 ] } },
{ "type": "Feature", "properties": { "cluster": 37, "count": 2 }, "geometry": { "type": "Point", "coordinates": [ 1268736.630274493712932, 4053351.251495159231126 ] } },
{ "type": "Feature", "properties": { "cluster": 38, "count": 2 }, "geometry": { "type": "Point", "coordinates": [ 1268475.622934249229729, 4053346.172596393153071 ] } },
{ "type": "Feature", "properties": { "cluster": 39, "count": 4 }, "geometry": { "type": "Point", "coordinates": [ 1267979.250798463821411, 4053340.698336165398359 ] } },
{ "type": "Feature", "properties": { "cluster": 40, "count": 1 }, "geometry": { "type": "Point", "coordinates": [ 1268456.234335960820317, 4052762.267448752187192 ] } },
{ "type": "Feature", "properties": { "cluster": 41, "count": 4 }, "geometry": { "type": "Point", "coordinates": [ 1276537.085321225691587, 4049842.960866281297058 ] } },
{ "type": "Feature", "properties": { "cluster": 42, "count": 4 }, "geometry": { "type": "Point", "coordinates": [ 1277047.460191153688356, 4050349.168038088828325 ] } },
{ "type": "Feature", "properties": { "cluster": 43, "count": 1 }, "geometry": { "type": "Point", "coordinates": [ 1270070.145752504467964, 4054134.396992332302034 ] } },
{ "type": "Feature", "properties": { "cluster": 44, "count": 3 }, "geometry": { "type": "Point", "coordinates": [ 1273820.956512847915292, 4052139.528276133816689 ] } },
{ "type": "Feature", "properties": { "cluster": 45, "count": 3 }, "geometry": { "type": "Point", "coordinates": [ 1273685.345022336347029, 4050756.318295123521239 ] } },
{ "type": "Feature", "properties": { "cluster": 46, "count": 4 }, "geometry": { "type": "Point", "coordinates": [ 1274001.637627888936549, 4051129.526761105284095 ] } },
{ "type": "Feature", "properties": { "cluster": 47, "count": 1 }, "geometry": { "type": "Point", "coordinates": [ 1265062.545568446395919, 4051566.163938845042139 ] } },
{ "type": "Feature", "properties": { "cluster": 48, "count": 4 }, "geometry": { "type": "Point", "coordinates": [ 1267032.250722513068467, 4055345.265412081498653 ] } },
{ "type": "Feature", "properties": { "cluster": 49, "count": 5 }, "geometry": { "type": "Point", "coordinates": [ 1276584.549983993871137, 4048636.167779584880918 ] } },
{ "type": "Feature", "properties": { "cluster": 50, "count": 1 }, "geometry": { "type": "Point", "coordinates": [ 1267624.682332459371537, 4054247.211823814548552 ] } },
{ "type": "Feature", "properties": { "cluster": 51, "count": 4 }, "geometry": { "type": "Point", "coordinates": [ 1272780.181782477535307, 4055265.647586160339415 ] } },
{ "type": "Feature", "properties": { "cluster": 52, "count": 2 }, "geometry": { "type": "Point", "coordinates": [ 1273636.338041574694216, 4053633.968809698242694 ] } },
{ "type": "Feature", "properties": { "cluster": 53, "count": 4 }, "geometry": { "type": "Point", "coordinates": [ 1272310.025692917406559, 4053240.150891149882227 ] } },
{ "type": "Feature", "properties": { "cluster": 54, "count": 4 }, "geometry": { "type": "Point", "coordinates": [ 1274232.747920312453061, 4054259.348317662253976 ] } },
{ "type": "Feature", "properties": { "cluster": 55, "count": 4 }, "geometry": { "type": "Point", "coordinates": [ 1273654.221598436124623, 4054689.110444775316864 ] } },
{ "type": "Feature", "properties": { "cluster": 56, "count": 4 }, "geometry": { "type": "Point", "coordinates": [ 1276268.991401609731838, 4053464.696704098954797 ] } },
{ "type": "Feature", "properties": { "cluster": 57, "count": 2 }, "geometry": { "type": "Point", "coordinates": [ 1271317.648277501109987, 4049892.427961957640946 ] } },
{ "type": "Feature", "properties": { "cluster": 58, "count": 4 }, "geometry": { "type": "Point", "coordinates": [ 1264106.2488207006827, 4057576.550214332528412 ] } },
{ "type": "Feature", "properties": { "cluster": 59, "count": 3 }, "geometry": { "type": "Point", "coordinates": [ 1272212.098232572665438, 4050814.677204755600542 ] } },
{ "type": "Feature", "properties": { "cluster": 60, "count": 4 }, "geometry": { "type": "Point", "coordinates": [ 1273298.055900308536366, 4050792.401311281137168 ] } },
{ "type": "Feature", "properties": { "cluster": 61, "count": 4 }, "geometry": { "type": "Point", "coordinates": [ 1276041.487838285509497, 4052625.451728347688913 ] } },
{ "type": "Feature", "properties": { "cluster": 62, "count": 4 }, "geometry": { "type": "Point", "coordinates": [ 1276323.038601841544732, 4048173.707574088126421 ] } },
{ "type": "Feature", "properties": { "cluster": 63, "count": 4 }, "geometry": { "type": "Point", "coordinates": [ 1262572.464732558932155, 4055018.917039066553116 ] } },
{ "type": "Feature", "properties": { "cluster": 64, "count": 4 }, "geometry": { "type": "Point", "coordinates": [ 1263328.636836808174849, 4055135.045880844816566 ] } },
{ "type": "Feature", "properties": { "cluster": 65, "count": 4 }, "geometry": { "type": "Point", "coordinates": [ 1261864.307513364590704, 4052546.07335242535919 ] } },
{ "type": "Feature", "properties": { "cluster": 66, "count": 1 }, "geometry": { "type": "Point", "coordinates": [ 1267538.706814802717417, 4052857.693814831785858 ] } },
{ "type": "Feature", "properties": { "cluster": 67, "count": 1 }, "geometry": { "type": "Point", "coordinates": [ 1267590.45112603250891, 4052909.732171035371721 ] } },
{ "type": "Feature", "properties": { "cluster": 68, "count": 1 }, "geometry": { "type": "Point", "coordinates": [ 1267504.74123688461259, 4052995.746283853426576 ] } },
{ "type": "Feature", "properties": { "cluster": 69, "count": 2 }, "geometry": { "type": "Point", "coordinates": [ 1275809.16459608823061, 4052161.22099266666919 ] } },
{ "type": "Feature", "properties": { "cluster": 70, "count": 4 }, "geometry": { "type": "Point", "coordinates": [ 1274327.220987959764898, 4051951.345229425467551 ] } },
{ "type": "Feature", "properties": { "cluster": 71, "count": 4 }, "geometry": { "type": "Point", "coordinates": [ 1269288.406490030931309, 4053051.872907476034015 ] } },
{ "type": "Feature", "properties": { "cluster": 72, "count": 2 }, "geometry": { "type": "Point", "coordinates": [ 1271358.843774331035092, 4050849.017517336644232 ] } },
{ "type": "Feature", "properties": { "cluster": 73, "count": 3 }, "geometry": { "type": "Point", "coordinates": [ 1268655.272868818370625, 4052163.204553772229701 ] } },
{ "type": "Feature", "properties": { "cluster": 74, "count": 3 }, "geometry": { "type": "Point", "coordinates": [ 1272248.96919550257735, 4051480.953340834006667 ] } },
{ "type": "Feature", "properties": { "cluster": 75, "count": 2 }, "geometry": { "type": "Point", "coordinates": [ 1272334.260030463337898, 4050871.897647624835372 ] } },
{ "type": "Feature", "properties": { "cluster": 76, "count": 4 }, "geometry": { "type": "Point", "coordinates": [ 1269934.683250695466995, 4050616.933155648875982 ] } },
{ "type": "Feature", "properties": { "cluster": 77, "count": 4 }, "geometry": { "type": "Point", "coordinates": [ 1272833.99189560720697, 4049594.3344083330594 ] } },
{ "type": "Feature", "properties": { "cluster": 78, "count": 5 }, "geometry": { "type": "Point", "coordinates": [ 1269109.156500381184742, 4053173.205662318505347 ] } },
{ "type": "Feature", "properties": { "cluster": 79, "count": 3 }, "geometry": { "type": "Point", "coordinates": [ 1270579.190309603931382, 4050634.171139458660036 ] } },
{ "type": "Feature", "properties": { "cluster": 80, "count": 3 }, "geometry": { "type": "Point", "coordinates": [ 1272197.053679755656049, 4047962.30935739679262 ] } },
{ "type": "Feature", "properties": { "cluster": 81, "count": 4 }, "geometry": { "type": "Point", "coordinates": [ 1266165.115039769327268, 4053844.787422185763717 ] } },
{ "type": "Feature", "properties": { "cluster": 82, "count": 4 }, "geometry": { "type": "Point", "coordinates": [ 1273793.001784425228834, 4047568.192887624260038 ] } },
{ "type": "Feature", "properties": { "cluster": 83, "count": 4 }, "geometry": { "type": "Point", "coordinates": [ 1266893.399437867337838, 4054282.678448349237442 ] } },
{ "type": "Feature", "properties": { "cluster": 84, "count": 1 }, "geometry": { "type": "Point", "coordinates": [ 1269494.645486315246671, 4054079.237852338235825 ] } },
{ "type": "Feature", "properties": { "cluster": 85, "count": 1 }, "geometry": { "type": "Point", "coordinates": [ 1269600.235897041158751, 4054160.999324847944081 ] } },
{ "type": "Feature", "properties": { "cluster": 86, "count": 1 }, "geometry": { "type": "Point", "coordinates": [ 1269475.553415996721014, 4054232.717305537778884 ] } },
{ "type": "Feature", "properties": { "cluster": 87, "count": 4 }, "geometry": { "type": "Point", "coordinates": [ 1271303.077982775866985, 4055886.274566445499659 ] } },
{ "type": "Feature", "properties": { "cluster": 88, "count": 4 }, "geometry": { "type": "Point", "coordinates": [ 1265653.477828325238079, 4055523.769224844872952 ] } },
{ "type": "Feature", "properties": { "cluster": 89, "count": 4 }, "geometry": { "type": "Point", "coordinates": [ 1265514.983497755136341, 4054529.190275546163321 ] } },
{ "type": "Feature", "properties": { "cluster": 90, "count": 4 }, "geometry": { "type": "Point", "coordinates": [ 1272363.340482186758891, 4054632.754061076790094 ] } },
{ "type": "Feature", "properties": { "cluster": 91, "count": 4 }, "geometry": { "type": "Point", "coordinates": [ 1262430.134801911655813, 4056625.867115000262856 ] } },
{ "type": "Feature", "properties": { "cluster": 92, "count": 4 }, "geometry": { "type": "Point", "coordinates": [ 1263268.024350506719202, 4056702.68050456373021 ] } },
{ "type": "Feature", "properties": { "cluster": 93, "count": 4 }, "geometry": { "type": "Point", "coordinates": [ 1265288.354738963767886, 4057010.969842512626201 ] } },
{ "type": "Feature", "properties": { "cluster": 94, "count": 3 }, "geometry": { "type": "Point", "coordinates": [ 1263991.852814489044249, 4057956.965320270508528 ] } },
{ "type": "Feature", "properties": { "cluster": 95, "count": 4 }, "geometry": { "type": "Point", "coordinates": [ 1264120.740307360887527, 4058623.571491623297334 ] } },
{ "type": "Feature", "properties": { "cluster": 96, "count": 3 }, "geometry": { "type": "Point", "coordinates": [ 1270357.845856310101226, 4055698.613324912730604 ] } },
{ "type": "Feature", "properties": { "cluster": 97, "count": 4 }, "geometry": { "type": "Point", "coordinates": [ 1264763.003030114108697, 4054756.947295312769711 ] } },
{ "type": "Feature", "properties": { "cluster": 98, "count": 3 }, "geometry": { "type": "Point", "coordinates": [ 1263660.264817239483818, 4052112.57668418250978 ] } },
{ "type": "Feature", "properties": { "cluster": 99, "count": 4 }, "geometry": { "type": "Point", "coordinates": [ 1274205.548309936653823, 4053127.735400763340294 ] } },
{ "type": "Feature", "properties": { "cluster": 100, "count": 3 }, "geometry": { "type": "Point", "coordinates": [ 1274338.935798323247582, 4053428.724055675789714 ] } },
{ "type": "Feature", "properties": { "cluster": 101, "count": 4 }, "geometry": { "type": "Point", "coordinates": [ 1274593.400535688269883, 4054120.692698490805924 ] } },
{ "type": "Feature", "properties": { "cluster": 102, "count": 4 }, "geometry": { "type": "Point", "coordinates": [ 1275360.524666297715157, 4053820.801434255205095 ] } },
{ "type": "Feature", "properties": { "cluster": 103, "count": 4 }, "geometry": { "type": "Point", "coordinates": [ 1275242.053013479104266, 4053522.609501433093101 ] } },
{ "type": "Feature", "properties": { "cluster": 104, "count": 4 }, "geometry": { "type": "Point", "coordinates": [ 1269722.840144848683849, 4056468.390324274078012 ] } },
{ "type": "Feature", "properties": { "cluster": 105, "count": 3 }, "geometry": { "type": "Point", "coordinates": [ 1272099.937308768741786, 4055691.396451309323311 ] } },
{ "type": "Feature", "properties": { "cluster": 106, "count": 4 }, "geometry": { "type": "Point", "coordinates": [ 1271823.165805962402374, 4055034.385836611967534 ] } },
{ "type": "Feature", "properties": { "cluster": 107, "count": 4 }, "geometry": { "type": "Point", "coordinates": [ 1266623.13124746712856, 4057317.852460327092558 ] } },
{ "type": "Feature", "properties": { "cluster": 108, "count": 2 }, "geometry": { "type": "Point", "coordinates": [ 1266281.232097307220101, 4057762.584267773665488 ] } },
{ "type": "Feature", "properties": { "cluster": 109, "count": 4 }, "geometry": { "type": "Point", "coordinates": [ 1276053.735111847985536, 4051897.381813479587436 ] } },
{ "type": "Feature", "properties": { "cluster": 110, "count": 4 }, "geometry": { "type": "Point", "coordinates": [ 1276413.500831255223602, 4052230.062517623417079 ] } },
{ "type": "Feature", "properties": { "cluster": 111, "count": 4 }, "geometry": { "type": "Point", "coordinates": [ 1273157.552559811621904, 4054040.630468735471368 ] } },
{ "type": "Feature", "properties": { "cluster": 112, "count": 3 }, "geometry": { "type": "Point", "coordinates": [ 1275942.876000238815323, 4049255.916805934160948 ] } },
{ "type": "Feature", "properties": { "cluster": 113, "count": 4 }, "geometry": { "type": "Point", "coordinates": [ 1278300.202090877806768, 4053965.918946714140475 ] } },
{ "type": "Feature", "properties": { "cluster": 114, "count": 4 }, "geometry": { "type": "Point", "coordinates": [ 1277454.70737187564373, 4053188.437616000883281 ] } },
{ "type": "Feature", "properties": { "cluster": 115, "count": 4 }, "geometry": { "type": "Point", "coordinates": [ 1276977.707330911187455, 4052751.483516046777368 ] } },
{ "type": "Feature", "properties": { "cluster": 116, "count": 4 }, "geometry": { "type": "Point", "coordinates": [ 1277204.672798341605812, 4050188.516206414438784 ] } },
{ "type": "Feature", "properties": { "cluster": 117, "count": 4 }, "geometry": { "type": "Point", "coordinates": [ 1267510.96210320154205, 4050218.97222363948822 ] } },
{ "type": "Feature", "properties": { "cluster": 118, "count": 4 }, "geometry": { "type": "Point", "coordinates": [ 1265555.816655075643212, 4058678.987804495729506 ] } },
{ "type": "Feature", "properties": { "cluster": 119, "count": 4 }, "geometry": { "type": "Point", "coordinates": [ 1279453.167137516662478, 4048488.877844699658453 ] } },
{ "type": "Feature", "properties": { "cluster": 120, "count": 4 }, "geometry": { "type": "Point", "coordinates": [ 1263224.796625588322058, 4052892.964772905223072 ] } },
{ "type": "Feature", "properties": { "cluster": 121, "count": 4 }, "geometry": { "type": "Point", "coordinates": [ 1263640.821192886214703, 4056728.376022060401738 ] } },
{ "type": "Feature", "properties": { "cluster": 122, "count": 4 }, "geometry": { "type": "Point", "coordinates": [ 1264142.651974414475262, 4056757.987981128506362 ] } },
{ "type": "Feature", "properties": { "cluster": 123, "count": 2 }, "geometry": { "type": "Point", "coordinates": [ 1271126.353169735521078, 4050216.786084943916649 ] } },
{ "type": "Feature", "properties": { "cluster": 124, "count": 4 }, "geometry": { "type": "Point", "coordinates": [ 1271848.095169633626938, 4050614.701216766610742 ] } },
{ "type": "Feature", "properties": { "cluster": 125, "count": 1 }, "geometry": { "type": "Point", "coordinates": [ 1274157.748681074706838, 4048183.222040811087936 ] } },
{ "type": "Feature", "properties": { "cluster": 126, "count": 1 }, "geometry": { "type": "Point", "coordinates": [ 1274177.901821866165847, 4048237.048344027716666 ] } },
{ "type": "Feature", "properties": { "cluster": 127, "count": 4 }, "geometry": { "type": "Point", "coordinates": [ 1264135.96489878022112, 4051819.687535159289837 ] } },
{ "type": "Feature", "properties": { "cluster": 128, "count": 1 }, "geometry": { "type": "Point", "coordinates": [ 1267442.743276183260605, 4052920.699475662782788 ] } },
{ "type": "Feature", "properties": { "cluster": 129, "count": 4 }, "geometry": { "type": "Point", "coordinates": [ 1273999.003770012408495, 4045693.119428736623377 ] } },
{ "type": "Feature", "properties": { "cluster": 130, "count": 5 }, "geometry": { "type": "Point", "coordinates": [ 1270629.931553190108389, 4051174.570541703607887 ] } },
{ "type": "Feature", "properties": { "cluster": 131, "count": 4 }, "geometry": { "type": "Point", "coordinates": [ 1261614.637170072644949, 4058180.927272347733378 ] } },
{ "type": "Feature", "properties": { "cluster": 132, "count": 4 }, "geometry": { "type": "Point", "coordinates": [ 1264666.14868331188336, 4052757.455185638740659 ] } },
{ "type": "Feature", "properties": { "cluster": 133, "count": 3 }, "geometry": { "type": "Point", "coordinates": [ 1271186.524935595458373, 4049816.065066410694271 ] } },
{ "type": "Feature", "properties": { "cluster": 134, "count": 4 }, "geometry": { "type": "Point", "coordinates": [ 1268573.59439973323606, 4049559.896419405471534 ] } },
{ "type": "Feature", "properties": { "cluster": 135, "count": 4 }, "geometry": { "type": "Point", "coordinates": [ 1272573.021665820851922, 4052500.9785669259727 ] } },
{ "type": "Feature", "properties": { "cluster": 136, "count": 4 }, "geometry": { "type": "Point", "coordinates": [ 1264997.027779609896243, 4057638.41130239283666 ] } },
{ "type": "Feature", "properties": { "cluster": 137, "count": 4 }, "geometry": { "type": "Point", "coordinates": [ 1265444.929145079804584, 4057869.809805427677929 ] } },
{ "type": "Feature", "properties": { "cluster": 138, "count": 4 }, "geometry": { "type": "Point", "coordinates": [ 1265904.307130405679345, 4058217.40038665663451 ] } },
{ "type": "Feature", "properties": { "cluster": 139, "count": 4 }, "geometry": { "type": "Point", "coordinates": [ 1264717.528159375768155, 4056790.25211447943002 ] } },
{ "type": "Feature", "properties": { "cluster": 140, "count": 4 }, "geometry": { "type": "Point", "coordinates": [ 1265801.281327561475337, 4057400.084292282816023 ] } },
{ "type": "Feature", "properties": { "cluster": 141, "count": 4 }, "geometry": { "type": "Point", "coordinates": [ 1264415.862730139866471, 4058235.097282404545695 ] } },
{ "type": "Feature", "properties": { "cluster": 142, "count": 4 }, "geometry": { "type": "Point", "coordinates": [ 1264997.767580634914339, 4058460.826480928342789 ] } },
{ "type": "Feature", "properties": { "cluster": 143, "count": 4 }, "geometry": { "type": "Point", "coordinates": [ 1275634.912717286730185, 4048685.242425464093685 ] } },
{ "type": "Feature", "properties": { "cluster": 144, "count": 4 }, "geometry": { "type": "Point", "coordinates": [ 1276697.160384623799473, 4051924.424677076283842 ] } },
{ "type": "Feature", "properties": { "cluster": 145, "count": 1 }, "geometry": { "type": "Point", "coordinates": [ 1273556.488823216874152, 4048837.583608316257596 ] } },
{ "type": "Feature", "properties": { "cluster": 146, "count": 3 }, "geometry": { "type": "Point", "coordinates": [ 1272983.892135835951194, 4049434.417113706935197 ] } },
{ "type": "Feature", "properties": { "cluster": 147, "count": 3 }, "geometry": { "type": "Point", "coordinates": [ 1270811.992752218386158, 4050057.905313471797854 ] } },
{ "type": "Feature", "properties": { "cluster": 148, "count": 4 }, "geometry": { "type": "Point", "coordinates": [ 1275611.770856685936451, 4051488.533149350900203 ] } },
{ "type": "Feature", "properties": { "cluster": 149, "count": 3 }, "geometry": { "type": "Point", "coordinates": [ 1272574.540479361312464, 4049857.677402766887099 ] } },
{ "type": "Feature", "properties": { "cluster": 150, "count": 4 }, "geometry": { "type": "Point", "coordinates": [ 1274848.564327136613429, 4047496.22893792251125 ] } },
{ "type": "Feature", "properties": { "cluster": 151, "count": 3 }, "geometry": { "type": "Point", "coordinates": [ 1275809.239191447151825, 4050449.083153563085943 ] } },
{ "type": "Feature", "properties": { "cluster": 152, "count": 6 }, "geometry": { "type": "Point", "coordinates": [ 1271071.485735155409202, 4048125.711106585804373 ] } },
{ "type": "Feature", "properties": { "cluster": 153, "count": 4 }, "geometry": { "type": "Point", "coordinates": [ 1260490.343210042919964, 4057975.953643215354532 ] } },
{ "type": "Feature", "properties": { "cluster": 154, "count": 4 }, "geometry": { "type": "Point", "coordinates": [ 1272409.992534069111571, 4050031.134710440412164 ] } },
{ "type": "Feature", "properties": { "cluster": 155, "count": 1 }, "geometry": { "type": "Point", "coordinates": [ 1273062.760812041116878, 4050236.180557594168931 ] } },
{ "type": "Feature", "properties": { "cluster": 156, "count": 3 }, "geometry": { "type": "Point", "coordinates": [ 1271568.013739680638537, 4051708.653412673156708 ] } },
{ "type": "Feature", "properties": { "cluster": 157, "count": 2 }, "geometry": { "type": "Point", "coordinates": [ 1265286.808557087089866, 4049772.863653605338186 ] } },
{ "type": "Feature", "properties": { "cluster": 158, "count": 2 }, "geometry": { "type": "Point", "coordinates": [ 1265352.387066904455423, 4049789.598192454315722 ] } },
{ "type": "Feature", "properties": { "cluster": 159, "count": 4 }, "geometry": { "type": "Point", "coordinates": [ 1264550.92166702542454, 4050074.233433491550386 ] } },
{ "type": "Feature", "properties": { "cluster": 160, "count": 4 }, "geometry": { "type": "Point", "coordinates": [ 1267740.950836944859475, 4048197.858207636512816 ] } },
{ "type": "Feature", "properties": { "cluster": 161, "count": 3 }, "geometry": { "type": "Point", "coordinates": [ 1268464.995246787555516, 4055686.300093165133148 ] } },
{ "type": "Feature", "properties": { "cluster": 162, "count": 4 }, "geometry": { "type": "Point", "coordinates": [ 1274235.937492799013853, 4047105.863041643984616 ] } },
{ "type": "Feature", "properties": { "cluster": 163, "count": 4 }, "geometry": { "type": "Point", "coordinates": [ 1266484.909189395373687, 4055684.326741338707507 ] } },
{ "type": "Feature", "properties": { "cluster": 164, "count": 4 }, "geometry": { "type": "Point", "coordinates": [ 1274981.818256934871897, 4055879.171472238842398 ] } },
{ "type": "Feature", "properties": { "cluster": 165, "count": 3 }, "geometry": { "type": "Point", "coordinates": [ 1260986.0118789721746, 4057744.927353851497173 ] } },
{ "type": "Feature", "properties": { "cluster": 166, "count": 4 }, "geometry": { "type": "Point", "coordinates": [ 1262176.397175321821123, 4055465.590847617480904 ] } },
{ "type": "Feature", "properties": { "cluster": 167, "count": 3 }, "geometry": { "type": "Point", "coordinates": [ 1262121.109175122343004, 4055283.379608921706676 ] } },
{ "type": "Feature", "properties": { "cluster": 168, "count": 4 }, "geometry": { "type": "Point", "coordinates": [ 1275880.568836484802887, 4050759.080694342032075 ] } },
{ "type": "Feature", "properties": { "cluster": 169, "count": 1 }, "geometry": { "type": "Point", "coordinates": [ 1274415.365753299556673, 4044918.17939217435196 ] } },
{ "type": "Feature", "properties": { "cluster": 170, "count": 2 }, "geometry": { "type": "Point", "coordinates": [ 1274463.610113500151783, 4044890.720484761055559 ] } },
{ "type": "Feature", "properties": { "cluster": 171, "count": 4 }, "geometry": { "type": "Point", "coordinates": [ 1270824.560041123302653, 4047200.7871472989209 ] } },
{ "type": "Feature", "properties": { "cluster": 172, "count": 4 }, "geometry": { "type": "Point", "coordinates": [ 1275099.748660174198449, 4050070.076179278083146 ] } },
{ "type": "Feature", "properties": { "cluster": 173, "count": 1 }, "geometry": { "type": "Point", "coordinates": [ 1265112.942343838047236, 4051589.888126753270626 ] } },
{ "type": "Feature", "properties": { "cluster": 174, "count": 3 }, "geometry": { "type": "Point", "coordinates": [ 1270626.127532212762162, 4052795.903680828865618 ] } },
{ "type": "Feature", "properties": { "cluster": 175, "count": 1 }, "geometry": { "type": "Point", "coordinates": [ 1273367.30676231184043, 4046882.304860179778188 ] } },
{ "type": "Feature", "properties": { "cluster": 176, "count": 4 }, "geometry": { "type": "Point", "coordinates": [ 1264144.601292251143605, 4054914.716357598081231 ] } },
{ "type": "Feature", "properties": { "cluster": 177, "count": 3 }, "geometry": { "type": "Point", "coordinates": [ 1271179.79961334890686, 4049484.875520461704582 ] } },
{ "type": "Feature", "properties": { "cluster": 178, "count": 3 }, "geometry": { "type": "Point", "coordinates": [ 1271139.238918594550341, 4048868.068486341740936 ] } },
{ "type": "Feature", "properties": { "cluster": 179, "count": 4 }, "geometry": { "type": "Point", "coordinates": [ 1269433.867156327003613, 4057689.419683272950351 ] } },
{ "type": "Feature", "properties": { "cluster": 180, "count": 4 }, "geometry": { "type": "Point", "coordinates": [ 1260849.750816578511149, 4058432.28587784525007 ] } },
{ "type": "Feature", "properties": { "cluster": 181, "count": 4 }, "geometry": { "type": "Point", "coordinates": [ 1272034.764939537271857, 4047607.470562308095396 ] } },
{ "type": "Feature", "properties": { "cluster": 182, "count": 1 }, "geometry": { "type": "Point", "coordinates": [ 1271589.469092905521393, 4047131.511497019790113 ] } },
{ "type": "Feature", "properties": { "cluster": 183, "count": 1 }, "geometry": { "type": "Point", "coordinates": [ 1271617.813282385235652, 4047087.240146612748504 ] } },
{ "type": "Feature", "properties": { "cluster": 184, "count": 1 }, "geometry": { "type": "Point", "coordinates": [ 1271547.331841221544892, 4047096.296464605256915 ] } },
{ "type": "Feature", "properties": { "cluster": 185, "count": 1 }, "geometry": { "type": "Point", "coordinates": [ 1271578.525603537913412, 4047055.723173326812685 ] } }
]
}
