{
"type": "FeatureCollection",
"name": "traffic_lights_merged",
"crs": { "type": "name", "properties": { "name": "urn:ogc:def:crs:EPSG::32639" } },
"features": [
{ "type": "Feature", "properties": { "cluster": 0, "count": 3 }, "geometry": { "type": "Point", "coordinates": [ 535655.803014222183265, 3952516.240077755879611 ] } },
{ "type": "Feature", "properties": { "cluster": 1, "count": 2 }, "geometry": { "type": "Point", "coordinates": [ 537106.205993395997211, 3953391.520132572390139 ] } },
{ "type": "Feature", "properties": { "cluster": 2, "count": 2 }, "geometry": { "type": "Point", "coordinates": [ 537073.359886744758114, 3957761.122180446051061 ] } },
{ "type": "Feature", "properties": { "cluster": 3, "count": 2 }, "geometry": { "type": "Point", "coordinates": [ 536734.548867234028876, 3951476.395706133916974 ] } },
{ "type": "Feature", "properties": { "cluster": 4, "count": 6 }, "geometry": { "type": "Point", "coordinates": [ 536653.264802168821916, 3950887.927197712939233 ] } },
{ "type": "Feature", "properties": { "cluster": 5, "count": 1 }, "geometry": { "type": "Point", "coordinates": [ 538625.970921759610064, 3954109.182016232516617 ] } },
{ "type": "Feature", "properties": { "cluster": 6, "count": 2 }, "geometry": { "type": "Point", "coordinates": [ 540100.487707411055453, 3953366.934053550474346 ] } },
{ "type": "Feature", "properties": { "cluster": 7, "count": 6 }, "geometry": { "type": "Point", "coordinates": [ 533929.394756243214943, 3950805.33369943452999 ] } },
{ "type": "Feature", "properties": { "cluster": 8, "count": 2 }, "geometry": { "type": "Point", "coordinates": [ 537946.561426170286722, 3958283.609424305148423 ] } },
{ "type": "Feature", "properties": { "cluster": 9, "count": 1 }, "geometry": { "type": "Point", "coordinates": [ 537983.924081373843364, 3950173.438354877289385 ] } },
{ "type": "Feature", "properties": { "cluster": 10, "count": 1 }, "geometry": { "type": "Point", "coordinates": [ 537240.318459728383459, 3958689.9271319960244 ] } },
{ "type": "Feature", "properties": { "cluster": 11, "count": 2 }, "geometry": { "type": "Point", "coordinates": [ 528611.301865466870368, 3953331.258841629140079 ] } },
{ "type": "Feature", "properties": { "cluster": 12, "count": 2 }, "geometry": { "type": "Point", "coordinates": [ 529324.770362011156976, 3953250.908811723813415 ] } },
{ "type": "Feature", "properties": { "cluster": 13, "count": 1 }, "geometry": { "type": "Point", "coordinates": [ 536490.004218743182719, 3956976.149227960500866 ] } },
{ "type": "Feature", "properties": { "cluster": 14, "count": 3 }, "geometry": { "type": "Point", "coordinates": [ 532900.214626709930599, 3958114.641622878145427 ] } },
{ "type": "Feature", "properties": { "cluster": 15, "count": 2 }, "geometry": { "type": "Point", "coordinates": [ 535622.671727408654988, 3948792.824175958521664 ] } },
{ "type": "Feature", "properties": { "cluster": 16, "count": 4 }, "geometry": { "type": "Point", "coordinates": [ 536435.183548595290631, 3949307.894010473974049 ] } },
{ "type": "Feature", "properties": { "cluster": 17, "count": 4 }, "geometry": { "type": "Point", "coordinates": [ 536087.583310303743929, 3946632.163017888087779 ] } },
{ "type": "Feature", "properties": { "cluster": 18, "count": 2 }, "geometry": { "type": "Point", "coordinates": [ 530070.717708455165848, 3955530.419026746880263 ] } },
{ "type": "Feature", "properties": { "cluster": 19, "count": 2 }, "geometry": { "type": "Point", "coordinates": [ 535446.060465147020295, 3950322.274933577515185 ] } },
{ "type": "Feature", "properties": { "cluster": 20, "count": 1 }, "geometry": { "type": "Point", "coordinates": [ 541781.305126677034423, 3951419.076214135158807 ] } },
{ "type": "Feature", "properties": { "cluster": 21, "count": 4 }, "geometry": { "type": "Point", "coordinates": [ 532750.518545434228145, 3959469.152035350445658 ] } },
{ "type": "Feature", "properties": { "cluster": 22, "count": 2 }, "geometry": { "type": "Point", "coordinates": [ 530305.872969213756733, 3953379.778627950698137 ] } },
{ "type": "Feature", "properties": { "cluster": 23, "count": 2 }, "geometry": { "type": "Point", "coordinates": [ 537845.38339615939185, 3953913.584505182690918 ] } },
{ "type": "Feature", "properties": { "cluster": 24, "count": 2 }, "geometry": { "type": "Point", "coordinates": [ 538890.260787680512294, 3954469.361198337748647 ] } },
{ "type": "Feature", "properties": { "cluster": 25, "count": 1 }, "geometry": { "type": "Point", "coordinates": [ 539419.260075581842102, 3954212.780888418201357 ] } },
{ "type": "Feature", "properties": { "cluster": 26, "count": 2 }, "geometry": { "type": "Point", "coordinates": [ 534713.860472553176805, 3949423.097411838360131 ] } },
{ "type": "Feature", "properties": { "cluster": 27, "count": 6 }, "geometry": { "type": "Point", "coordinates": [ 539117.728675060439855, 3954702.141451192554086 ] } },
{ "type": "Feature", "properties": { "cluster": 28, "count": 2 }, "geometry": { "type": "Point", "coordinates": [ 535482.954580777557567, 3950004.305631034541875 ] } },
{ "type": "Feature", "properties": { "cluster": 29, "count": 1 }, "geometry": { "type": "Point", "coordinates": [ 540425.142265127040446, 3961195.126276133116335 ] } },
{ "type": "Feature", "properties": { "cluster": 30, "count": 1 }, "geometry": { "type": "Point", "coordinates": [ 541405.838959278189577, 3957726.629143700934947 ] } },
{ "type": "Feature", "properties": { "cluster": 31, "count": 1 }, "geometry": { "type": "Point", "coordinates": [ 534676.804498478071764, 3951022.118675392586738 ] } },
{ "type": "Feature", "properties": { "cluster": 32, "count": 1 }, "geometry": { "type": "Point", "coordinates": [ 538698.659918896388263, 3953444.311092830263078 ] } },
{ "type": "Feature", "properties": { "cluster": 33, "count": 1 }, "geometry": { "type": "Point", "coordinates": [ 542692.926321875420399, 3955351.361335355788469 ] } },
{ "type": "Feature", "properties": { "cluster": 34, "count": 1 }, "geometry": { "type": "Point", "coordinates": [ 534445.99955750326626, 3950617.691104286815971 ] } },
{ "type": "Feature", "properties": { "cluster": 35, "count": 2 }, "geometry": { "type": "Point", "coordinates": [ 535267.857110225246288, 3950333.904608105309308 ] } },
{ "type": "Feature", "properties": { "cluster": 36, "count": 2 }, "geometry": { "type": "Point", "coordinates": [ 539524.337156657478772, 3953917.294046757742763 ] } },
{ "type": "Feature", "properties": { "cluster": 37, "count": 1 }, "geometry": { "type": "Point", "coordinates": [ 539440.205383088788949, 3953913.586764191742986 ] } },
{ "type": "Feature", "properties": { "cluster": 38, "count": 1 }, "geometry": { "type": "Point", "coordinates": [ 539234.986766893416643, 3953904.535977468825877 ] } },
{ "type": "Feature", "properties": { "cluster": 39, "count": 1 }, "geometry": { "type": "Point", "coordinates": [ 539031.632118975510821, 3954189.18406540248543 ] } },
{ "type": "Feature", "properties": { "cluster": 40, "count": 2 }, "geometry": { "type": "Point", "coordinates": [ 526240.963453643023968, 3957685.021291880868375 ] } },
{ "type": "Feature", "properties": { "cluster": 41, "count": 2 }, "geometry": { "type": "Point", "coordinates": [ 539116.535653670551255, 3954480.837261418346316 ] } },
{ "type": "Feature", "properties": { "cluster": 42, "count": 1 }, "geometry": { "type": "Point", "coordinates": [ 540032.528359092888422, 3953054.06943724071607 ] } },
{ "type": "Feature", "properties": { "cluster": 43, "count": 2 }, "geometry": { "type": "Point", "coordinates": [ 536238.954236816964112, 3953211.45295112580061 ] } },
{ "type": "Feature", "properties": { "cluster": 44, "count": 2 }, "geometry": { "type": "Point", "coordinates": [ 536585.551605394110084, 3950411.376029445789754 ] } },
{ "type": "Feature", "properties": { "cluster": 45, "count": 2 }, "geometry": { "type": "Point", "coordinates": [ 537725.346878351876512, 3954271.559417851269245 ] } },
{ "type": "Feature", "properties": { "cluster": 46, "count": 2 }, "geometry": { "type": "Point", "coordinates": [ 531471.063722269842401, 3947695.420708731748164 ] } },
{ "type": "Feature", "properties": { "cluster": 47, "count": 1 }, "geometry": { "type": "Point", "coordinates": [ 541579.499771205941215, 3959667.338710445445031 ] } },
{ "type": "Feature", "properties": { "cluster": 48, "count": 1 }, "geometry": { "type": "Point", "coordinates": [ 540043.219732256489806, 3954242.493602924514562 ] } },
{ "type": "Feature", "properties": { "cluster": 49, "count": 1 }, "geometry": { "type": "Point", "coordinates": [ 539113.921308563556522, 3959550.860357119701803 ] } },
{ "type": "Feature", "properties": { "cluster": 50, "count": 2 }, "geometry": { "type": "Point", "coordinates": [ 537258.151524908025749, 3942577.527792539447546 ] } },
{ "type": "Feature", "properties": { "cluster": 51, "count": 2 }, "geometry": { "type": "Point", "coordinates": [ 536528.656846287311055, 3949997.81821390427649 ] } },
{ "type": "Feature", "properties": { "cluster": 52, "count": 4 }, "geometry": { "type": "Point", "coordinates": [ 527384.779025290394202, 3954711.741159995552152 ] } },
{ "type": "Feature", "properties": { "cluster": 53, "count": 2 }, "geometry": { "type": "Point", "coordinates": [ 540256.070334438234568, 3954248.874911587685347 ] } },
{ "type": "Feature", "properties": { "cluster": 54, "count": 1 }, "geometry": { "type": "Point", "coordinates": [ 540343.326131327310577, 3951578.352470667101443 ] } },
{ "type": "Feature", "properties": { "cluster": 55, "count": 4 }, "geometry": { "type": "Point", "coordinates": [ 546434.463746365625411, 3957267.902005626354367 ] } },
{ "type": "Feature", "properties": { "cluster": 56, "count": 1 }, "geometry": { "type": "Point", "coordinates": [ 544052.53223537991289, 3951620.967161450535059 ] } },
{ "type": "Feature", "properties": { "cluster": 57, "count": 3 }, "geometry": { "type": "Point", "coordinates": [ 532182.758515352499671, 3954540.206838421523571 ] } },
{ "type": "Feature", "properties": { "cluster": 58, "count": 3 }, "geometry": { "type": "Point", "coordinates": [ 544015.822829625569284, 3942268.811201315838844 ] } },
{ "type": "Feature", "properties": { "cluster": 59, "count": 4 }, "geometry": { "type": "Point", "coordinates": [ 543496.691017314908095, 3941875.276724193245173 ] } },
{ "type": "Feature", "properties": { "cluster": 60, "count": 2 }, "geometry": { "type": "Point", "coordinates": [ 543241.705217673443258, 3941681.390579008962959 ] } },
{ "type": "Feature", "properties": { "cluster": 61, "count": 4 }, "geometry": { "type": "Point", "coordinates": [ 526495.449485388002358, 3958445.249450567644089 ] } },
{ "type": "Feature", "properties": { "cluster": 62, "count": 2 }, "geometry": { "type": "Point", "coordinates": [ 530433.653992175823078, 3954720.592945803888142 ] } },
{ "type": "Feature", "properties": { "cluster": 63, "count": 2 }, "geometry": { "type": "Point", "coordinates": [ 526236.987809881102294, 3953884.294214298017323 ] } },
{ "type": "Feature", "properties": { "cluster": 64, "count": 2 }, "geometry": { "type": "Point", "coordinates": [ 533908.018571661086753, 3960703.458186980802566 ] } },
{ "type": "Feature", "properties": { "cluster": 65, "count": 2 }, "geometry": { "type": "Point", "coordinates": [ 521726.85234755941201, 3956762.545858119614422 ] } },
{ "type": "Feature", "properties": { "cluster": 66, "count": 1 }, "geometry": { "type": "Point", "coordinates": [ 539026.323270271415822, 3958291.360725212376565 ] } },
{ "type": "Feature", "properties": { "cluster": 67, "count": 2 }, "geometry": { "type": "Point", "coordinates": [ 538112.755574592621997, 3938744.498314705211669 ] } },
{ "type": "Feature", "properties": { "cluster": 68, "count": 3 }, "geometry": { "type": "Point", "coordinates": [ 535869.730745041859336, 3958614.836545961443335 ] } },
{ "type": "Feature", "properties": { "cluster": 69, "count": 4 }, "geometry": { "type": "Point", "coordinates": [ 529278.244692472275347, 3956994.023692637681961 ] } },
{ "type": "Feature", "properties": { "cluster": 70, "count": 4 }, "geometry": { "type": "Point", "coordinates": [ 529433.220382925472222, 3957630.830533254891634 ] } },
{ "type": "Feature", "properties": { "cluster": 71, "count": 4 }, "geometry": { "type": "Point", "coordinates": [ 530296.859278560848907, 3957367.083277549594641 ] } },
{ "type": "Feature", "properties": { "cluster": 72, "count": 2 }, "geometry": { "type": "Point", "coordinates": [ 533962.873713431181386, 3957592.546076913364232 ] } },
{ "type": "Feature", "properties": { "cluster": 73, "count": 2 }, "geometry": { "type": "Point", "coordinates": [ 532223.166883090976626, 3958444.090647895820439 ] } },
{ "type": "Feature", "properties": { "cluster": 74, "count": 1 }, "geometry": { "type": "Point", "coordinates": [ 532697.172891991678625, 3956907.71017862809822 ] } },
{ "type": "Feature", "properties": { "cluster": 75, "count": 4 }, "geometry": { "type": "Point", "coordinates": [ 527910.975980892195366, 3955900.169667160138488 ] } },
{ "type": "Feature", "properties": { "cluster": 76, "count": 2 }, "geometry": { "type": "Point", "coordinates": [ 530344.721647930680774, 3953141.93988180719316 ] } },
{ "type": "Feature", "properties": { "cluster": 77, "count": 3 }, "geometry": { "type": "Point", "coordinates": [ 537604.46317217068281, 3960831.223389574792236 ] } },
{ "type": "Feature", "properties": { "cluster": 78, "count": 2 }, "geometry": { "type": "Point", "coordinates": [ 537601.251267609884962, 3953829.134858332108706 ] } },
{ "type": "Feature", "properties": { "cluster": 79, "count": 2 }, "geometry": { "type": "Point", "coordinates": [ 537657.717355978209525, 3953399.538535911589861 ] } },
{ "type": "Feature", "properties": { "cluster": 80, "count": 2 }, "geometry": { "type": "Point", "coordinates": [ 525632.470175495371222, 3957862.639944142661989 ] } },
{ "type": "Feature", "properties": { "cluster": 81, "count": 4 }, "geometry": { "type": "Point", "coordinates": [ 540635.676329762442037, 3959631.838211002759635 ] } },
{ "type": "Feature", "properties": { "cluster": 82, "count": 1 }, "geometry": { "type": "Point", "coordinates": [ 537285.36416304775048, 3951484.619524445850402 ] } },
{ "type": "Feature", "properties": { "cluster": 83, "count": 3 }, "geometry": { "type": "Point", "coordinates": [ 537211.828262205468491, 3952288.727138008922338 ] } },
{ "type": "Feature", "properties": { "cluster": 84, "count": 2 }, "geometry": { "type": "Point", "coordinates": [ 537765.77417813334614, 3952438.709007150027901 ] } },
{ "type": "Feature", "properties": { "cluster": 85, "count": 3 }, "geometry": { "type": "Point", "coordinates": [ 537933.007611972512677, 3953413.125729701016098 ] } },
{ "type": "Feature", "properties": { "cluster": 86, "count": 1 }, "geometry": { "type": "Point", "coordinates": [ 539087.801357303280383, 3952743.606880555395037 ] } },
{ "type": "Feature", "properties": { "cluster": 87, "count": 2 }, "geometry": { "type": "Point", "coordinates": [ 539242.995085204369389, 3952972.882501462474465 ] } },
{ "type": "Feature", "properties": { "cluster": 88, "count": 1 }, "geometry": { "type": "Point", "coordinates": [ 539019.14123566984199, 3953224.93164388416335 ] } },
{ "type": "Feature", "properties": { "cluster": 89, "count": 2 }, "geometry": { "type": "Point", "coordinates": [ 539671.717810832778923, 3954228.230530312284827 ] } },
{ "type": "Feature", "properties": { "cluster": 90, "count": 3 }, "geometry": { "type": "Point", "coordinates": [ 539954.698262986727059, 3954740.618863372597843 ] } },
{ "type": "Feature", "properties": { "cluster": 91, "count": 1 }, "geometry": { "type": "Point", "coordinates": [ 540098.236955019412562, 3951279.819412092678249 ] } },
{ "type": "Feature", "properties": { "cluster": 92, "count": 2 }, "geometry": { "type": "Point", "coordinates": [ 539840.270464293891564, 3961782.110834547318518 ] } },
{ "type": "Feature", "properties": { "cluster": 93, "count": 2 }, "geometry": { "type": "Point", "coordinates": [ 541875.682542513823137, 3963173.437672172673047 ] } },
{ "type": "Feature", "properties": { "cluster": 94, "count": 1 }, "geometry": { "type": "Point", "coordinates": [ 532962.238099984358996, 3949081.897594571113586 ] } },
{ "type": "Feature", "properties": { "cluster": 95, "count": 4 }, "geometry": { "type": "Point", "coordinates": [ 533063.081004930078052, 3950777.100618306547403 ] } },
{ "type": "Feature", "properties": { "cluster": 96, "count": 2 }, "geometry": { "type": "Point", "coordinates": [ 534177.333892532624304, 3951364.923523716628551 ] } },
{ "type": "Feature", "properties": { "cluster": 97, "count": 2 }, "geometry": { "type": "Point", "coordinates": [ 536566.739164853934199, 3951953.456560671329498 ] } },
{ "type": "Feature", "properties": { "cluster": 98, "count": 2 }, "geometry": { "type": "Point", "coordinates": [ 531307.190794278867543, 3950030.468055637553334 ] } },
{ "type": "Feature", "properties": { "cluster": 99, "count": 2 }, "geometry": { "type": "Point", "coordinates": [ 533212.110939221456647, 3949307.322991505265236 ] } },
{ "type": "Feature", "properties": { "cluster": 100, "count": 1 }, "geometry": { "type": "Point", "coordinates": [ 539590.086387652321719, 3955113.766577051952481 ] } },
{ "type": "Feature", "properties": { "cluster": 101, "count": 1 }, "geometry": { "type": "Point", "coordinates": [ 539798.604912808164954, 3951492.288637481629848 ] } },
{ "type": "Feature", "properties": { "cluster": 102, "count": 1 }, "geometry": { "type": "Point", "coordinates": [ 539853.052962178364396, 3951553.124309092760086 ] } },
{ "type": "Feature", "properties": { "cluster": 103, "count": 2 }, "geometry": { "type": "Point", "coordinates": [ 537750.760389761417173, 3948327.150038739666343 ] } },
{ "type": "Feature", "properties": { "cluster": 104, "count": 2 }, "geometry": { "type": "Point", "coordinates": [ 532093.024942062445916, 3948359.204278773162514 ] } },
{ "type": "Feature", "properties": { "cluster": 105, "count": 3 }, "geometry": { "type": "Point", "coordinates": [ 536948.712292263284326, 3953076.62074206629768 ] } },
{ "type": "Feature", "properties": { "cluster": 106, "count": 3 }, "geometry": { "type": "Point", "coordinates": [ 539223.927952438942157, 3962384.126382885500789 ] } },
{ "type": "Feature", "properties": { "cluster": 107, "count": 3 }, "geometry": { "type": "Point", "coordinates": [ 552907.154111109790392, 3955527.790115680545568 ] } },
{ "type": "Feature", "properties": { "cluster": 108, "count": 3 }, "geometry": { "type": "Point", "coordinates": [ 528560.907004338339902, 3951445.727236315608025 ] } },
{ "type": "Feature", "properties": { "cluster": 109, "count": 1 }, "geometry": { "type": "Point", "coordinates": [ 543805.186492998385802, 3954533.694313358515501 ] } },
{ "type": "Feature", "properties": { "cluster": 110, "count": 2 }, "geometry": { "type": "Point", "coordinates": [ 529006.646057862904854, 3957075.796149029396474 ] } },
{ "type": "Feature", "properties": { "cluster": 111, "count": 2 }, "geometry": { "type": "Point", "coordinates": [ 521163.070997288799845, 3956772.189925364218652 ] } },
{ "type": "Feature", "properties": { "cluster": 112, "count": 2 }, "geometry": { "type": "Point", "coordinates": [ 531327.965797542361543, 3949483.406539855524898 ] } },
{ "type": "Feature", "properties": { "cluster": 113, "count": 2 }, "geometry": { "type": "Point", "coordinates": [ 529455.522910141153261, 3953536.134342974051833 ] } },
{ "type": "Feature", "properties": { "cluster": 114, "count": 1 }, "geometry": { "type": "Point", "coordinates": [ 538671.239089211449027, 3952854.436192327644676 ] } },
{ "type": "Feature", "properties": { "cluster": 115, "count": 4 }, "geometry": { "type": "Point", "coordinates": [ 537576.289015851565637, 3953009.68845640681684 ] } },
{ "type": "Feature", "properties": { "cluster": 116, "count": 3 }, "geometry": { "type": "Point", "coordinates": [ 538836.386158379144035, 3947364.05907704308629 ] } },
{ "type": "Feature", "properties": { "cluster": 117, "count": 1 }, "geometry": { "type": "Point", "coordinates": [ 538007.855901206028648, 3958589.449490554630756 ] } },
{ "type": "Feature", "properties": { "cluster": 118, "count": 4 }, "geometry": { "type": "Point", "coordinates": [ 538872.482210875488818, 3954689.56726234452799 ] } },
{ "type": "Feature", "properties": { "cluster": 119, "count": 1 }, "geometry": { "type": "Point", "coordinates": [ 540181.879234604886733, 3960309.700709703378379 ] } },
{ "type": "Feature", "properties": { "cluster": 120, "count": 3 }, "geometry": { "type": "Point", "coordinates": [ 532108.243107172078453, 3953676.51460186066106 ] } },
{ "type": "Feature", "properties": { "cluster": 121, "count": 3 }, "geometry": { "type": "Point", "coordinates": [ 532186.361248677480035, 3954057.284003960434347 ] } },
{ "type": "Feature", "properties": { "cluster": 122, "count": 1 }, "geometry": { "type": "Point", "coordinates": [ 541335.380304718739353, 3959648.660450469702482 ] } },
{ "type": "Feature", "properties": { "cluster": 123, "count": 1 }, "geometry": { "type": "Point", "coordinates": [ 536211.656107169925235, 3947667.612772511783987 ] } },
{ "type": "Feature", "properties": { "cluster": 124, "count": 3 }, "geometry": { "type": "Point", "coordinates": [ 541254.049558705766685, 3952041.693341281730682 ] } },
{ "type": "Feature", "properties": { "cluster": 125, "count": 1 }, "geometry": { "type": "Point", "coordinates": [ 539286.822140302625485, 3961081.992902101017535 ] } },
{ "type": "Feature", "properties": { "cluster": 126, "count": 2 }, "geometry": { "type": "Point", "coordinates": [ 530556.144843405927531, 3950948.65274876402691 ] } },
{ "type": "Feature", "properties": { "cluster": 127, "count": 2 }, "geometry": { "type": "Point", "coordinates": [ 532951.163440640666522, 3949287.879360172897577 ] } },
{ "type": "Feature", "properties": { "cluster": 128, "count": 1 }, "geometry": { "type": "Point", "coordinates": [ 530266.629745625657961, 3953158.426391544751823 ] } },
{ "type": "Feature", "properties": { "cluster": 129, "count": 2 }, "geometry": { "type": "Point", "coordinates": [ 531173.616670591756701, 3947057.668870090972632 ] } },
{ "type": "Feature", "properties": { "cluster": 130, "count": 1 }, "geometry": { "type": "Point", "coordinates": [ 548527.379062716150656, 3955554.5479781110771 ] } },
{ "type": "Feature", "properties": { "cluster": 131, "count": 4 }, "geometry": { "type": "Point", "coordinates": [ 547721.477234105928801, 3954287.163994973059744 ] } },
{ "type": "Feature", "properties": { "cluster": 132, "count": 2 }, "geometry": { "type": "Point", "coordinates": [ 535588.388378071598709, 3949425.863484660163522 ] } },
{ "type": "Feature", "properties": { "cluster": 133, "count": 4 }, "geometry": { "type": "Point", "coordinates": [ 539829.818415555171669, 3954519.375550383701921 ] } },
{ "type": "Feature", "properties": { "cluster": 134, "count": 2 }, "geometry": { "type": "Point", "coordinates": [ 538718.115052261622623, 3953218.139792484231293 ] } },
{ "type": "Feature", "properties": { "cluster": 135, "count": 1 }, "geometry": { "type": "Point", "coordinates": [ 538550.887844874872826, 3952473.272200066130608 ] } },
{ "type": "Feature", "properties": { "cluster": 136, "count": 3 }, "geometry": { "type": "Point", "coordinates": [ 538152.871194603969343, 3944883.759397572372109 ] } },
{ "type": "Feature", "properties": { "cluster": 137, "count": 1 }, "geometry": { "type": "Point", "coordinates": [ 533322.476978671387769, 3956778.574264199007303 ] } },
{ "type": "Feature", "properties": { "cluster": 138, "count": 2 }, "geometry": { "type": "Point", "coordinates": [ 541882.995518238050863, 3954260.049394956789911 ] } },
{ "type": "Feature", "properties": { "cluster": 139, "count": 4 }, "geometry": { "type": "Point", "coordinates": [ 536146.599771019071341, 3947109.184629261028022 ] } },
{ "type": "Feature", "properties": { "cluster": 140, "count": 3 }, "geometry": { "type": "Point", "coordinates": [ 540383.181344130425714, 3961633.230799426790327 ] } },
{ "type": "Feature", "properties": { "cluster": 141, "count": 4 }, "geometry": { "type": "Point", "coordinates": [ 534221.841278432752006, 3958162.762848533689976 ] } },
{ "type": "Feature", "properties": { "cluster": 142, "count": 3 }, "geometry": { "type": "Point", "coordinates": [ 513992.085176324471831, 3955840.170685576740652 ] } },
{ "type": "Feature", "properties": { "cluster": 143, "count": 1 }, "geometry": { "type": "Point", "coordinates": [ 540531.810289169661701, 3953209.550420691724867 ] } },
{ "type": "Feature", "properties": { "cluster": 144, "count": 7 }, "geometry": { "type": "Point", "coordinates": [ 534200.999058020533994, 3950811.682470492087305 ] } },
{ "type": "Feature", "properties": { "cluster": 145, "count": 3 }, "geometry": { "type": "Point", "coordinates": [ 529816.810639209696092, 3946149.397602503653616 ] } },
{ "type": "Feature", "properties": { "cluster": 146, "count": 1 }, "geometry": { "type": "Point", "coordinates": [ 535932.554798621218652, 3961312.783100076951087 ] } },
{ "type": "Feature", "properties": { "cluster": 147, "count": 4 }, "geometry": { "type": "Point", "coordinates": [ 534228.534682212164626, 3958605.06444433145225 ] } },
{ "type": "Feature", "properties": { "cluster": 148, "count": 8 }, "geometry": { "type": "Point", "coordinates": [ 522361.536422789387871, 3953982.723221982829273 ] } },
{ "type": "Feature", "properties": { "cluster": 149, "count": 1 }, "geometry": { "type": "Point", "coordinates": [ 539723.657735300716013, 3940483.794570627622306 ] } },
{ "type": "Feature", "properties": { "cluster": 150, "count": 4 }, "geometry": { "type": "Point", "coordinates": [ 536195.640524304704741, 3957055.326445585116744 ] } },
{ "type": "Feature", "properties": { "cluster": 151, "count": 4 }, "geometry": { "type": "Point", "coordinates": [ 537458.267534162267111, 3957166.144795117434114 ] } },
{ "type": "Feature", "properties": { "cluster": 152, "count": 1 }, "geometry": { "type": "Point", "coordinates": [ 540784.96134610590525, 3955378.861599420197308 ] } },
{ "type": "Feature", "properties": { "cluster": 153, "count": 4 }, "geometry": { "type": "Point", "coordinates": [ 532708.592698439606465, 3958070.219755969010293 ] } },
{ "type": "Feature", "properties": { "cluster": 154, "count": 2 }, "geometry": { "type": "Point", "coordinates": [ 532054.260480526834726, 3958208.532088242005557 ] } },
{ "type": "Feature", "properties": { "cluster": 155, "count": 1 }, "geometry": { "type": "Point", "coordinates": [ 517031.557836349471472, 3952874.057006544899195 ] } },
{ "type": "Feature", "properties": { "cluster": 156, "count": 1 }, "geometry": { "type": "Point", "coordinates": [ 517067.010933517187368, 3952912.588705121073872 ] } },
{ "type": "Feature", "properties": { "cluster": 157, "count": 3 }, "geometry": { "type": "Point", "coordinates": [ 541002.469186631846242, 3959686.849729931447655 ] } },
{ "type": "Feature", "properties": { "cluster": 158, "count": 1 }, "geometry": { "type": "Point", "coordinates": [ 544528.932278430787846, 3959476.961864129640162 ] } },
{ "type": "Feature", "properties": { "cluster": 159, "count": 4 }, "geometry": { "type": "Point", "coordinates": [ 527216.88438430451788, 3953866.738268989138305 ] } },
{ "type": "Feature", "properties": { "cluster": 160, "count": 1 }, "geometry": { "type": "Point", "coordinates": [ 539086.097272856393829, 3940556.905188259202987 ] } },
{ "type": "Feature", "properties": { "cluster": 161, "count": 3 }, "geometry": { "type": "Point", "coordinates": [ 523120.567729193193372, 3949358.716787680983543 ] } },
{ "type": "Feature", "properties": { "cluster": 162, "count": 1 }, "geometry": { "type": "Point", "coordinates": [ 539013.770830253488384, 3953444.61490166420117 ] } },
{ "type": "Feature", "properties": { "cluster": 163, "count": 3 }, "geometry": { "type": "Point", "coordinates": [ 539279.67371121852193, 3961177.831544946879148 ] } },
{ "type": "Feature", "properties": { "cluster": 164, "count": 3 }, "geometry": { "type": "Point", "coordinates": [ 534787.915892496705055, 3959824.224946575704962 ] } },
{ "type": "Feature", "properties": { "cluster": 165, "count": 1 }, "geometry": { "type": "Point", "coordinates": [ 540956.675593889551237, 3960706.397018973715603 ] } },
{ "type": "Feature", "properties": { "cluster": 166, "count": 1 }, "geometry": { "type": "Point", "coordinates": [ 536035.80533591483254, 3946299.985257011838257 ] } },
{ "type": "Feature", "properties": { "cluster": 167, "count": 4 }, "geometry": { "type": "Point", "coordinates": [ 537259.54477296047844, 3950221.124149419367313 ] } },
{ "type": "Feature", "properties": { "cluster": 168, "count": 1 }, "geometry": { "type": "Point", "coordinates": [ 533133.071377181797288, 3958645.386905824765563 ] } },
{ "type": "Feature", "properties": { "cluster": 169, "count": 3 }, "geometry": { "type": "Point", "coordinates": [ 539490.411704944795929, 3950561.966478826012462 ] } },
{ "type": "Feature", "properties": { "cluster": 170, "count": 2 }, "geometry": { "type": "Point", "coordinates": [ 543415.520950762089342, 3961996.949287113267928 ] } },
{ "type": "Feature", "properties": { "cluster": 171, "count": 4 }, "geometry": { "type": "Point", "coordinates": [ 532516.186384452972561, 3958505.866425213869661 ] } },
{ "type": "Feature", "properties": { "cluster": 172, "count": 4 }, "geometry": { "type": "Point", "coordinates": [ 527474.889181334991008, 3955899.539784361608326 ] } },
{ "type": "Feature", "properties": { "cluster": 173, "count": 4 }, "geometry": { "type": "Point", "coordinates": [ 539456.774342694086954, 3959133.307490434963256 ] } },
{ "type": "Feature", "properties": { "cluster": 174, "count": 4 }, "geometry": { "type": "Point", "coordinates": [ 532940.296495791757479, 3958594.3581014694646 ] } },
{ "type": "Feature", "properties": { "cluster": 175, "count": 4 }, "geometry": { "type": "Point", "coordinates": [ 533246.807051175856031, 3959644.948431850410998 ] } },
{ "type": "Feature", "properties": { "cluster": 176, "count": 4 }, "geometry": { "type": "Point", "coordinates": [ 533143.361319805611856, 3958153.880096819717437 ] } },
{ "type": "Feature", "properties": { "cluster": 177, "count": 3 }, "geometry": { "type": "Point", "coordinates": [ 530165.865186655079015, 3954666.852928049862385 ] } },
{ "type": "Feature", "properties": { "cluster": 178, "count": 4 }, "geometry": { "type": "Point", "coordinates": [ 542873.809836258646101, 3957568.979774397797883 ] } },
{ "type": "Feature", "properties": { "cluster": 179, "count": 3 }, "geometry": { "type": "Point", "coordinates": [ 544710.170026142150164, 3961935.759457774460316 ] } },
{ "type": "Feature", "properties": { "cluster": 180, "count": 4 }, "geometry": { "type": "Point", "coordinates": [ 536588.507009170367382, 3961472.576599563471973 ] } },
{ "type": "Feature", "properties": { "cluster": 181, "count": 2 }, "geometry": { "type": "Point", "coordinates": [ 534144.593181768781506, 3951430.152233350090683 ] } },
{ "type": "Feature", "properties": { "cluster": 182, "count": 4 }, "geometry": { "type": "Point", "coordinates": [ 552115.224833791027777, 3955814.419751768000424 ] } },
{ "type": "Feature", "properties": { "cluster": 183, "count": 2 }, "geometry": { "type": "Point", "coordinates": [ 545135.600634648930281, 3952706.287868890911341 ] } },
{ "type": "Feature", "properties": { "cluster": 184, "count": 3 }, "geometry": { "type": "Point", "coordinates": [ 535222.241683424450457, 3952699.022389495745301 ] } },
{ "type": "Feature", "properties": { "cluster": 185, "count": 4 }, "geometry": { "type": "Point", "coordinates": [ 541684.78825380851049, 3962020.712459594476968 ] } },
{ "type": "Feature", "properties": { "cluster": 186, "count": 5 }, "geometry": { "type": "Point", "coordinates": [ 536220.926308470545337, 3950877.14205361995846 ] } },
{ "type": "Feature", "properties": { "cluster": 187, "count": 3 }, "geometry": { "type": "Point", "coordinates": [ 533038.714904196560383, 3948189.030258375685662 ] } },
{ "type": "Feature", "properties": { "cluster": 188, "count": 4 }, "geometry": { "type": "Point", "coordinates": [ 529900.819228810607456, 3957486.93469023425132 ] } },
{ "type": "Feature", "properties": { "cluster": 189, "count": 6 }, "geometry": { "type": "Point", "coordinates": [ 534672.456367165432312, 3950828.524017187301069 ] } },
{ "type": "Feature", "properties": { "cluster": 190, "count": 5 }, "geometry": { "type": "Point", "coordinates": [ 534429.710239859530702, 3950819.123136705718935 ] } },
{ "type": "Feature", "properties": { "cluster": 191, "count": 1 }, "geometry": { "type": "Point", "coordinates": [ 536440.616087426547892, 3950891.427694935817271 ] } },
{ "type": "Feature", "properties": { "cluster": 192, "count": 2 }, "geometry": { "type": "Point", "coordinates": [ 534422.143376741558313, 3951160.177909463178366 ] } },
{ "type": "Feature", "properties": { "cluster": 193, "count": 6 }, "geometry": { "type": "Point", "coordinates": [ 527948.296970860334113, 3946608.339684640523046 ] } },
{ "type": "Feature", "properties": { "cluster": 194, "count": 4 }, "geometry": { "type": "Point", "coordinates": [ 541484.257895102724433, 3945023.983298340346664 ] } },
{ "type": "Feature", "properties": { "cluster": 195, "count": 4 }, "geometry": { "type": "Point", "coordinates": [ 534218.410277620423585, 3950612.530301913619041 ] } },
{ "type": "Feature", "properties": { "cluster": 196, "count": 2 }, "geometry": { "type": "Point", "coordinates": [ 538405.348179577616975, 3949997.66889339312911 ] } },
{ "type": "Feature", "properties": { "cluster": 197, "count": 1 }, "geometry": { "type": "Point", "coordinates": [ 534311.372478633769788, 3951174.34523760387674 ] } },
{ "type": "Feature", "properties": { "cluster": 198, "count": 3 }, "geometry": { "type": "Point", "coordinates": [ 542310.995987045695074, 3959804.329191179946065 ] } },
{ "type": "Feature", "properties": { "cluster": 199, "count": 3 }, "geometry": { "type": "Point", "coordinates": [ 541943.355571357649751, 3959734.571457754354924 ] } },
{ "type": "Feature", "properties": { "cluster": 200, "count": 4 }, "geometry": { "type": "Point", "coordinates": [ 537893.058041723212227, 3961962.983717074152082 ] } },
{ "type": "Feature", "properties": { "cluster": 201, "count": 2 }, "geometry": { "type": "Point", "coordinates": [ 532486.800917274667881, 3948548.134977546520531 ] } },
{ "type": "Feature", "properties": { "cluster": 202, "count": 4 }, "geometry": { "type": "Point", "coordinates": [ 527497.381736377254128, 3953740.363026806153357 ] } },
{ "type": "Feature", "properties": { "cluster": 203, "count": 1 }, "geometry": { "type": "Point", "coordinates": [ 530299.572517981054261, 3953231.762485794257373 ] } },
{ "type": "Feature", "properties": { "cluster": 204, "count": 4 }, "geometry": { "type": "Point", "coordinates": [ 535299.086946726660244, 3951617.637323170434684 ] } },
{ "type": "Feature", "properties": { "cluster": 205, "count": 3 }, "geometry": { "type": "Point", "coordinates": [ 534877.66156880336348, 3951625.022499991580844 ] } },
{ "type": "Feature", "properties": { "cluster": 206, "count": 1 }, "geometry": { "type": "Point", "coordinates": [ 535333.67910185304936, 3951341.992756032850593 ] } },
{ "type": "Feature", "properties": { "cluster": 207, "count": 3 }, "geometry": { "type": "Point", "coordinates": [ 535847.282775055035017, 3956787.034351201262325 ] } },
{ "type": "Feature", "properties": { "cluster": 208, "count": 1 }, "geometry": { "type": "Point", "coordinates": [ 538054.781757814111188, 3953985.697060047183186 ] } },
{ "type": "Feature", "properties": { "cluster": 209, "count": 3 }, "geometry": { "type": "Point", "coordinates": [ 540029.1624662297545, 3958029.885885005351156 ] } },
{ "type": "Feature", "properties": { "cluster": 210, "count": 3 }, "geometry": { "type": "Point", "coordinates": [ 540315.599683866021223, 3957420.253871627151966 ] } },
{ "type": "Feature", "properties": { "cluster": 211, "count": 3 }, "geometry": { "type": "Point", "coordinates": [ 542897.840425178874284, 3961750.160891212522984 ] } },
{ "type": "Feature", "properties": { "cluster": 212, "count": 4 }, "geometry": { "type": "Point", "coordinates": [ 532140.053618681849912, 3953849.240731935016811 ] } },
{ "type": "Feature", "properties": { "cluster": 213, "count": 4 }, "geometry": { "type": "Point", "coordinates": [ 522456.130110265046824, 3955553.248170607723296 ] } },
{ "type": "Feature", "properties": { "cluster": 214, "count": 1 }, "geometry": { "type": "Point", "coordinates": [ 531381.515933191054501, 3949130.277823724783957 ] } },
{ "type": "Feature", "properties": { "cluster": 215, "count": 2 }, "geometry": { "type": "Point", "coordinates": [ 531518.026127608958632, 3948298.641620496287942 ] } },
{ "type": "Feature", "properties": { "cluster": 216, "count": 4 }, "geometry": { "type": "Point", "coordinates": [ 535224.735203791060485, 3952316.968424714636058 ] } },
{ "type": "Feature", "properties": { "cluster": 217, "count": 3 }, "geometry": { "type": "Point", "coordinates": [ 539377.094168175477535, 3953477.511720842216164 ] } },
{ "type": "Feature", "properties": { "cluster": 218, "count": 4 }, "geometry": { "type": "Point", "coordinates": [ 536892.541259223595262, 3952645.573450729250908 ] } },
{ "type": "Feature", "properties": { "cluster": 219, "count": 4 }, "geometry": { "type": "Point", "coordinates": [ 528710.593360484344885, 3957164.002636167686433 ] } },
{ "type": "Feature", "properties": { "cluster": 220, "count": 4 }, "geometry": { "type": "Point", "coordinates": [ 527504.805308948736638, 3957868.569635029416531 ] } },
{ "type": "Feature", "properties": { "cluster": 221, "count": 3 }, "geometry": { "type": "Point", "coordinates": [ 549664.450613670051098, 3956922.410482647363096 ] } }
]
}
