{
"type": "FeatureCollection",
"name": "isfahan_speed_cameras",
"crs": { "type": "name", "properties": { "name": "urn:ogc:def:crs:OGC:1.3:CRS84" } },
"features": [
{ "type": "Feature", "properties": { "camera_id": 5869, "type": "report_map_camera_speed", "highway": 11, "zoom_level": 14, "width": 25, "category": null, "uri": null, "source_layer": "poi", "source_file": "14_10540_6616.bin", "zoom": 14, "tile_x": 10540, "tile_y": 6616, "longitude": 51.595423221588135, "latitude": 32.689746416114247 }, "geometry": { "type": "Point", "coordinates": [ 51.595423221588135, 32.689746416114247 ] } },
{ "type": "Feature", "properties": { "camera_id": 5914, "type": "report_map_camera_speed", "highway": 15, "zoom_level": 14, "width": 25, "category": null, "uri": null, "source_layer": "poi", "source_file": "14_10540_6614.bin", "zoom": 14, "tile_x": 10540, "tile_y": 6614, "longitude": 51.598395109176643, "latitude": 32.714632675841244 }, "geometry": { "type": "Point", "coordinates": [ 51.598395109176643, 32.714632675841244 ] } },
{ "type": "Feature", "properties": { "camera_id": 6096, "type": "report_map_camera_speed", "highway": 11, "zoom_level": 14, "width": 25, "category": null, "uri": null, "source_layer": "poi", "source_file": "14_10540_6615.bin", "zoom": 14, "tile_x": 10540, "tile_y": 6615, "longitude": 51.60352349281311, "latitude": 32.69618870933072 }, "geometry": { "type": "Point", "coordinates": [ 51.60352349281311, 32.69618870933072 ] } },
{ "type": "Feature", "properties": { "camera_id": 6247, "type": "report_map_camera_speed", "highway": 0, "zoom_level": 14, "width": 25, "category": null, "uri": null, "source_layer": "poi", "source_file": "14_10541_6620.bin", "zoom": 14, "tile_x": 10541, "tile_y": 6620, "longitude": 51.616424918174737, "latitude": 32.605863937814725 }, "geometry": { "type": "Point", "coordinates": [ 51.616424918174737, 32.605863937814725 ] } },
{ "type": "Feature", "properties": { "camera_id": 6266, "type": "report_map_camera_speed", "highway": 15, "zoom_level": 14, "width": 25, "category": null, "uri": null, "source_layer": "poi", "source_file": "14_10541_6620.bin", "zoom": 14, "tile_x": 10541, "tile_y": 6620, "longitude": 51.617036461830139, "latitude": 32.613898307881911 }, "geometry": { "type": "Point", "coordinates": [ 51.617036461830139, 32.613898307881911 ] } },
{ "type": "Feature", "properties": { "camera_id": 6322, "type": "report_map_camera_speed", "highway": 0, "zoom_level": 14, "width": 25, "category": null, "uri": null, "source_layer": "poi", "source_file": "14_10541_6619.bin", "zoom": 14, "tile_x": 10541, "tile_y": 6619, "longitude": 51.619665026664734, "latitude": 32.630570262512734 }, "geometry": { "type": "Point", "coordinates": [ 51.619665026664734, 32.630570262512734 ] } },
{ "type": "Feature", "properties": { "camera_id": 6344, "type": "report_map_camera_speed", "highway": 0, "zoom_level": 14, "width": 25, "category": null, "uri": null, "source_layer": "poi", "source_file": "14_10541_6619.bin", "zoom": 14, "tile_x": 10541, "tile_y": 6619, "longitude": 51.620421409606926, "latitude": 32.631171117803142 }, "geometry": { "type": "Point", "coordinates": [ 51.620421409606926, 32.631171117803142 ] } },
{ "type": "Feature", "properties": { "camera_id": 6362, "type": "report_map_camera_speed", "highway": 15, "zoom_level": 14, "width": 25, "category": null, "uri": null, "source_layer": "poi", "source_file": "14_10541_6615.bin", "zoom": 14, "tile_x": 10541, "tile_y": 6615, "longitude": 51.621193885803223, "latitude": 32.696974212932467 }, "geometry": { "type": "Point", "coordinates": [ 51.621193885803223, 32.696974212932467 ] } },
{ "type": "Feature", "properties": { "camera_id": 6468, "type": "report_map_camera_speed", "highway": 11, "zoom_level": 14, "width": 25, "category": null, "uri": null, "source_layer": "poi", "source_file": "14_10541_6617.bin", "zoom": 14, "tile_x": 10541, "tile_y": 6617, "longitude": 51.627636551857002, "latitude": 32.671274728382009 }, "geometry": { "type": "Point", "coordinates": [ 51.627636551857002, 32.671274728382009 ] } },
{ "type": "Feature", "properties": { "camera_id": 6469, "type": "report_map_camera_speed", "highway": 0, "zoom_level": 14, "width": 25, "category": null, "uri": null, "source_layer": "poi", "source_file": "14_10541_6617.bin", "zoom": 14, "tile_x": 10541, "tile_y": 6617, "longitude": 51.627947688102722, "latitude": 32.671175383630889 }, "geometry": { "type": "Point", "coordinates": [ 51.627947688102722, 32.671175383630889 ] } },
{ "type": "Feature", "properties": { "camera_id": 6635, "type": "report_map_camera_speed", "highway": 0, "zoom_level": 14, "width": 25, "category": null, "uri": null, "source_layer": "poi", "source_file": "14_10541_6619.bin", "zoom": 14, "tile_x": 10541, "tile_y": 6619, "longitude": 51.630957126617432, "latitude": 32.63511949505471 }, "geometry": { "type": "Point", "coordinates": [ 51.630957126617432, 32.63511949505471 ] } },
{ "type": "Feature", "properties": { "camera_id": 6664, "type": "report_map_camera_speed", "highway": 13, "zoom_level": 14, "width": 25, "category": null, "uri": null, "source_layer": "poi", "source_file": "14_10541_6619.bin", "zoom": 14, "tile_x": 10541, "tile_y": 6619, "longitude": 51.633049249649048, "latitude": 32.62339131095964 }, "geometry": { "type": "Point", "coordinates": [ 51.633049249649048, 32.62339131095964 ] } },
{ "type": "Feature", "properties": { "camera_id": 6965, "type": "report_map_camera_speed", "highway": 15, "zoom_level": 14, "width": 25, "category": null, "uri": null, "source_layer": "poi", "source_file": "14_10542_6618.bin", "zoom": 14, "tile_x": 10542, "tile_y": 6618, "longitude": 51.640425324440002, "latitude": 32.641344385812964 }, "geometry": { "type": "Point", "coordinates": [ 51.640425324440002, 32.641344385812964 ] } },
{ "type": "Feature", "properties": { "camera_id": 6990, "type": "report_map_camera_speed", "highway": 0, "zoom_level": 14, "width": 25, "category": null, "uri": null, "source_layer": "poi", "source_file": "14_10542_6620.bin", "zoom": 14, "tile_x": 10542, "tile_y": 6620, "longitude": 51.641256809234619, "latitude": 32.604521793370296 }, "geometry": { "type": "Point", "coordinates": [ 51.641256809234619, 32.604521793370296 ] } },
{ "type": "Feature", "properties": { "camera_id": 7029, "type": "report_map_camera_speed", "highway": 0, "zoom_level": 14, "width": 25, "category": null, "uri": null, "source_layer": "poi", "source_file": "14_10542_6617.bin", "zoom": 14, "tile_x": 10542, "tile_y": 6617, "longitude": 51.643123626708977, "latitude": 32.669861313120002 }, "geometry": { "type": "Point", "coordinates": [ 51.643123626708977, 32.669861313120002 ] } },
{ "type": "Feature", "properties": { "camera_id": 7061, "type": "report_map_camera_speed", "highway": 15, "zoom_level": 14, "width": 25, "category": null, "uri": null, "source_layer": "poi", "source_file": "14_10542_6617.bin", "zoom": 14, "tile_x": 10542, "tile_y": 6617, "longitude": 51.643397212028503, "latitude": 32.667752437920115 }, "geometry": { "type": "Point", "coordinates": [ 51.643397212028503, 32.667752437920115 ] } },
{ "type": "Feature", "properties": { "camera_id": 7062, "type": "report_map_camera_speed", "highway": 0, "zoom_level": 14, "width": 25, "category": null, "uri": null, "source_layer": "poi", "source_file": "14_10542_6618.bin", "zoom": 14, "tile_x": 10542, "tile_y": 6618, "longitude": 51.643601059913642, "latitude": 32.656633733431441 }, "geometry": { "type": "Point", "coordinates": [ 51.643601059913642, 32.656633733431441 ] } },
{ "type": "Feature", "properties": { "camera_id": 7338, "type": "report_map_camera_speed", "highway": 0, "zoom_level": 14, "width": 25, "category": null, "uri": null, "source_layer": "poi", "source_file": "14_10542_6616.bin", "zoom": 14, "tile_x": 10542, "tile_y": 6616, "longitude": 51.654887795448303, "latitude": 32.680111453587578 }, "geometry": { "type": "Point", "coordinates": [ 51.654887795448303, 32.680111453587578 ] } },
{ "type": "Feature", "properties": { "camera_id": 7384, "type": "report_map_camera_speed", "highway": 0, "zoom_level": 14, "width": 25, "category": null, "uri": null, "source_layer": "poi", "source_file": "14_10543_6613.bin", "zoom": 14, "tile_x": 10543, "tile_y": 6613, "longitude": 51.680041551589966, "latitude": 32.732125190487707 }, "geometry": { "type": "Point", "coordinates": [ 51.680041551589966, 32.732125190487707 ] } },
{ "type": "Feature", "properties": { "camera_id": 7401, "type": "report_map_camera_speed", "highway": 13, "zoom_level": 14, "width": 25, "category": null, "uri": null, "source_layer": "poi", "source_file": "14_10542_6616.bin", "zoom": 14, "tile_x": 10542, "tile_y": 6616, "longitude": 51.656062602996826, "latitude": 32.680170151445459 }, "geometry": { "type": "Point", "coordinates": [ 51.656062602996826, 32.680170151445459 ] } },
{ "type": "Feature", "properties": { "camera_id": 7631, "type": "report_map_camera_speed", "highway": 0, "zoom_level": 14, "width": 25, "category": null, "uri": null, "source_layer": "poi", "source_file": "14_10543_6616.bin", "zoom": 14, "tile_x": 10543, "tile_y": 6616, "longitude": 51.659892797470093, "latitude": 32.679912783628517 }, "geometry": { "type": "Point", "coordinates": [ 51.659892797470093, 32.679912783628517 ] } },
{ "type": "Feature", "properties": { "camera_id": 7659, "type": "report_map_camera_speed", "highway": 0, "zoom_level": 14, "width": 25, "category": null, "uri": null, "source_layer": "poi", "source_file": "14_10543_6621.bin", "zoom": 14, "tile_x": 10543, "tile_y": 6621, "longitude": 51.660992503166199, "latitude": 32.591393023979094 }, "geometry": { "type": "Point", "coordinates": [ 51.660992503166199, 32.591393023979094 ] } },
{ "type": "Feature", "properties": { "camera_id": 7667, "type": "report_map_camera_speed", "highway": 11, "zoom_level": 14, "width": 25, "category": null, "uri": null, "source_layer": "poi", "source_file": "14_10543_6618.bin", "zoom": 14, "tile_x": 10543, "tile_y": 6618, "longitude": 51.661421656608582, "latitude": 32.654158707683109 }, "geometry": { "type": "Point", "coordinates": [ 51.661421656608582, 32.654158707683109 ] } },
{ "type": "Feature", "properties": { "camera_id": 7716, "type": "report_map_camera_speed", "highway": 15, "zoom_level": 14, "width": 25, "category": null, "uri": null, "source_layer": "poi", "source_file": "14_10543_6616.bin", "zoom": 14, "tile_x": 10543, "tile_y": 6616, "longitude": 51.66271984577179, "latitude": 32.689272367767444 }, "geometry": { "type": "Point", "coordinates": [ 51.66271984577179, 32.689272367767444 ] } },
{ "type": "Feature", "properties": { "camera_id": 7719, "type": "report_map_camera_speed", "highway": 13, "zoom_level": 14, "width": 25, "category": null, "uri": null, "source_layer": "poi", "source_file": "14_10543_6620.bin", "zoom": 14, "tile_x": 10543, "tile_y": 6620, "longitude": 51.663030982017517, "latitude": 32.607734772273403 }, "geometry": { "type": "Point", "coordinates": [ 51.663030982017517, 32.607734772273403 ] } },
{ "type": "Feature", "properties": { "camera_id": 7766, "type": "report_map_camera_speed", "highway": 0, "zoom_level": 14, "width": 25, "category": null, "uri": null, "source_layer": "poi", "source_file": "14_10543_6620.bin", "zoom": 14, "tile_x": 10543, "tile_y": 6620, "longitude": 51.664071679115295, "latitude": 32.605439153532785 }, "geometry": { "type": "Point", "coordinates": [ 51.664071679115295, 32.605439153532785 ] } },
{ "type": "Feature", "properties": { "camera_id": 7782, "type": "report_map_camera_speed", "highway": 13, "zoom_level": 14, "width": 25, "category": null, "uri": null, "source_layer": "poi", "source_file": "14_10543_6620.bin", "zoom": 14, "tile_x": 10543, "tile_y": 6620, "longitude": 51.66420578956604, "latitude": 32.605561166245515 }, "geometry": { "type": "Point", "coordinates": [ 51.66420578956604, 32.605561166245515 ] } },
{ "type": "Feature", "properties": { "camera_id": 7789, "type": "report_map_camera_speed", "highway": 0, "zoom_level": 14, "width": 25, "category": null, "uri": null, "source_layer": "poi", "source_file": "14_10543_6616.bin", "zoom": 14, "tile_x": 10543, "tile_y": 6616, "longitude": 51.664382815361023, "latitude": 32.679664445558259 }, "geometry": { "type": "Point", "coordinates": [ 51.664382815361023, 32.679664445558259 ] } },
{ "type": "Feature", "properties": { "camera_id": 7822, "type": "report_map_camera_speed", "highway": 0, "zoom_level": 14, "width": 25, "category": null, "uri": null, "source_layer": "poi", "source_file": "14_10543_6616.bin", "zoom": 14, "tile_x": 10543, "tile_y": 6616, "longitude": 51.664758324623108, "latitude": 32.679510927133109 }, "geometry": { "type": "Point", "coordinates": [ 51.664758324623108, 32.679510927133109 ] } },
{ "type": "Feature", "properties": { "camera_id": 7838, "type": "report_map_camera_speed", "highway": 0, "zoom_level": 14, "width": 25, "category": null, "uri": null, "source_layer": "poi", "source_file": "14_10543_6616.bin", "zoom": 14, "tile_x": 10543, "tile_y": 6616, "longitude": 51.665123105049133, "latitude": 32.690378476661394 }, "geometry": { "type": "Point", "coordinates": [ 51.665123105049133, 32.690378476661394 ] } },
{ "type": "Feature", "properties": { "camera_id": 7903, "type": "report_map_camera_speed", "highway": 13, "zoom_level": 14, "width": 25, "category": null, "uri": null, "source_layer": "poi", "source_file": "14_10543_6621.bin", "zoom": 14, "tile_x": 10543, "tile_y": 6621, "longitude": 51.66695773601532, "latitude": 32.601168603881987 }, "geometry": { "type": "Point", "coordinates": [ 51.66695773601532, 32.601168603881987 ] } },
{ "type": "Feature", "properties": { "camera_id": 7986, "type": "report_map_camera_speed", "highway": 13, "zoom_level": 14, "width": 25, "category": null, "uri": null, "source_layer": "poi", "source_file": "14_10543_6616.bin", "zoom": 14, "tile_x": 10543, "tile_y": 6616, "longitude": 51.669892072677612, "latitude": 32.67929871005208 }, "geometry": { "type": "Point", "coordinates": [ 51.669892072677612, 32.67929871005208 ] } },
{ "type": "Feature", "properties": { "camera_id": 8063, "type": "report_map_camera_speed", "highway": 0, "zoom_level": 14, "width": 25, "category": null, "uri": null, "source_layer": "poi", "source_file": "14_10543_6614.bin", "zoom": 14, "tile_x": 10543, "tile_y": 6614, "longitude": 51.671329736709602, "latitude": 32.721781734234142 }, "geometry": { "type": "Point", "coordinates": [ 51.671329736709602, 32.721781734234142 ] } },
{ "type": "Feature", "properties": { "camera_id": 8102, "type": "report_map_camera_speed", "highway": 11, "zoom_level": 14, "width": 25, "category": null, "uri": null, "source_layer": "poi", "source_file": "14_10543_6619.bin", "zoom": 14, "tile_x": 10543, "tile_y": 6619, "longitude": 51.671887636184692, "latitude": 32.633633227041521 }, "geometry": { "type": "Point", "coordinates": [ 51.671887636184692, 32.633633227041521 ] } },
{ "type": "Feature", "properties": { "camera_id": 8110, "type": "report_map_camera_speed", "highway": 0, "zoom_level": 14, "width": 25, "category": null, "uri": null, "source_layer": "poi", "source_file": "14_10543_6619.bin", "zoom": 14, "tile_x": 10543, "tile_y": 6619, "longitude": 51.67243480682373, "latitude": 32.636628325472664 }, "geometry": { "type": "Point", "coordinates": [ 51.67243480682373, 32.636628325472664 ] } },
{ "type": "Feature", "properties": { "camera_id": 8144, "type": "report_map_camera_speed", "highway": 13, "zoom_level": 14, "width": 25, "category": null, "uri": null, "source_layer": "poi", "source_file": "14_10543_6616.bin", "zoom": 14, "tile_x": 10543, "tile_y": 6616, "longitude": 51.673432588577271, "latitude": 32.689859284397279 }, "geometry": { "type": "Point", "coordinates": [ 51.673432588577271, 32.689859284397279 ] } },
{ "type": "Feature", "properties": { "camera_id": 8161, "type": "report_map_camera_speed", "highway": 12, "zoom_level": 14, "width": 25, "category": null, "uri": null, "source_layer": "poi", "source_file": "14_10543_6616.bin", "zoom": 14, "tile_x": 10543, "tile_y": 6616, "longitude": 51.674231886863708, "latitude": 32.693827642522571 }, "geometry": { "type": "Point", "coordinates": [ 51.674231886863708, 32.693827642522571 ] } },
{ "type": "Feature", "properties": { "camera_id": 8176, "type": "report_map_camera_speed", "highway": 13, "zoom_level": 14, "width": 25, "category": null, "uri": null, "source_layer": "poi", "source_file": "14_10543_6615.bin", "zoom": 14, "tile_x": 10543, "tile_y": 6615, "longitude": 51.674789786338806, "latitude": 32.699818219871865 }, "geometry": { "type": "Point", "coordinates": [ 51.674789786338806, 32.699818219871865 ] } },
{ "type": "Feature", "properties": { "camera_id": 8183, "type": "report_map_camera_speed", "highway": 0, "zoom_level": 14, "width": 25, "category": null, "uri": null, "source_layer": "poi", "source_file": "14_10543_6614.bin", "zoom": 14, "tile_x": 10543, "tile_y": 6614, "longitude": 51.674864888191223, "latitude": 32.717083459274704 }, "geometry": { "type": "Point", "coordinates": [ 51.674864888191223, 32.717083459274704 ] } },
{ "type": "Feature", "properties": { "camera_id": 8214, "type": "report_map_camera_speed", "highway": 13, "zoom_level": 14, "width": 25, "category": null, "uri": null, "source_layer": "poi", "source_file": "14_10543_6615.bin", "zoom": 14, "tile_x": 10543, "tile_y": 6615, "longitude": 51.675058007240295, "latitude": 32.699736963788375 }, "geometry": { "type": "Point", "coordinates": [ 51.675058007240295, 32.699736963788375 ] } },
{ "type": "Feature", "properties": { "camera_id": 8218, "type": "report_map_camera_speed", "highway": 13, "zoom_level": 14, "width": 25, "category": null, "uri": null, "source_layer": "poi", "source_file": "14_10543_6616.bin", "zoom": 14, "tile_x": 10543, "tile_y": 6616, "longitude": 51.675320863723762, "latitude": 32.678896850793834 }, "geometry": { "type": "Point", "coordinates": [ 51.675320863723762, 32.678896850793834 ] } },
{ "type": "Feature", "properties": { "camera_id": 8340, "type": "report_map_camera_speed", "highway": 13, "zoom_level": 14, "width": 25, "category": null, "uri": null, "source_layer": "poi", "source_file": "14_10543_6616.bin", "zoom": 14, "tile_x": 10543, "tile_y": 6616, "longitude": 51.679515838623047, "latitude": 32.678707208718187 }, "geometry": { "type": "Point", "coordinates": [ 51.679515838623047, 32.678707208718187 ] } },
{ "type": "Feature", "properties": { "camera_id": 8359, "type": "report_map_camera_speed", "highway": 0, "zoom_level": 14, "width": 25, "category": null, "uri": null, "source_layer": "poi", "source_file": "14_10543_6614.bin", "zoom": 14, "tile_x": 10543, "tile_y": 6614, "longitude": 51.680041551589966, "latitude": 32.732125190487707 }, "geometry": { "type": "Point", "coordinates": [ 51.680041551589966, 32.732125190487707 ] } },
{ "type": "Feature", "properties": { "camera_id": 8360, "type": "report_map_camera_speed", "highway": 15, "zoom_level": 14, "width": 25, "category": null, "uri": null, "source_layer": "poi", "source_file": "14_10544_6621.bin", "zoom": 14, "tile_x": 10544, "tile_y": 6621, "longitude": 51.680315136909485, "latitude": 32.592477745640487 }, "geometry": { "type": "Point", "coordinates": [ 51.680315136909485, 32.592477745640487 ] } },
{ "type": "Feature", "properties": { "camera_id": 8840, "type": "report_map_camera_speed", "highway": 11, "zoom_level": 14, "width": 25, "category": null, "uri": null, "source_layer": "poi", "source_file": "14_10549_6615.bin", "zoom": 14, "tile_x": 10549, "tile_y": 6615, "longitude": 51.789872646331787, "latitude": 32.704052462288615 }, "geometry": { "type": "Point", "coordinates": [ 51.789872646331787, 32.704052462288615 ] } },
{ "type": "Feature", "properties": { "camera_id": 8841, "type": "report_map_camera_speed", "highway": 11, "zoom_level": 14, "width": 25, "category": null, "uri": null, "source_layer": "poi", "source_file": "14_10549_6615.bin", "zoom": 14, "tile_x": 10549, "tile_y": 6615, "longitude": 51.790022850036621, "latitude": 32.704120172422257 }, "geometry": { "type": "Point", "coordinates": [ 51.790022850036621, 32.704120172422257 ] } },
{ "type": "Feature", "properties": { "camera_id": 8993, "type": "report_map_camera_speed", "highway": 15, "zoom_level": 14, "width": 25, "category": null, "uri": null, "source_layer": "poi", "source_file": "14_10538_6614.bin", "zoom": 14, "tile_x": 10538, "tile_y": 6614, "longitude": 51.554964780807495, "latitude": 32.723144684108256 }, "geometry": { "type": "Point", "coordinates": [ 51.554964780807495, 32.723144684108256 ] } },
{ "type": "Feature", "properties": { "camera_id": 9010, "type": "report_map_camera_speed", "highway": 15, "zoom_level": 14, "width": 25, "category": null, "uri": null, "source_layer": "poi", "source_file": "14_10538_6614.bin", "zoom": 14, "tile_x": 10538, "tile_y": 6614, "longitude": 51.555114984512329, "latitude": 32.723072475366017 }, "geometry": { "type": "Point", "coordinates": [ 51.555114984512329, 32.723072475366017 ] } },
{ "type": "Feature", "properties": { "camera_id": 9732, "type": "report_map_camera_speed", "highway": 15, "zoom_level": 14, "width": 25, "category": null, "uri": null, "source_layer": "poi", "source_file": "14_10538_6613.bin", "zoom": 14, "tile_x": 10538, "tile_y": 6613, "longitude": 51.566981077194207, "latitude": 32.738207954213365 }, "geometry": { "type": "Point", "coordinates": [ 51.566981077194207, 32.738207954213365 ] } },
{ "type": "Feature", "properties": { "camera_id": 9800, "type": "report_map_camera_speed", "highway": 15, "zoom_level": 14, "width": 25, "category": null, "uri": null, "source_layer": "poi", "source_file": "14_10539_6613.bin", "zoom": 14, "tile_x": 10539, "tile_y": 6613, "longitude": 51.571605205535889, "latitude": 32.734724404417797 }, "geometry": { "type": "Point", "coordinates": [ 51.571605205535889, 32.734724404417797 ] } },
{ "type": "Feature", "properties": { "camera_id": 9927, "type": "report_map_camera_speed", "highway": 0, "zoom_level": 14, "width": 25, "category": null, "uri": null, "source_layer": "poi", "source_file": "14_10539_6621.bin", "zoom": 14, "tile_x": 10539, "tile_y": 6621, "longitude": 51.575580239295959, "latitude": 32.596586009896491 }, "geometry": { "type": "Point", "coordinates": [ 51.575580239295959, 32.596586009896491 ] } },
{ "type": "Feature", "properties": { "camera_id": 9935, "type": "report_map_camera_speed", "highway": 11, "zoom_level": 14, "width": 25, "category": null, "uri": null, "source_layer": "poi", "source_file": "14_10539_6621.bin", "zoom": 14, "tile_x": 10539, "tile_y": 6621, "longitude": 51.576164960861206, "latitude": 32.590457441000808 }, "geometry": { "type": "Point", "coordinates": [ 51.576164960861206, 32.590457441000808 ] } },
{ "type": "Feature", "properties": { "camera_id": 9949, "type": "report_map_camera_speed", "highway": 0, "zoom_level": 14, "width": 25, "category": null, "uri": null, "source_layer": "poi", "source_file": "14_10539_6618.bin", "zoom": 14, "tile_x": 10539, "tile_y": 6618, "longitude": 51.578723788261406, "latitude": 32.647519157863179 }, "geometry": { "type": "Point", "coordinates": [ 51.578723788261406, 32.647519157863179 ] } },
{ "type": "Feature", "properties": { "camera_id": 9966, "type": "report_map_camera_speed", "highway": 13, "zoom_level": 14, "width": 25, "category": null, "uri": null, "source_layer": "poi", "source_file": "14_10539_6618.bin", "zoom": 14, "tile_x": 10539, "tile_y": 6618, "longitude": 51.57882034778595, "latitude": 32.647672731251731 }, "geometry": { "type": "Point", "coordinates": [ 51.57882034778595, 32.647672731251731 ] } },
{ "type": "Feature", "properties": { "camera_id": 10247, "type": "report_map_camera_speed", "highway": 0, "zoom_level": 14, "width": 25, "category": null, "uri": null, "source_layer": "poi", "source_file": "14_10544_6614.bin", "zoom": 14, "tile_x": 10544, "tile_y": 6614, "longitude": 51.680041551589966, "latitude": 32.732125190487707 }, "geometry": { "type": "Point", "coordinates": [ 51.680041551589966, 32.732125190487707 ] } },
{ "type": "Feature", "properties": { "camera_id": 11146, "type": "report_map_camera_speed", "highway": 11, "zoom_level": 14, "width": 25, "category": null, "uri": null, "source_layer": "poi", "source_file": "14_10545_6613.bin", "zoom": 14, "tile_x": 10545, "tile_y": 6613, "longitude": 51.708279848098762, "latitude": 32.737788310998162 }, "geometry": { "type": "Point", "coordinates": [ 51.708279848098762, 32.737788310998162 ] } },
{ "type": "Feature", "properties": { "camera_id": 11165, "type": "report_map_camera_speed", "highway": 11, "zoom_level": 14, "width": 25, "category": null, "uri": null, "source_layer": "poi", "source_file": "14_10545_6613.bin", "zoom": 14, "tile_x": 10545, "tile_y": 6613, "longitude": 51.708451509475708, "latitude": 32.737986852120464 }, "geometry": { "type": "Point", "coordinates": [ 51.708451509475708, 32.737986852120464 ] } },
{ "type": "Feature", "properties": { "camera_id": 11437, "type": "report_map_camera_speed", "highway": 13, "zoom_level": 14, "width": 25, "category": null, "uri": null, "source_layer": "poi", "source_file": "14_10545_6614.bin", "zoom": 14, "tile_x": 10545, "tile_y": 6614, "longitude": 51.722200512886047, "latitude": 32.731078263464603 }, "geometry": { "type": "Point", "coordinates": [ 51.722200512886047, 32.731078263464603 ] } },
{ "type": "Feature", "properties": { "camera_id": 11454, "type": "report_map_camera_speed", "highway": 13, "zoom_level": 14, "width": 25, "category": null, "uri": null, "source_layer": "poi", "source_file": "14_10545_6614.bin", "zoom": 14, "tile_x": 10545, "tile_y": 6614, "longitude": 51.72238290309906, "latitude": 32.731204617378459 }, "geometry": { "type": "Point", "coordinates": [ 51.72238290309906, 32.731204617378459 ] } },
{ "type": "Feature", "properties": { "camera_id": 11506, "type": "report_map_camera_speed", "highway": 0, "zoom_level": 14, "width": 25, "category": null, "uri": null, "source_layer": "poi", "source_file": "14_10546_6615.bin", "zoom": 14, "tile_x": 10546, "tile_y": 6615, "longitude": 51.723219752311707, "latitude": 32.697127701334651 }, "geometry": { "type": "Point", "coordinates": [ 51.723219752311707, 32.697127701334651 ] } },
{ "type": "Feature", "properties": { "camera_id": 11729, "type": "report_map_camera_speed", "highway": 15, "zoom_level": 14, "width": 25, "category": null, "uri": null, "source_layer": "poi", "source_file": "14_10546_6615.bin", "zoom": 14, "tile_x": 10546, "tile_y": 6615, "longitude": 51.730729937553406, "latitude": 32.703248964780386 }, "geometry": { "type": "Point", "coordinates": [ 51.730729937553406, 32.703248964780386 ] } },
{ "type": "Feature", "properties": { "camera_id": 11752, "type": "report_map_camera_speed", "highway": 15, "zoom_level": 14, "width": 25, "category": null, "uri": null, "source_layer": "poi", "source_file": "14_10546_6615.bin", "zoom": 14, "tile_x": 10546, "tile_y": 6615, "longitude": 51.730853319168091, "latitude": 32.703248964780386 }, "geometry": { "type": "Point", "coordinates": [ 51.730853319168091, 32.703248964780386 ] } },
{ "type": "Feature", "properties": { "camera_id": 12888, "type": "report_map_camera_speed", "highway": 15, "zoom_level": 14, "width": 25, "category": null, "uri": null, "source_layer": "poi", "source_file": "14_10548_6619.bin", "zoom": 14, "tile_x": 10548, "tile_y": 6619, "longitude": 51.782024502754211, "latitude": 32.622609678579899 }, "geometry": { "type": "Point", "coordinates": [ 51.782024502754211, 32.622609678579899 ] } },
{ "type": "Feature", "properties": { "camera_id": 13086, "type": "report_map_camera_speed", "highway": 17, "zoom_level": 14, "width": 25, "category": null, "uri": null, "source_layer": "poi", "source_file": "14_10539_6620.bin", "zoom": 14, "tile_x": 10539, "tile_y": 6620, "longitude": 51.582189202308655, "latitude": 32.604643807332614 }, "geometry": { "type": "Point", "coordinates": [ 51.582189202308655, 32.604643807332614 ] } },
{ "type": "Feature", "properties": { "camera_id": 13119, "type": "report_map_camera_speed", "highway": 17, "zoom_level": 14, "width": 25, "category": null, "uri": null, "source_layer": "poi", "source_file": "14_10539_6620.bin", "zoom": 14, "tile_x": 10539, "tile_y": 6620, "longitude": 51.582269668579102, "latitude": 32.604530831447278 }, "geometry": { "type": "Point", "coordinates": [ 51.582269668579102, 32.604530831447278 ] } },
{ "type": "Feature", "properties": { "camera_id": 13401, "type": "report_map_camera_speed", "highway": 11, "zoom_level": 14, "width": 25, "category": null, "uri": null, "source_layer": "poi", "source_file": "14_10539_6620.bin", "zoom": 14, "tile_x": 10539, "tile_y": 6620, "longitude": 51.588154435157776, "latitude": 32.61071718118351 }, "geometry": { "type": "Point", "coordinates": [ 51.588154435157776, 32.61071718118351 ] } },
{ "type": "Feature", "properties": { "camera_id": 13624, "type": "report_map_camera_speed", "highway": 15, "zoom_level": 14, "width": 25, "category": null, "uri": null, "source_layer": "poi", "source_file": "14_10540_6620.bin", "zoom": 14, "tile_x": 10540, "tile_y": 6620, "longitude": 51.592429876327522, "latitude": 32.611670627323072 }, "geometry": { "type": "Point", "coordinates": [ 51.592429876327522, 32.611670627323072 ] } },
{ "type": "Feature", "properties": { "camera_id": 13629, "type": "report_map_camera_speed", "highway": 15, "zoom_level": 14, "width": 25, "category": null, "uri": null, "source_layer": "poi", "source_file": "14_10540_6620.bin", "zoom": 14, "tile_x": 10540, "tile_y": 6620, "longitude": 51.593213081359863, "latitude": 32.612212867044789 }, "geometry": { "type": "Point", "coordinates": [ 51.593213081359863, 32.612212867044789 ] } },
{ "type": "Feature", "properties": { "camera_id": 14671, "type": "report_map_camera_speed", "highway": 15, "zoom_level": 14, "width": 25, "category": null, "uri": null, "source_layer": "poi", "source_file": "14_10540_6620.bin", "zoom": 14, "tile_x": 10540, "tile_y": 6620, "longitude": 51.601763963699341, "latitude": 32.616749477391856 }, "geometry": { "type": "Point", "coordinates": [ 51.601763963699341, 32.616749477391856 ] } },
{ "type": "Feature", "properties": { "camera_id": 14778, "type": "report_map_camera_speed", "highway": 15, "zoom_level": 14, "width": 25, "category": null, "uri": null, "source_layer": "poi", "source_file": "14_10540_6620.bin", "zoom": 14, "tile_x": 10540, "tile_y": 6620, "longitude": 51.60229504108429, "latitude": 32.608385488142623 }, "geometry": { "type": "Point", "coordinates": [ 51.60229504108429, 32.608385488142623 ] } },
{ "type": "Feature", "properties": { "camera_id": 14872, "type": "report_map_camera_speed", "highway": 0, "zoom_level": 14, "width": 25, "category": null, "uri": null, "source_layer": "poi", "source_file": "14_10540_6620.bin", "zoom": 14, "tile_x": 10540, "tile_y": 6620, "longitude": 51.605470776557922, "latitude": 32.607978791278391 }, "geometry": { "type": "Point", "coordinates": [ 51.605470776557922, 32.607978791278391 ] } },
{ "type": "Feature", "properties": { "camera_id": 15028, "type": "report_map_camera_speed", "highway": 0, "zoom_level": 14, "width": 25, "category": null, "uri": null, "source_layer": "poi", "source_file": "14_10544_6616.bin", "zoom": 14, "tile_x": 10544, "tile_y": 6616, "longitude": 51.681463122367859, "latitude": 32.678436290768801 }, "geometry": { "type": "Point", "coordinates": [ 51.681463122367859, 32.678436290768801 ] } },
{ "type": "Feature", "properties": { "camera_id": 15029, "type": "report_map_camera_speed", "highway": 0, "zoom_level": 14, "width": 25, "category": null, "uri": null, "source_layer": "poi", "source_file": "14_10544_6617.bin", "zoom": 14, "tile_x": 10544, "tile_y": 6617, "longitude": 51.681473851203918, "latitude": 32.666808621120097 }, "geometry": { "type": "Point", "coordinates": [ 51.681473851203918, 32.666808621120097 ] } },
{ "type": "Feature", "properties": { "camera_id": 15064, "type": "report_map_camera_speed", "highway": 0, "zoom_level": 14, "width": 25, "category": null, "uri": null, "source_layer": "poi", "source_file": "14_10544_6617.bin", "zoom": 14, "tile_x": 10544, "tile_y": 6617, "longitude": 51.681795716285706, "latitude": 32.666795073437953 }, "geometry": { "type": "Point", "coordinates": [ 51.681795716285706, 32.666795073437953 ] } },
{ "type": "Feature", "properties": { "camera_id": 15089, "type": "report_map_camera_speed", "highway": 0, "zoom_level": 14, "width": 25, "category": null, "uri": null, "source_layer": "poi", "source_file": "14_10544_6617.bin", "zoom": 14, "tile_x": 10544, "tile_y": 6617, "longitude": 51.685507893562317, "latitude": 32.665891889995848 }, "geometry": { "type": "Point", "coordinates": [ 51.685507893562317, 32.665891889995848 ] } },
{ "type": "Feature", "properties": { "camera_id": 15111, "type": "report_map_camera_speed", "highway": 13, "zoom_level": 14, "width": 25, "category": null, "uri": null, "source_layer": "poi", "source_file": "14_10544_6619.bin", "zoom": 14, "tile_x": 10544, "tile_y": 6619, "longitude": 51.688774824142456, "latitude": 32.636827091654794 }, "geometry": { "type": "Point", "coordinates": [ 51.688774824142456, 32.636827091654794 ] } },
{ "type": "Feature", "properties": { "camera_id": 15130, "type": "report_map_camera_speed", "highway": 0, "zoom_level": 14, "width": 25, "category": null, "uri": null, "source_layer": "poi", "source_file": "14_10544_6619.bin", "zoom": 14, "tile_x": 10544, "tile_y": 6619, "longitude": 51.689262986183167, "latitude": 32.624909375155369 }, "geometry": { "type": "Point", "coordinates": [ 51.689262986183167, 32.624909375155369 ] } },
{ "type": "Feature", "properties": { "camera_id": 15158, "type": "report_map_camera_speed", "highway": 0, "zoom_level": 14, "width": 25, "category": null, "uri": null, "source_layer": "poi", "source_file": "14_10544_6616.bin", "zoom": 14, "tile_x": 10544, "tile_y": 6616, "longitude": 51.690571904182434, "latitude": 32.694035310559286 }, "geometry": { "type": "Point", "coordinates": [ 51.690571904182434, 32.694035310559286 ] } },
{ "type": "Feature", "properties": { "camera_id": 15159, "type": "report_map_camera_speed", "highway": 13, "zoom_level": 14, "width": 25, "category": null, "uri": null, "source_layer": "poi", "source_file": "14_10544_6616.bin", "zoom": 14, "tile_x": 10544, "tile_y": 6616, "longitude": 51.690829396247857, "latitude": 32.693764439111163 }, "geometry": { "type": "Point", "coordinates": [ 51.690829396247857, 32.693764439111163 ] } },
{ "type": "Feature", "properties": { "camera_id": 15211, "type": "report_map_camera_speed", "highway": 0, "zoom_level": 14, "width": 25, "category": null, "uri": null, "source_layer": "poi", "source_file": "14_10544_6616.bin", "zoom": 14, "tile_x": 10544, "tile_y": 6616, "longitude": 51.691188812255859, "latitude": 32.693949534689644 }, "geometry": { "type": "Point", "coordinates": [ 51.691188812255859, 32.693949534689644 ] } },
{ "type": "Feature", "properties": { "camera_id": 15252, "type": "report_map_camera_speed", "highway": 15, "zoom_level": 14, "width": 25, "category": null, "uri": null, "source_layer": "poi", "source_file": "14_10544_6621.bin", "zoom": 14, "tile_x": 10544, "tile_y": 6621, "longitude": 51.691789627075202, "latitude": 32.600829662649936 }, "geometry": { "type": "Point", "coordinates": [ 51.691789627075202, 32.600829662649936 ] } },
{ "type": "Feature", "properties": { "camera_id": 15261, "type": "report_map_camera_speed", "highway": 0, "zoom_level": 14, "width": 25, "category": null, "uri": null, "source_layer": "poi", "source_file": "14_10544_6613.bin", "zoom": 14, "tile_x": 10544, "tile_y": 6613, "longitude": 51.692524552345283, "latitude": 32.73365494536354 }, "geometry": { "type": "Point", "coordinates": [ 51.692524552345283, 32.73365494536354 ] } },
{ "type": "Feature", "properties": { "camera_id": 15262, "type": "report_map_camera_speed", "highway": 15, "zoom_level": 14, "width": 25, "category": null, "uri": null, "source_layer": "poi", "source_file": "14_10544_6621.bin", "zoom": 14, "tile_x": 10544, "tile_y": 6621, "longitude": 51.69266402721405, "latitude": 32.600752835792392 }, "geometry": { "type": "Point", "coordinates": [ 51.69266402721405, 32.600752835792392 ] } },
{ "type": "Feature", "properties": { "camera_id": 15311, "type": "report_map_camera_speed", "highway": 13, "zoom_level": 14, "width": 25, "category": null, "uri": null, "source_layer": "poi", "source_file": "14_10544_6618.bin", "zoom": 14, "tile_x": 10544, "tile_y": 6618, "longitude": 51.696842908859253, "latitude": 32.647275246645172 }, "geometry": { "type": "Point", "coordinates": [ 51.696842908859253, 32.647275246645172 ] } },
{ "type": "Feature", "properties": { "camera_id": 15339, "type": "report_map_camera_speed", "highway": 0, "zoom_level": 14, "width": 25, "category": null, "uri": null, "source_layer": "poi", "source_file": "14_10544_6618.bin", "zoom": 14, "tile_x": 10544, "tile_y": 6618, "longitude": 51.696944832801819, "latitude": 32.647324932317602 }, "geometry": { "type": "Point", "coordinates": [ 51.696944832801819, 32.647324932317602 ] } },
{ "type": "Feature", "properties": { "camera_id": 15408, "type": "report_map_camera_speed", "highway": 15, "zoom_level": 14, "width": 25, "category": null, "uri": null, "source_layer": "poi", "source_file": "14_10544_6620.bin", "zoom": 14, "tile_x": 10544, "tile_y": 6620, "longitude": 51.698226928710938, "latitude": 32.617386572589723 }, "geometry": { "type": "Point", "coordinates": [ 51.698226928710938, 32.617386572589723 ] } },
{ "type": "Feature", "properties": { "camera_id": 15409, "type": "report_map_camera_speed", "highway": 13, "zoom_level": 14, "width": 25, "category": null, "uri": null, "source_layer": "poi", "source_file": "14_10544_6618.bin", "zoom": 14, "tile_x": 10544, "tile_y": 6618, "longitude": 51.698511242866523, "latitude": 32.652297876779301 }, "geometry": { "type": "Point", "coordinates": [ 51.698511242866523, 32.652297876779301 ] } },
{ "type": "Feature", "properties": { "camera_id": 15424, "type": "report_map_camera_speed", "highway": 13, "zoom_level": 14, "width": 25, "category": null, "uri": null, "source_layer": "poi", "source_file": "14_10544_6618.bin", "zoom": 14, "tile_x": 10544, "tile_y": 6618, "longitude": 51.698570251464851, "latitude": 32.65227077701401 }, "geometry": { "type": "Point", "coordinates": [ 51.698570251464851, 32.65227077701401 ] } },
{ "type": "Feature", "properties": { "camera_id": 15465, "type": "report_map_camera_speed", "highway": 13, "zoom_level": 14, "width": 25, "category": null, "uri": null, "source_layer": "poi", "source_file": "14_10544_6617.bin", "zoom": 14, "tile_x": 10544, "tile_y": 6617, "longitude": 51.700705289840698, "latitude": 32.658557702460385 }, "geometry": { "type": "Point", "coordinates": [ 51.700705289840698, 32.658557702460385 ] } },
{ "type": "Feature", "properties": { "camera_id": 15481, "type": "report_map_camera_speed", "highway": 15, "zoom_level": 14, "width": 25, "category": null, "uri": null, "source_layer": "poi", "source_file": "14_10544_6619.bin", "zoom": 14, "tile_x": 10544, "tile_y": 6619, "longitude": 51.700796484947205, "latitude": 32.626897277429826 }, "geometry": { "type": "Point", "coordinates": [ 51.700796484947205, 32.626897277429826 ] } },
{ "type": "Feature", "properties": { "camera_id": 15482, "type": "report_map_camera_speed", "highway": 0, "zoom_level": 14, "width": 25, "category": null, "uri": null, "source_layer": "poi", "source_file": "14_10544_6617.bin", "zoom": 14, "tile_x": 10544, "tile_y": 6617, "longitude": 51.701118350028992, "latitude": 32.669346517342021 }, "geometry": { "type": "Point", "coordinates": [ 51.701118350028992, 32.669346517342021 ] } },
{ "type": "Feature", "properties": { "camera_id": 15555, "type": "report_map_camera_speed", "highway": 15, "zoom_level": 14, "width": 25, "category": null, "uri": null, "source_layer": "poi", "source_file": "14_10544_6619.bin", "zoom": 14, "tile_x": 10544, "tile_y": 6619, "longitude": 51.701247096061707, "latitude": 32.627308406253725 }, "geometry": { "type": "Point", "coordinates": [ 51.701247096061707, 32.627308406253725 ] } },
{ "type": "Feature", "properties": { "camera_id": 15556, "type": "report_map_camera_speed", "highway": 13, "zoom_level": 14, "width": 25, "category": null, "uri": null, "source_layer": "poi", "source_file": "14_10544_6615.bin", "zoom": 14, "tile_x": 10544, "tile_y": 6615, "longitude": 51.701391935348511, "latitude": 32.707072284294227 }, "geometry": { "type": "Point", "coordinates": [ 51.701391935348511, 32.707072284294227 ] } },
{ "type": "Feature", "properties": { "camera_id": 15569, "type": "report_map_camera_speed", "highway": 13, "zoom_level": 14, "width": 25, "category": null, "uri": null, "source_layer": "poi", "source_file": "14_10544_6615.bin", "zoom": 14, "tile_x": 10544, "tile_y": 6615, "longitude": 51.701542139053352, "latitude": 32.707221241479061 }, "geometry": { "type": "Point", "coordinates": [ 51.701542139053352, 32.707221241479061 ] } },
{ "type": "Feature", "properties": { "camera_id": 15713, "type": "report_map_camera_speed", "highway": 12, "zoom_level": 14, "width": 25, "category": null, "uri": null, "source_layer": "poi", "source_file": "14_10545_6617.bin", "zoom": 14, "tile_x": 10545, "tile_y": 6617, "longitude": 51.702277064323432, "latitude": 32.663656471722163 }, "geometry": { "type": "Point", "coordinates": [ 51.702277064323432, 32.663656471722163 ] } },
{ "type": "Feature", "properties": { "camera_id": 15714, "type": "report_map_camera_speed", "highway": 13, "zoom_level": 14, "width": 25, "category": null, "uri": null, "source_layer": "poi", "source_file": "14_10545_6617.bin", "zoom": 14, "tile_x": 10545, "tile_y": 6617, "longitude": 51.702277064323432, "latitude": 32.663660987775032 }, "geometry": { "type": "Point", "coordinates": [ 51.702277064323432, 32.663660987775032 ] } },
{ "type": "Feature", "properties": { "camera_id": 15737, "type": "report_map_camera_speed", "highway": 0, "zoom_level": 14, "width": 25, "category": null, "uri": null, "source_layer": "poi", "source_file": "14_10545_6615.bin", "zoom": 14, "tile_x": 10545, "tile_y": 6615, "longitude": 51.706311106681824, "latitude": 32.695236164080143 }, "geometry": { "type": "Point", "coordinates": [ 51.706311106681824, 32.695236164080143 ] } },
{ "type": "Feature", "properties": { "camera_id": 15757, "type": "report_map_camera_speed", "highway": 0, "zoom_level": 14, "width": 25, "category": null, "uri": null, "source_layer": "poi", "source_file": "14_10545_6615.bin", "zoom": 14, "tile_x": 10545, "tile_y": 6615, "longitude": 51.707029938697815, "latitude": 32.695421256606977 }, "geometry": { "type": "Point", "coordinates": [ 51.707029938697815, 32.695421256606977 ] } },
{ "type": "Feature", "properties": { "camera_id": 15796, "type": "report_map_camera_speed", "highway": 15, "zoom_level": 14, "width": 25, "category": null, "uri": null, "source_layer": "poi", "source_file": "14_10545_6618.bin", "zoom": 14, "tile_x": 10545, "tile_y": 6618, "longitude": 51.707539558410645, "latitude": 32.640721012786813 }, "geometry": { "type": "Point", "coordinates": [ 51.707539558410645, 32.640721012786813 ] } },
{ "type": "Feature", "properties": { "camera_id": 15797, "type": "report_map_camera_speed", "highway": 0, "zoom_level": 14, "width": 25, "category": null, "uri": null, "source_layer": "poi", "source_file": "14_10545_6615.bin", "zoom": 14, "tile_x": 10545, "tile_y": 6615, "longitude": 51.707764863967896, "latitude": 32.710945090276077 }, "geometry": { "type": "Point", "coordinates": [ 51.707764863967896, 32.710945090276077 ] } },
{ "type": "Feature", "properties": { "camera_id": 15822, "type": "report_map_camera_speed", "highway": 13, "zoom_level": 14, "width": 25, "category": null, "uri": null, "source_layer": "poi", "source_file": "14_10545_6616.bin", "zoom": 14, "tile_x": 10545, "tile_y": 6616, "longitude": 51.709304451942451, "latitude": 32.692306233693458 }, "geometry": { "type": "Point", "coordinates": [ 51.709304451942451, 32.692306233693458 ] } },
{ "type": "Feature", "properties": { "camera_id": 15836, "type": "report_map_camera_speed", "highway": 11, "zoom_level": 14, "width": 25, "category": null, "uri": null, "source_layer": "poi", "source_file": "14_10545_6618.bin", "zoom": 14, "tile_x": 10545, "tile_y": 6618, "longitude": 51.710768938064575, "latitude": 32.646552542834215 }, "geometry": { "type": "Point", "coordinates": [ 51.710768938064575, 32.646552542834215 ] } },
{ "type": "Feature", "properties": { "camera_id": 15837, "type": "report_map_camera_speed", "highway": 15, "zoom_level": 14, "width": 25, "category": null, "uri": null, "source_layer": "poi", "source_file": "14_10545_6618.bin", "zoom": 14, "tile_x": 10545, "tile_y": 6618, "longitude": 51.71089768409729, "latitude": 32.646380899820855 }, "geometry": { "type": "Point", "coordinates": [ 51.71089768409729, 32.646380899820855 ] } },
{ "type": "Feature", "properties": { "camera_id": 15962, "type": "report_map_camera_speed", "highway": 13, "zoom_level": 14, "width": 25, "category": null, "uri": null, "source_layer": "poi", "source_file": "14_10545_6615.bin", "zoom": 14, "tile_x": 10545, "tile_y": 6615, "longitude": 51.712195873260498, "latitude": 32.710019784784734 }, "geometry": { "type": "Point", "coordinates": [ 51.712195873260498, 32.710019784784734 ] } },
{ "type": "Feature", "properties": { "camera_id": 15963, "type": "report_map_camera_speed", "highway": 0, "zoom_level": 14, "width": 25, "category": null, "uri": null, "source_layer": "poi", "source_file": "14_10545_6617.bin", "zoom": 14, "tile_x": 10545, "tile_y": 6617, "longitude": 51.712442636489868, "latitude": 32.660630664998202 }, "geometry": { "type": "Point", "coordinates": [ 51.712442636489868, 32.660630664998202 ] } },
{ "type": "Feature", "properties": { "camera_id": 15983, "type": "report_map_camera_speed", "highway": 0, "zoom_level": 14, "width": 25, "category": null, "uri": null, "source_layer": "poi", "source_file": "14_10545_6616.bin", "zoom": 14, "tile_x": 10545, "tile_y": 6616, "longitude": 51.712989807128906, "latitude": 32.683244962213799 }, "geometry": { "type": "Point", "coordinates": [ 51.712989807128906, 32.683244962213799 ] } },
{ "type": "Feature", "properties": { "camera_id": 15984, "type": "report_map_camera_speed", "highway": 13, "zoom_level": 14, "width": 25, "category": null, "uri": null, "source_layer": "poi", "source_file": "14_10545_6616.bin", "zoom": 14, "tile_x": 10545, "tile_y": 6616, "longitude": 51.71364963054657, "latitude": 32.680152090570218 }, "geometry": { "type": "Point", "coordinates": [ 51.71364963054657, 32.680152090570218 ] } },
{ "type": "Feature", "properties": { "camera_id": 15991, "type": "report_map_camera_speed", "highway": 0, "zoom_level": 14, "width": 25, "category": null, "uri": null, "source_layer": "poi", "source_file": "14_10545_6618.bin", "zoom": 14, "tile_x": 10545, "tile_y": 6618, "longitude": 51.713697910308838, "latitude": 32.65137196347785 }, "geometry": { "type": "Point", "coordinates": [ 51.713697910308838, 32.65137196347785 ] } },
{ "type": "Feature", "properties": { "camera_id": 16018, "type": "report_map_camera_speed", "highway": 0, "zoom_level": 14, "width": 25, "category": null, "uri": null, "source_layer": "poi", "source_file": "14_10545_6620.bin", "zoom": 14, "tile_x": 10545, "tile_y": 6620, "longitude": 51.714802980422974, "latitude": 32.612199311091771 }, "geometry": { "type": "Point", "coordinates": [ 51.714802980422974, 32.612199311091771 ] } },
{ "type": "Feature", "properties": { "camera_id": 16051, "type": "report_map_camera_speed", "highway": 0, "zoom_level": 14, "width": 25, "category": null, "uri": null, "source_layer": "poi", "source_file": "14_10545_6617.bin", "zoom": 14, "tile_x": 10545, "tile_y": 6617, "longitude": 51.716986298561096, "latitude": 32.659194499989646 }, "geometry": { "type": "Point", "coordinates": [ 51.716986298561096, 32.659194499989646 ] } },
{ "type": "Feature", "properties": { "camera_id": 16096, "type": "report_map_camera_speed", "highway": 17, "zoom_level": 14, "width": 25, "category": null, "uri": null, "source_layer": "poi", "source_file": "14_10538_6621.bin", "zoom": 14, "tile_x": 10538, "tile_y": 6621, "longitude": 51.567517518997192, "latitude": 32.589182862966929 }, "geometry": { "type": "Point", "coordinates": [ 51.567517518997192, 32.589182862966929 ] } },
{ "type": "Feature", "properties": { "camera_id": 16097, "type": "report_map_camera_speed", "highway": 17, "zoom_level": 14, "width": 25, "category": null, "uri": null, "source_layer": "poi", "source_file": "14_10538_6621.bin", "zoom": 14, "tile_x": 10538, "tile_y": 6621, "longitude": 51.567630171775818, "latitude": 32.589092466673343 }, "geometry": { "type": "Point", "coordinates": [ 51.567630171775818, 32.589092466673343 ] } },
{ "type": "Feature", "properties": { "camera_id": 16129, "type": "report_map_camera_speed", "highway": 0, "zoom_level": 14, "width": 25, "category": null, "uri": null, "source_layer": "poi", "source_file": "14_10545_6619.bin", "zoom": 14, "tile_x": 10545, "tile_y": 6619, "longitude": 51.721272468566895, "latitude": 32.621236157748044 }, "geometry": { "type": "Point", "coordinates": [ 51.721272468566895, 32.621236157748044 ] } },
{ "type": "Feature", "properties": { "camera_id": 16130, "type": "report_map_camera_speed", "highway": 0, "zoom_level": 14, "width": 25, "category": null, "uri": null, "source_layer": "poi", "source_file": "14_10545_6619.bin", "zoom": 14, "tile_x": 10545, "tile_y": 6619, "longitude": 51.721444129943848, "latitude": 32.621308448843564 }, "geometry": { "type": "Point", "coordinates": [ 51.721444129943848, 32.621308448843564 ] } },
{ "type": "Feature", "properties": { "camera_id": 16210, "type": "report_map_camera_speed", "highway": 0, "zoom_level": 14, "width": 25, "category": null, "uri": null, "source_layer": "poi", "source_file": "14_10545_6615.bin", "zoom": 14, "tile_x": 10545, "tile_y": 6615, "longitude": 51.723150014877319, "latitude": 32.696978727301008 }, "geometry": { "type": "Point", "coordinates": [ 51.723150014877319, 32.696978727301008 ] } },
{ "type": "Feature", "properties": { "camera_id": 16214, "type": "report_map_camera_speed", "highway": 0, "zoom_level": 14, "width": 25, "category": null, "uri": null, "source_layer": "poi", "source_file": "14_10545_6615.bin", "zoom": 14, "tile_x": 10545, "tile_y": 6615, "longitude": 51.723219752311707, "latitude": 32.697127701334651 }, "geometry": { "type": "Point", "coordinates": [ 51.723219752311707, 32.697127701334651 ] } },
{ "type": "Feature", "properties": { "camera_id": 16224, "type": "report_map_camera_speed", "highway": 0, "zoom_level": 14, "width": 25, "category": null, "uri": null, "source_layer": "poi", "source_file": "14_10546_6617.bin", "zoom": 14, "tile_x": 10546, "tile_y": 6617, "longitude": 51.724212169647217, "latitude": 32.664415165404563 }, "geometry": { "type": "Point", "coordinates": [ 51.724212169647217, 32.664415165404563 ] } },
{ "type": "Feature", "properties": { "camera_id": 16311, "type": "report_map_camera_speed", "highway": 11, "zoom_level": 14, "width": 25, "category": null, "uri": null, "source_layer": "poi", "source_file": "14_10546_6620.bin", "zoom": 14, "tile_x": 10546, "tile_y": 6620, "longitude": 51.730032563209534, "latitude": 32.607079532766903 }, "geometry": { "type": "Point", "coordinates": [ 51.730032563209534, 32.607079532766903 ] } },
{ "type": "Feature", "properties": { "camera_id": 16315, "type": "report_map_camera_speed", "highway": 11, "zoom_level": 14, "width": 25, "category": null, "uri": null, "source_layer": "poi", "source_file": "14_10546_6620.bin", "zoom": 14, "tile_x": 10546, "tile_y": 6620, "longitude": 51.730037927627563, "latitude": 32.607237694465987 }, "geometry": { "type": "Point", "coordinates": [ 51.730037927627563, 32.607237694465987 ] } },
{ "type": "Feature", "properties": { "camera_id": 16325, "type": "report_map_camera_speed", "highway": 13, "zoom_level": 14, "width": 25, "category": null, "uri": null, "source_layer": "poi", "source_file": "14_10546_6619.bin", "zoom": 14, "tile_x": 10546, "tile_y": 6619, "longitude": 51.730826497077942, "latitude": 32.624561487717912 }, "geometry": { "type": "Point", "coordinates": [ 51.730826497077942, 32.624561487717912 ] } },
{ "type": "Feature", "properties": { "camera_id": 16328, "type": "report_map_camera_speed", "highway": 15, "zoom_level": 14, "width": 25, "category": null, "uri": null, "source_layer": "poi", "source_file": "14_10546_6617.bin", "zoom": 14, "tile_x": 10546, "tile_y": 6617, "longitude": 51.730896234512329, "latitude": 32.669838734419997 }, "geometry": { "type": "Point", "coordinates": [ 51.730896234512329, 32.669838734419997 ] } },
{ "type": "Feature", "properties": { "camera_id": 16383, "type": "report_map_camera_speed", "highway": 15, "zoom_level": 14, "width": 25, "category": null, "uri": null, "source_layer": "poi", "source_file": "14_10546_6617.bin", "zoom": 14, "tile_x": 10546, "tile_y": 6617, "longitude": 51.732940077781677, "latitude": 32.672760370800454 }, "geometry": { "type": "Point", "coordinates": [ 51.732940077781677, 32.672760370800454 ] } },
{ "type": "Feature", "properties": { "camera_id": 16395, "type": "report_map_camera_speed", "highway": 15, "zoom_level": 14, "width": 25, "category": null, "uri": null, "source_layer": "poi", "source_file": "14_10546_6616.bin", "zoom": 14, "tile_x": 10546, "tile_y": 6616, "longitude": 51.736491322517402, "latitude": 32.690161770692164 }, "geometry": { "type": "Point", "coordinates": [ 51.736491322517402, 32.690161770692164 ] } },
{ "type": "Feature", "properties": { "camera_id": 16409, "type": "report_map_camera_speed", "highway": 0, "zoom_level": 14, "width": 25, "category": null, "uri": null, "source_layer": "poi", "source_file": "14_10546_6616.bin", "zoom": 14, "tile_x": 10546, "tile_y": 6616, "longitude": 51.737784147262573, "latitude": 32.684757495477491 }, "geometry": { "type": "Point", "coordinates": [ 51.737784147262573, 32.684757495477491 ] } },
{ "type": "Feature", "properties": { "camera_id": 16410, "type": "report_map_camera_speed", "highway": 15, "zoom_level": 14, "width": 25, "category": null, "uri": null, "source_layer": "poi", "source_file": "14_10546_6620.bin", "zoom": 14, "tile_x": 10546, "tile_y": 6620, "longitude": 51.738669276237488, "latitude": 32.607477195935758 }, "geometry": { "type": "Point", "coordinates": [ 51.738669276237488, 32.607477195935758 ] } },
{ "type": "Feature", "properties": { "camera_id": 16458, "type": "report_map_camera_speed", "highway": 0, "zoom_level": 14, "width": 25, "category": null, "uri": null, "source_layer": "poi", "source_file": "14_10546_6620.bin", "zoom": 14, "tile_x": 10546, "tile_y": 6620, "longitude": 51.741582155227661, "latitude": 32.60382585870412 }, "geometry": { "type": "Point", "coordinates": [ 51.741582155227661, 32.60382585870412 ] } },
{ "type": "Feature", "properties": { "camera_id": 16466, "type": "report_map_camera_speed", "highway": 0, "zoom_level": 14, "width": 25, "category": null, "uri": null, "source_layer": "poi", "source_file": "14_10546_6620.bin", "zoom": 14, "tile_x": 10546, "tile_y": 6620, "longitude": 51.742419004440308, "latitude": 32.602524355986745 }, "geometry": { "type": "Point", "coordinates": [ 51.742419004440308, 32.602524355986745 ] } },
{ "type": "Feature", "properties": { "camera_id": 16467, "type": "report_map_camera_speed", "highway": 13, "zoom_level": 14, "width": 25, "category": null, "uri": null, "source_layer": "poi", "source_file": "14_10546_6614.bin", "zoom": 14, "tile_x": 10546, "tile_y": 6614, "longitude": 51.742724776268005, "latitude": 32.721037067390128 }, "geometry": { "type": "Point", "coordinates": [ 51.742724776268005, 32.721037067390128 ] } },
{ "type": "Feature", "properties": { "camera_id": 16485, "type": "report_map_camera_speed", "highway": 13, "zoom_level": 14, "width": 25, "category": null, "uri": null, "source_layer": "poi", "source_file": "14_10546_6614.bin", "zoom": 14, "tile_x": 10546, "tile_y": 6614, "longitude": 51.742767691612237, "latitude": 32.720811409543025 }, "geometry": { "type": "Point", "coordinates": [ 51.742767691612237, 32.720811409543025 ] } },
{ "type": "Feature", "properties": { "camera_id": 16584, "type": "report_map_camera_speed", "highway": 11, "zoom_level": 14, "width": 25, "category": null, "uri": null, "source_layer": "poi", "source_file": "14_10547_6615.bin", "zoom": 14, "tile_x": 10547, "tile_y": 6615, "longitude": 51.749392747879028, "latitude": 32.696734951073239 }, "geometry": { "type": "Point", "coordinates": [ 51.749392747879028, 32.696734951073239 ] } },
{ "type": "Feature", "properties": { "camera_id": 16587, "type": "report_map_camera_speed", "highway": 0, "zoom_level": 14, "width": 25, "category": null, "uri": null, "source_layer": "poi", "source_file": "14_10547_6615.bin", "zoom": 14, "tile_x": 10547, "tile_y": 6615, "longitude": 51.749457120895386, "latitude": 32.696491174179691 }, "geometry": { "type": "Point", "coordinates": [ 51.749457120895386, 32.696491174179691 ] } },
{ "type": "Feature", "properties": { "camera_id": 16774, "type": "report_map_camera_speed", "highway": 15, "zoom_level": 14, "width": 25, "category": null, "uri": null, "source_layer": "poi", "source_file": "14_10547_6621.bin", "zoom": 14, "tile_x": 10547, "tile_y": 6621, "longitude": 51.75984263420105, "latitude": 32.595311519025358 }, "geometry": { "type": "Point", "coordinates": [ 51.75984263420105, 32.595311519025358 ] } },
{ "type": "Feature", "properties": { "camera_id": 16800, "type": "report_map_camera_speed", "highway": 11, "zoom_level": 14, "width": 25, "category": null, "uri": null, "source_layer": "poi", "source_file": "14_10547_6619.bin", "zoom": 14, "tile_x": 10547, "tile_y": 6619, "longitude": 51.766403317451477, "latitude": 32.632408957337923 }, "geometry": { "type": "Point", "coordinates": [ 51.766403317451477, 32.632408957337923 ] } },
{ "type": "Feature", "properties": { "camera_id": 16806, "type": "report_map_camera_speed", "highway": 0, "zoom_level": 14, "width": 25, "category": null, "uri": null, "source_layer": "poi", "source_file": "14_10547_6619.bin", "zoom": 14, "tile_x": 10547, "tile_y": 6619, "longitude": 51.766478419303887, "latitude": 32.633045941082251 }, "geometry": { "type": "Point", "coordinates": [ 51.766478419303887, 32.633045941082251 ] } },
{ "type": "Feature", "properties": { "camera_id": 16963, "type": "report_map_camera_speed", "highway": 13, "zoom_level": 14, "width": 25, "category": null, "uri": null, "source_layer": "poi", "source_file": "14_10548_6615.bin", "zoom": 14, "tile_x": 10548, "tile_y": 6615, "longitude": 51.771901845932007, "latitude": 32.697651365661606 }, "geometry": { "type": "Point", "coordinates": [ 51.771901845932007, 32.697651365661606 ] } },
{ "type": "Feature", "properties": { "camera_id": 16981, "type": "report_map_camera_speed", "highway": 13, "zoom_level": 14, "width": 25, "category": null, "uri": null, "source_layer": "poi", "source_file": "14_10548_6616.bin", "zoom": 14, "tile_x": 10548, "tile_y": 6616, "longitude": 51.774530410766602, "latitude": 32.69318206271447 }, "geometry": { "type": "Point", "coordinates": [ 51.774530410766602, 32.69318206271447 ] } },
{ "type": "Feature", "properties": { "camera_id": 16985, "type": "report_map_camera_speed", "highway": 15, "zoom_level": 14, "width": 25, "category": null, "uri": null, "source_layer": "poi", "source_file": "14_10548_6616.bin", "zoom": 14, "tile_x": 10548, "tile_y": 6616, "longitude": 51.774959564208977, "latitude": 32.692870557500854 }, "geometry": { "type": "Point", "coordinates": [ 51.774959564208977, 32.692870557500854 ] } },
{ "type": "Feature", "properties": { "camera_id": 17008, "type": "report_map_camera_speed", "highway": 13, "zoom_level": 14, "width": 25, "category": null, "uri": null, "source_layer": "poi", "source_file": "14_10548_6621.bin", "zoom": 14, "tile_x": 10548, "tile_y": 6621, "longitude": 51.779025793075562, "latitude": 32.585029059124317 }, "geometry": { "type": "Point", "coordinates": [ 51.779025793075562, 32.585029059124317 ] } },
{ "type": "Feature", "properties": { "camera_id": 17032, "type": "report_map_camera_speed", "highway": 15, "zoom_level": 14, "width": 25, "category": null, "uri": null, "source_layer": "poi", "source_file": "14_10548_6614.bin", "zoom": 14, "tile_x": 10548, "tile_y": 6614, "longitude": 51.781289577484131, "latitude": 32.714393461328036 }, "geometry": { "type": "Point", "coordinates": [ 51.781289577484131, 32.714393461328036 ] } },
{ "type": "Feature", "properties": { "camera_id": 17033, "type": "report_map_camera_speed", "highway": 15, "zoom_level": 14, "width": 25, "category": null, "uri": null, "source_layer": "poi", "source_file": "14_10548_6614.bin", "zoom": 14, "tile_x": 10548, "tile_y": 6614, "longitude": 51.781396865844727, "latitude": 32.714497271478592 }, "geometry": { "type": "Point", "coordinates": [ 51.781396865844727, 32.714497271478592 ] } },
{ "type": "Feature", "properties": { "camera_id": 17105, "type": "report_map_camera_speed", "highway": 15, "zoom_level": 14, "width": 25, "category": null, "uri": null, "source_layer": "poi", "source_file": "14_10548_6618.bin", "zoom": 14, "tile_x": 10548, "tile_y": 6618, "longitude": 51.789287924766541, "latitude": 32.640937838679953 }, "geometry": { "type": "Point", "coordinates": [ 51.789287924766541, 32.640937838679953 ] } },
{ "type": "Feature", "properties": { "camera_id": 17116, "type": "report_map_camera_speed", "highway": 11, "zoom_level": 14, "width": 25, "category": null, "uri": null, "source_layer": "poi", "source_file": "14_10548_6615.bin", "zoom": 14, "tile_x": 10548, "tile_y": 6615, "longitude": 51.789872646331787, "latitude": 32.704052462288615 }, "geometry": { "type": "Point", "coordinates": [ 51.789872646331787, 32.704052462288615 ] } },
{ "type": "Feature", "properties": { "camera_id": 17279, "type": "report_map_camera_speed", "highway": 17, "zoom_level": 14, "width": 25, "category": null, "uri": null, "source_layer": "poi", "source_file": "14_10549_6614.bin", "zoom": 14, "tile_x": 10549, "tile_y": 6614, "longitude": 51.801427602767937, "latitude": 32.724060827448 }, "geometry": { "type": "Point", "coordinates": [ 51.801427602767937, 32.724060827448 ] } },
{ "type": "Feature", "properties": { "camera_id": 17280, "type": "report_map_camera_speed", "highway": 17, "zoom_level": 14, "width": 25, "category": null, "uri": null, "source_layer": "poi", "source_file": "14_10549_6614.bin", "zoom": 14, "tile_x": 10549, "tile_y": 6614, "longitude": 51.8015456199646, "latitude": 32.724426379552334 }, "geometry": { "type": "Point", "coordinates": [ 51.8015456199646, 32.724426379552334 ] } }
]
}
