{
"type": "FeatureCollection",
"name": "mashhad_speed_cameras",
"crs": { "type": "name", "properties": { "name": "urn:ogc:def:crs:OGC:1.3:CRS84" } },
"features": [
{ "type": "Feature", "properties": { "camera_id": 2562, "type": "report_map_camera_speed", "highway": 15, "zoom_level": 14, "width": 25, "category": null, "uri": null, "source_layer": "poi", "source_file": "14_10903_6418.bin", "zoom": 14, "tile_x": 10903, "tile_y": 6418, "longitude": 59.579243659973145, "latitude": 36.267035506951842 }, "geometry": { "type": "Point", "coordinates": [ 59.579243659973145, 36.267035506951842 ] } },
{ "type": "Feature", "properties": { "camera_id": 2575, "type": "report_map_camera_speed", "highway": 0, "zoom_level": 14, "width": 25, "category": null, "uri": null, "source_layer": "poi", "source_file": "14_10903_6419.bin", "zoom": 14, "tile_x": 10903, "tile_y": 6419, "longitude": 59.581078290939331, "latitude": 36.259275779669821 }, "geometry": { "type": "Point", "coordinates": [ 59.581078290939331, 36.259275779669821 ] } },
{ "type": "Feature", "properties": { "camera_id": 2585, "type": "report_map_camera_speed", "highway": 15, "zoom_level": 14, "width": 25, "category": null, "uri": null, "source_layer": "poi", "source_file": "14_10903_6414.bin", "zoom": 14, "tile_x": 10903, "tile_y": 6414, "longitude": 59.581840038299561, "latitude": 36.347541459259446 }, "geometry": { "type": "Point", "coordinates": [ 59.581840038299561, 36.347541459259446 ] } },
{ "type": "Feature", "properties": { "camera_id": 2586, "type": "report_map_camera_speed", "highway": 0, "zoom_level": 14, "width": 25, "category": null, "uri": null, "source_layer": "poi", "source_file": "14_10903_6414.bin", "zoom": 14, "tile_x": 10903, "tile_y": 6414, "longitude": 59.581995606422417, "latitude": 36.347740211186419 }, "geometry": { "type": "Point", "coordinates": [ 59.581995606422417, 36.347740211186419 ] } },
{ "type": "Feature", "properties": { "camera_id": 2638, "type": "report_map_camera_speed", "highway": 15, "zoom_level": 14, "width": 25, "category": null, "uri": null, "source_layer": "poi", "source_file": "14_10903_6419.bin", "zoom": 14, "tile_x": 10903, "tile_y": 6419, "longitude": 59.587311744689941, "latitude": 36.259293082037459 }, "geometry": { "type": "Point", "coordinates": [ 59.587311744689941, 36.259293082037459 ] } },
{ "type": "Feature", "properties": { "camera_id": 2688, "type": "report_map_camera_speed", "highway": 15, "zoom_level": 14, "width": 25, "category": null, "uri": null, "source_layer": "poi", "source_file": "14_10904_6419.bin", "zoom": 14, "tile_x": 10904, "tile_y": 6419, "longitude": 59.592069983482361, "latitude": 36.256905319075344 }, "geometry": { "type": "Point", "coordinates": [ 59.592069983482361, 36.256905319075344 ] } },
{ "type": "Feature", "properties": { "camera_id": 2740, "type": "report_map_camera_speed", "highway": 15, "zoom_level": 14, "width": 25, "category": null, "uri": null, "source_layer": "poi", "source_file": "14_10904_6414.bin", "zoom": 14, "tile_x": 10904, "tile_y": 6414, "longitude": 59.597139358520508, "latitude": 36.340576180033374 }, "geometry": { "type": "Point", "coordinates": [ 59.597139358520508, 36.340576180033374 ] } },
{ "type": "Feature", "properties": { "camera_id": 2756, "type": "report_map_camera_speed", "highway": 15, "zoom_level": 14, "width": 25, "category": null, "uri": null, "source_layer": "poi", "source_file": "14_10904_6414.bin", "zoom": 14, "tile_x": 10904, "tile_y": 6414, "longitude": 59.599499702453613, "latitude": 36.339215026031503 }, "geometry": { "type": "Point", "coordinates": [ 59.599499702453613, 36.339215026031503 ] } },
{ "type": "Feature", "properties": { "camera_id": 2789, "type": "report_map_camera_speed", "highway": 0, "zoom_level": 14, "width": 25, "category": null, "uri": null, "source_layer": "poi", "source_file": "14_10904_6418.bin", "zoom": 14, "tile_x": 10904, "tile_y": 6418, "longitude": 59.60383415222168, "latitude": 36.273938161454339 }, "geometry": { "type": "Point", "coordinates": [ 59.60383415222168, 36.273938161454339 ] } },
{ "type": "Feature", "properties": { "camera_id": 2804, "type": "report_map_camera_speed", "highway": 15, "zoom_level": 14, "width": 25, "category": null, "uri": null, "source_layer": "poi", "source_file": "14_10904_6419.bin", "zoom": 14, "tile_x": 10904, "tile_y": 6419, "longitude": 59.605094790458679, "latitude": 36.252869314662128 }, "geometry": { "type": "Point", "coordinates": [ 59.605094790458679, 36.252869314662128 ] } },
{ "type": "Feature", "properties": { "camera_id": 2838, "type": "report_map_camera_speed", "highway": 13, "zoom_level": 14, "width": 25, "category": null, "uri": null, "source_layer": "poi", "source_file": "14_10905_6417.bin", "zoom": 14, "tile_x": 10905, "tile_y": 6417, "longitude": 59.612685441970825, "latitude": 36.291620185299671 }, "geometry": { "type": "Point", "coordinates": [ 59.612685441970825, 36.291620185299671 ] } },
{ "type": "Feature", "properties": { "camera_id": 2839, "type": "report_map_camera_speed", "highway": 13, "zoom_level": 14, "width": 25, "category": null, "uri": null, "source_layer": "poi", "source_file": "14_10905_6417.bin", "zoom": 14, "tile_x": 10905, "tile_y": 6417, "longitude": 59.612798094749451, "latitude": 36.29163315670052 }, "geometry": { "type": "Point", "coordinates": [ 59.612798094749451, 36.29163315670052 ] } },
{ "type": "Feature", "properties": { "camera_id": 2910, "type": "report_map_camera_speed", "highway": 0, "zoom_level": 14, "width": 25, "category": null, "uri": null, "source_layer": "poi", "source_file": "14_10905_6415.bin", "zoom": 14, "tile_x": 10905, "tile_y": 6415, "longitude": 59.617454409599297, "latitude": 36.330468503968902 }, "geometry": { "type": "Point", "coordinates": [ 59.617454409599297, 36.330468503968902 ] } },
{ "type": "Feature", "properties": { "camera_id": 2911, "type": "report_map_camera_speed", "highway": 15, "zoom_level": 14, "width": 25, "category": null, "uri": null, "source_layer": "poi", "source_file": "14_10905_6415.bin", "zoom": 14, "tile_x": 10905, "tile_y": 6415, "longitude": 59.618017673492432, "latitude": 36.330503077135461 }, "geometry": { "type": "Point", "coordinates": [ 59.618017673492432, 36.330503077135461 ] } },
{ "type": "Feature", "properties": { "camera_id": 2916, "type": "report_map_camera_speed", "highway": 0, "zoom_level": 14, "width": 25, "category": null, "uri": null, "source_layer": "poi", "source_file": "14_10905_6419.bin", "zoom": 14, "tile_x": 10905, "tile_y": 6419, "longitude": 59.618114233016968, "latitude": 36.24573982857617 }, "geometry": { "type": "Point", "coordinates": [ 59.618114233016968, 36.24573982857617 ] } },
{ "type": "Feature", "properties": { "camera_id": 2917, "type": "report_map_camera_speed", "highway": 0, "zoom_level": 14, "width": 25, "category": null, "uri": null, "source_layer": "poi", "source_file": "14_10905_6419.bin", "zoom": 14, "tile_x": 10905, "tile_y": 6419, "longitude": 59.6183180809021, "latitude": 36.245748481259326 }, "geometry": { "type": "Point", "coordinates": [ 59.6183180809021, 36.245748481259326 ] } },
{ "type": "Feature", "properties": { "camera_id": 2921, "type": "report_map_camera_speed", "highway": 13, "zoom_level": 14, "width": 25, "category": null, "uri": null, "source_layer": "poi", "source_file": "14_10905_6419.bin", "zoom": 14, "tile_x": 10905, "tile_y": 6419, "longitude": 59.61879551410675, "latitude": 36.247773182777806 }, "geometry": { "type": "Point", "coordinates": [ 59.61879551410675, 36.247773182777806 ] } },
{ "type": "Feature", "properties": { "camera_id": 2922, "type": "report_map_camera_speed", "highway": 0, "zoom_level": 14, "width": 25, "category": null, "uri": null, "source_layer": "poi", "source_file": "14_10905_6419.bin", "zoom": 14, "tile_x": 10905, "tile_y": 6419, "longitude": 59.619101285934448, "latitude": 36.247768856548433 }, "geometry": { "type": "Point", "coordinates": [ 59.619101285934448, 36.247768856548433 ] } },
{ "type": "Feature", "properties": { "camera_id": 2932, "type": "report_map_camera_speed", "highway": 15, "zoom_level": 14, "width": 25, "category": null, "uri": null, "source_layer": "poi", "source_file": "14_10905_6419.bin", "zoom": 14, "tile_x": 10905, "tile_y": 6419, "longitude": 59.620871543884277, "latitude": 36.256386230512952 }, "geometry": { "type": "Point", "coordinates": [ 59.620871543884277, 36.256386230512952 ] } },
{ "type": "Feature", "properties": { "camera_id": 2933, "type": "report_map_camera_speed", "highway": 15, "zoom_level": 14, "width": 25, "category": null, "uri": null, "source_layer": "poi", "source_file": "14_10905_6419.bin", "zoom": 14, "tile_x": 10905, "tile_y": 6419, "longitude": 59.621745944023132, "latitude": 36.256559260416985 }, "geometry": { "type": "Point", "coordinates": [ 59.621745944023132, 36.256559260416985 ] } },
{ "type": "Feature", "properties": { "camera_id": 3014, "type": "report_map_camera_speed", "highway": 0, "zoom_level": 14, "width": 25, "category": null, "uri": null, "source_layer": "poi", "source_file": "14_10905_6420.bin", "zoom": 14, "tile_x": 10905, "tile_y": 6420, "longitude": 59.625420570373535, "latitude": 36.226221264086561 }, "geometry": { "type": "Point", "coordinates": [ 59.625420570373535, 36.226221264086561 ] } },
{ "type": "Feature", "properties": { "camera_id": 3015, "type": "report_map_camera_speed", "highway": 15, "zoom_level": 14, "width": 25, "category": null, "uri": null, "source_layer": "poi", "source_file": "14_10905_6421.bin", "zoom": 14, "tile_x": 10905, "tile_y": 6421, "longitude": 59.625715613365173, "latitude": 36.223248268634123 }, "geometry": { "type": "Point", "coordinates": [ 59.625715613365173, 36.223248268634123 ] } },
{ "type": "Feature", "properties": { "camera_id": 3022, "type": "report_map_camera_speed", "highway": 11, "zoom_level": 14, "width": 25, "category": null, "uri": null, "source_layer": "poi", "source_file": "14_10905_6421.bin", "zoom": 14, "tile_x": 10905, "tile_y": 6421, "longitude": 59.625930190086365, "latitude": 36.223282889318803 }, "geometry": { "type": "Point", "coordinates": [ 59.625930190086365, 36.223282889318803 ] } },
{ "type": "Feature", "properties": { "camera_id": 3036, "type": "report_map_camera_speed", "highway": 17, "zoom_level": 14, "width": 25, "category": null, "uri": null, "source_layer": "poi", "source_file": "14_10905_6421.bin", "zoom": 14, "tile_x": 10905, "tile_y": 6421, "longitude": 59.628387093544006, "latitude": 36.214293979614283 }, "geometry": { "type": "Point", "coordinates": [ 59.628387093544006, 36.214293979614283 ] } },
{ "type": "Feature", "properties": { "camera_id": 3042, "type": "report_map_camera_speed", "highway": 17, "zoom_level": 14, "width": 25, "category": null, "uri": null, "source_layer": "poi", "source_file": "14_10905_6421.bin", "zoom": 14, "tile_x": 10905, "tile_y": 6421, "longitude": 59.628767967224121, "latitude": 36.214263683035071 }, "geometry": { "type": "Point", "coordinates": [ 59.628767967224121, 36.214263683035071 ] } },
{ "type": "Feature", "properties": { "camera_id": 3043, "type": "report_map_camera_speed", "highway": 15, "zoom_level": 14, "width": 25, "category": null, "uri": null, "source_layer": "poi", "source_file": "14_10905_6415.bin", "zoom": 14, "tile_x": 10905, "tile_y": 6415, "longitude": 59.629744291305542, "latitude": 36.324768043346886 }, "geometry": { "type": "Point", "coordinates": [ 59.629744291305542, 36.324768043346886 ] } },
{ "type": "Feature", "properties": { "camera_id": 3048, "type": "report_map_camera_speed", "highway": 11, "zoom_level": 14, "width": 25, "category": null, "uri": null, "source_layer": "poi", "source_file": "14_10905_6417.bin", "zoom": 14, "tile_x": 10905, "tile_y": 6417, "longitude": 59.629867672920227, "latitude": 36.289276650158001 }, "geometry": { "type": "Point", "coordinates": [ 59.629867672920227, 36.289276650158001 ] } },
{ "type": "Feature", "properties": { "camera_id": 3063, "type": "report_map_camera_speed", "highway": 0, "zoom_level": 14, "width": 25, "category": null, "uri": null, "source_layer": "poi", "source_file": "14_10905_6413.bin", "zoom": 14, "tile_x": 10905, "tile_y": 6413, "longitude": 59.63080108165741, "latitude": 36.353819182650895 }, "geometry": { "type": "Point", "coordinates": [ 59.63080108165741, 36.353819182650895 ] } },
{ "type": "Feature", "properties": { "camera_id": 3064, "type": "report_map_camera_speed", "highway": 0, "zoom_level": 14, "width": 25, "category": null, "uri": null, "source_layer": "poi", "source_file": "14_10905_6413.bin", "zoom": 14, "tile_x": 10905, "tile_y": 6413, "longitude": 59.630935192108161, "latitude": 36.353767338419267 }, "geometry": { "type": "Point", "coordinates": [ 59.630935192108161, 36.353767338419267 ] } },
{ "type": "Feature", "properties": { "camera_id": 3119, "type": "report_map_camera_speed", "highway": 15, "zoom_level": 14, "width": 25, "category": null, "uri": null, "source_layer": "poi", "source_file": "14_10906_6419.bin", "zoom": 14, "tile_x": 10906, "tile_y": 6419, "longitude": 59.639319777488708, "latitude": 36.259042197331588 }, "geometry": { "type": "Point", "coordinates": [ 59.639319777488708, 36.259042197331588 ] } },
{ "type": "Feature", "properties": { "camera_id": 3125, "type": "report_map_camera_speed", "highway": 0, "zoom_level": 14, "width": 25, "category": null, "uri": null, "source_layer": "poi", "source_file": "14_10906_6419.bin", "zoom": 14, "tile_x": 10906, "tile_y": 6419, "longitude": 59.639335870742798, "latitude": 36.258825916766 }, "geometry": { "type": "Point", "coordinates": [ 59.639335870742798, 36.258825916766 ] } },
{ "type": "Feature", "properties": { "camera_id": 3152, "type": "report_map_camera_speed", "highway": 15, "zoom_level": 14, "width": 25, "category": null, "uri": null, "source_layer": "poi", "source_file": "14_10906_6415.bin", "zoom": 14, "tile_x": 10906, "tile_y": 6415, "longitude": 59.644995331764221, "latitude": 36.31657749317732 }, "geometry": { "type": "Point", "coordinates": [ 59.644995331764221, 36.31657749317732 ] } },
{ "type": "Feature", "properties": { "camera_id": 3163, "type": "report_map_camera_speed", "highway": 15, "zoom_level": 14, "width": 25, "category": null, "uri": null, "source_layer": "poi", "source_file": "14_10906_6419.bin", "zoom": 14, "tile_x": 10906, "tile_y": 6419, "longitude": 59.646132588386536, "latitude": 36.260110614539791 }, "geometry": { "type": "Point", "coordinates": [ 59.646132588386536, 36.260110614539791 ] } },
{ "type": "Feature", "properties": { "camera_id": 3164, "type": "report_map_camera_speed", "highway": 15, "zoom_level": 14, "width": 25, "category": null, "uri": null, "source_layer": "poi", "source_file": "14_10906_6419.bin", "zoom": 14, "tile_x": 10906, "tile_y": 6419, "longitude": 59.646336436271667, "latitude": 36.259946243612781 }, "geometry": { "type": "Point", "coordinates": [ 59.646336436271667, 36.259946243612781 ] } },
{ "type": "Feature", "properties": { "camera_id": 3188, "type": "report_map_camera_speed", "highway": 15, "zoom_level": 14, "width": 25, "category": null, "uri": null, "source_layer": "poi", "source_file": "14_10906_6415.bin", "zoom": 14, "tile_x": 10906, "tile_y": 6415, "longitude": 59.646416902542114, "latitude": 36.315574685944782 }, "geometry": { "type": "Point", "coordinates": [ 59.646416902542114, 36.315574685944782 ] } },
{ "type": "Feature", "properties": { "camera_id": 3204, "type": "report_map_camera_speed", "highway": 0, "zoom_level": 14, "width": 25, "category": null, "uri": null, "source_layer": "poi", "source_file": "14_10906_6414.bin", "zoom": 14, "tile_x": 10906, "tile_y": 6414, "longitude": 59.649978876113892, "latitude": 36.335001779547966 }, "geometry": { "type": "Point", "coordinates": [ 59.649978876113892, 36.335001779547966 ] } },
{ "type": "Feature", "properties": { "camera_id": 3216, "type": "report_map_camera_speed", "highway": 0, "zoom_level": 14, "width": 25, "category": null, "uri": null, "source_layer": "poi", "source_file": "14_10906_6414.bin", "zoom": 14, "tile_x": 10906, "tile_y": 6414, "longitude": 59.650080800056458, "latitude": 36.335338847653148 }, "geometry": { "type": "Point", "coordinates": [ 59.650080800056458, 36.335338847653148 ] } },
{ "type": "Feature", "properties": { "camera_id": 3263, "type": "report_map_camera_speed", "highway": 0, "zoom_level": 14, "width": 25, "category": null, "uri": null, "source_layer": "poi", "source_file": "14_10907_6418.bin", "zoom": 14, "tile_x": 10907, "tile_y": 6418, "longitude": 59.656206965446472, "latitude": 36.276282157201308 }, "geometry": { "type": "Point", "coordinates": [ 59.656206965446472, 36.276282157201308 ] } },
{ "type": "Feature", "properties": { "camera_id": 3264, "type": "report_map_camera_speed", "highway": 15, "zoom_level": 14, "width": 25, "category": null, "uri": null, "source_layer": "poi", "source_file": "14_10907_6418.bin", "zoom": 14, "tile_x": 10907, "tile_y": 6418, "longitude": 59.65650200843811, "latitude": 36.27627350789988 }, "geometry": { "type": "Point", "coordinates": [ 59.65650200843811, 36.27627350789988 ] } },
{ "type": "Feature", "properties": { "camera_id": 3291, "type": "report_map_camera_speed", "highway": 15, "zoom_level": 14, "width": 25, "category": null, "uri": null, "source_layer": "poi", "source_file": "14_10907_6417.bin", "zoom": 14, "tile_x": 10907, "tile_y": 6417, "longitude": 59.659152030944817, "latitude": 36.288857227771402 }, "geometry": { "type": "Point", "coordinates": [ 59.659152030944817, 36.288857227771402 ] } },
{ "type": "Feature", "properties": { "camera_id": 3292, "type": "report_map_camera_speed", "highway": 15, "zoom_level": 14, "width": 25, "category": null, "uri": null, "source_layer": "poi", "source_file": "14_10907_6417.bin", "zoom": 14, "tile_x": 10907, "tile_y": 6417, "longitude": 59.659484624862671, "latitude": 36.289056129390438 }, "geometry": { "type": "Point", "coordinates": [ 59.659484624862671, 36.289056129390438 ] } },
{ "type": "Feature", "properties": { "camera_id": 3301, "type": "report_map_camera_speed", "highway": 15, "zoom_level": 14, "width": 25, "category": null, "uri": null, "source_layer": "poi", "source_file": "14_10907_6416.bin", "zoom": 14, "tile_x": 10907, "tile_y": 6416, "longitude": 59.661925435066223, "latitude": 36.306393213164718 }, "geometry": { "type": "Point", "coordinates": [ 59.661925435066223, 36.306393213164718 ] } },
{ "type": "Feature", "properties": { "camera_id": 3324, "type": "report_map_camera_speed", "highway": 15, "zoom_level": 14, "width": 25, "category": null, "uri": null, "source_layer": "poi", "source_file": "14_10907_6416.bin", "zoom": 14, "tile_x": 10907, "tile_y": 6416, "longitude": 59.662644267082207, "latitude": 36.306263523602382 }, "geometry": { "type": "Point", "coordinates": [ 59.662644267082207, 36.306263523602382 ] } },
{ "type": "Feature", "properties": { "camera_id": 3605, "type": "report_map_camera_speed", "highway": 11, "zoom_level": 14, "width": 25, "category": null, "uri": null, "source_layer": "poi", "source_file": "14_10907_6417.bin", "zoom": 14, "tile_x": 10907, "tile_y": 6417, "longitude": 59.672949314117432, "latitude": 36.28240129778105 }, "geometry": { "type": "Point", "coordinates": [ 59.672949314117432, 36.28240129778105 ] } },
{ "type": "Feature", "properties": { "camera_id": 3646, "type": "report_map_camera_speed", "highway": 11, "zoom_level": 14, "width": 25, "category": null, "uri": null, "source_layer": "poi", "source_file": "14_10908_6418.bin", "zoom": 14, "tile_x": 10908, "tile_y": 6418, "longitude": 59.684681296348572, "latitude": 36.274560927337085 }, "geometry": { "type": "Point", "coordinates": [ 59.684681296348572, 36.274560927337085 ] } },
{ "type": "Feature", "properties": { "camera_id": 3654, "type": "report_map_camera_speed", "highway": 13, "zoom_level": 14, "width": 25, "category": null, "uri": null, "source_layer": "poi", "source_file": "14_10908_6419.bin", "zoom": 14, "tile_x": 10908, "tile_y": 6419, "longitude": 59.690367579460144, "latitude": 36.256836107466313 }, "geometry": { "type": "Point", "coordinates": [ 59.690367579460144, 36.256836107466313 ] } },
{ "type": "Feature", "properties": { "camera_id": 3655, "type": "report_map_camera_speed", "highway": 0, "zoom_level": 14, "width": 25, "category": null, "uri": null, "source_layer": "poi", "source_file": "14_10908_6419.bin", "zoom": 14, "tile_x": 10908, "tile_y": 6419, "longitude": 59.690490961074829, "latitude": 36.25666307817545 }, "geometry": { "type": "Point", "coordinates": [ 59.690490961074829, 36.25666307817545 ] } },
{ "type": "Feature", "properties": { "camera_id": 3688, "type": "report_map_camera_speed", "highway": 13, "zoom_level": 14, "width": 25, "category": null, "uri": null, "source_layer": "poi", "source_file": "14_10906_6413.bin", "zoom": 14, "tile_x": 10906, "tile_y": 6413, "longitude": 59.637989401817322, "latitude": 36.367068571993357 }, "geometry": { "type": "Point", "coordinates": [ 59.637989401817322, 36.367068571993357 ] } },
{ "type": "Feature", "properties": { "camera_id": 4063, "type": "report_map_camera_speed", "highway": 11, "zoom_level": 14, "width": 25, "category": null, "uri": null, "source_layer": "poi", "source_file": "14_10907_6413.bin", "zoom": 14, "tile_x": 10907, "tile_y": 6413, "longitude": 59.661903977394097, "latitude": 36.35356860187818 }, "geometry": { "type": "Point", "coordinates": [ 59.661903977394097, 36.35356860187818 ] } },
{ "type": "Feature", "properties": { "camera_id": 5392, "type": "report_map_camera_speed", "highway": 13, "zoom_level": 14, "width": 25, "category": null, "uri": null, "source_layer": "poi", "source_file": "14_10897_6414.bin", "zoom": 14, "tile_x": 10897, "tile_y": 6414, "longitude": 59.437665939331055, "latitude": 36.340753344360181 }, "geometry": { "type": "Point", "coordinates": [ 59.437665939331055, 36.340753344360181 ] } },
{ "type": "Feature", "properties": { "camera_id": 5408, "type": "report_map_camera_speed", "highway": 13, "zoom_level": 14, "width": 25, "category": null, "uri": null, "source_layer": "poi", "source_file": "14_10897_6414.bin", "zoom": 14, "tile_x": 10897, "tile_y": 6414, "longitude": 59.4402676820755, "latitude": 36.34442185167277 }, "geometry": { "type": "Point", "coordinates": [ 59.4402676820755, 36.34442185167277 ] } },
{ "type": "Feature", "properties": { "camera_id": 5425, "type": "report_map_camera_speed", "highway": 15, "zoom_level": 14, "width": 25, "category": null, "uri": null, "source_layer": "poi", "source_file": "14_10897_6414.bin", "zoom": 14, "tile_x": 10897, "tile_y": 6414, "longitude": 59.448550343513489, "latitude": 36.34388174071443 }, "geometry": { "type": "Point", "coordinates": [ 59.448550343513489, 36.34388174071443 ] } },
{ "type": "Feature", "properties": { "camera_id": 5426, "type": "report_map_camera_speed", "highway": 15, "zoom_level": 14, "width": 25, "category": null, "uri": null, "source_layer": "poi", "source_file": "14_10897_6414.bin", "zoom": 14, "tile_x": 10897, "tile_y": 6414, "longitude": 59.448711276054382, "latitude": 36.344218770391898 }, "geometry": { "type": "Point", "coordinates": [ 59.448711276054382, 36.344218770391898 ] } },
{ "type": "Feature", "properties": { "camera_id": 5433, "type": "report_map_camera_speed", "highway": 15, "zoom_level": 14, "width": 25, "category": null, "uri": null, "source_layer": "poi", "source_file": "14_10898_6414.bin", "zoom": 14, "tile_x": 10898, "tile_y": 6414, "longitude": 59.46100115776062, "latitude": 36.340312593337892 }, "geometry": { "type": "Point", "coordinates": [ 59.46100115776062, 36.340312593337892 ] } },
{ "type": "Feature", "properties": { "camera_id": 5443, "type": "report_map_camera_speed", "highway": 15, "zoom_level": 14, "width": 25, "category": null, "uri": null, "source_layer": "poi", "source_file": "14_10898_6414.bin", "zoom": 14, "tile_x": 10898, "tile_y": 6414, "longitude": 59.46126401424408, "latitude": 36.339698994624186 }, "geometry": { "type": "Point", "coordinates": [ 59.46126401424408, 36.339698994624186 ] } },
{ "type": "Feature", "properties": { "camera_id": 5447, "type": "report_map_camera_speed", "highway": 15, "zoom_level": 14, "width": 25, "category": null, "uri": null, "source_layer": "poi", "source_file": "14_10898_6414.bin", "zoom": 14, "tile_x": 10898, "tile_y": 6414, "longitude": 59.462192058563232, "latitude": 36.333130592904453 }, "geometry": { "type": "Point", "coordinates": [ 59.462192058563232, 36.333130592904453 ] } },
{ "type": "Feature", "properties": { "camera_id": 5462, "type": "report_map_camera_speed", "highway": 13, "zoom_level": 14, "width": 25, "category": null, "uri": null, "source_layer": "poi", "source_file": "14_10898_6414.bin", "zoom": 14, "tile_x": 10898, "tile_y": 6414, "longitude": 59.464042782783508, "latitude": 36.332482365340532 }, "geometry": { "type": "Point", "coordinates": [ 59.464042782783508, 36.332482365340532 ] } },
{ "type": "Feature", "properties": { "camera_id": 5463, "type": "report_map_camera_speed", "highway": 13, "zoom_level": 14, "width": 25, "category": null, "uri": null, "source_layer": "poi", "source_file": "14_10898_6414.bin", "zoom": 14, "tile_x": 10898, "tile_y": 6414, "longitude": 59.464091062545776, "latitude": 36.332590403642413 }, "geometry": { "type": "Point", "coordinates": [ 59.464091062545776, 36.332590403642413 ] } },
{ "type": "Feature", "properties": { "camera_id": 5465, "type": "report_map_camera_speed", "highway": 15, "zoom_level": 14, "width": 25, "category": null, "uri": null, "source_layer": "poi", "source_file": "14_10898_6413.bin", "zoom": 14, "tile_x": 10898, "tile_y": 6413, "longitude": 59.465898871421807, "latitude": 36.351257172233169 }, "geometry": { "type": "Point", "coordinates": [ 59.465898871421807, 36.351257172233169 ] } },
{ "type": "Feature", "properties": { "camera_id": 5482, "type": "report_map_camera_speed", "highway": 15, "zoom_level": 14, "width": 25, "category": null, "uri": null, "source_layer": "poi", "source_file": "14_10898_6413.bin", "zoom": 14, "tile_x": 10898, "tile_y": 6413, "longitude": 59.466011524200439, "latitude": 36.351140518824472 }, "geometry": { "type": "Point", "coordinates": [ 59.466011524200439, 36.351140518824472 ] } },
{ "type": "Feature", "properties": { "camera_id": 5483, "type": "report_map_camera_speed", "highway": 15, "zoom_level": 14, "width": 25, "category": null, "uri": null, "source_layer": "poi", "source_file": "14_10898_6414.bin", "zoom": 14, "tile_x": 10898, "tile_y": 6414, "longitude": 59.468709826469421, "latitude": 36.337382831974587 }, "geometry": { "type": "Point", "coordinates": [ 59.468709826469421, 36.337382831974587 ] } },
{ "type": "Feature", "properties": { "camera_id": 5500, "type": "report_map_camera_speed", "highway": 11, "zoom_level": 14, "width": 25, "category": null, "uri": null, "source_layer": "poi", "source_file": "14_10898_6414.bin", "zoom": 14, "tile_x": 10898, "tile_y": 6414, "longitude": 59.471150636672974, "latitude": 36.335019065127291 }, "geometry": { "type": "Point", "coordinates": [ 59.471150636672974, 36.335019065127291 ] } },
{ "type": "Feature", "properties": { "camera_id": 5501, "type": "report_map_camera_speed", "highway": 15, "zoom_level": 14, "width": 25, "category": null, "uri": null, "source_layer": "poi", "source_file": "14_10898_6414.bin", "zoom": 14, "tile_x": 10898, "tile_y": 6414, "longitude": 59.471257925033569, "latitude": 36.337080342961698 }, "geometry": { "type": "Point", "coordinates": [ 59.471257925033569, 36.337080342961698 ] } },
{ "type": "Feature", "properties": { "camera_id": 5544, "type": "report_map_camera_speed", "highway": 0, "zoom_level": 14, "width": 25, "category": null, "uri": null, "source_layer": "poi", "source_file": "14_10898_6410.bin", "zoom": 14, "tile_x": 10898, "tile_y": 6410, "longitude": 59.475361704826362, "latitude": 36.407994799778749 }, "geometry": { "type": "Point", "coordinates": [ 59.475361704826362, 36.407994799778749 ] } },
{ "type": "Feature", "properties": { "camera_id": 5545, "type": "report_map_camera_speed", "highway": 11, "zoom_level": 14, "width": 25, "category": null, "uri": null, "source_layer": "poi", "source_file": "14_10898_6411.bin", "zoom": 14, "tile_x": 10898, "tile_y": 6411, "longitude": 59.475565552711487, "latitude": 36.39705388347533 }, "geometry": { "type": "Point", "coordinates": [ 59.475565552711487, 36.39705388347533 ] } },
{ "type": "Feature", "properties": { "camera_id": 5555, "type": "report_map_camera_speed", "highway": 11, "zoom_level": 14, "width": 25, "category": null, "uri": null, "source_layer": "poi", "source_file": "14_10898_6411.bin", "zoom": 14, "tile_x": 10898, "tile_y": 6411, "longitude": 59.475849866867065, "latitude": 36.397122970652283 }, "geometry": { "type": "Point", "coordinates": [ 59.475849866867065, 36.397122970652283 ] } },
{ "type": "Feature", "properties": { "camera_id": 5556, "type": "report_map_camera_speed", "highway": 0, "zoom_level": 14, "width": 25, "category": null, "uri": null, "source_layer": "poi", "source_file": "14_10898_6410.bin", "zoom": 14, "tile_x": 10898, "tile_y": 6410, "longitude": 59.475887417793281, "latitude": 36.407722806720962 }, "geometry": { "type": "Point", "coordinates": [ 59.475887417793281, 36.407722806720962 ] } },
{ "type": "Feature", "properties": { "camera_id": 5563, "type": "report_map_camera_speed", "highway": 11, "zoom_level": 14, "width": 25, "category": null, "uri": null, "source_layer": "poi", "source_file": "14_10898_6414.bin", "zoom": 14, "tile_x": 10898, "tile_y": 6414, "longitude": 59.477346539497375, "latitude": 36.33392142322824 }, "geometry": { "type": "Point", "coordinates": [ 59.477346539497375, 36.33392142322824 ] } },
{ "type": "Feature", "properties": { "camera_id": 5565, "type": "report_map_camera_speed", "highway": 15, "zoom_level": 14, "width": 25, "category": null, "uri": null, "source_layer": "poi", "source_file": "14_10898_6414.bin", "zoom": 14, "tile_x": 10898, "tile_y": 6414, "longitude": 59.479835629463203, "latitude": 36.33390845886143 }, "geometry": { "type": "Point", "coordinates": [ 59.479835629463203, 36.33390845886143 ] } },
{ "type": "Feature", "properties": { "camera_id": 5571, "type": "report_map_camera_speed", "highway": 15, "zoom_level": 14, "width": 25, "category": null, "uri": null, "source_layer": "poi", "source_file": "14_10898_6413.bin", "zoom": 14, "tile_x": 10898, "tile_y": 6413, "longitude": 59.480125308036797, "latitude": 36.359936559558278 }, "geometry": { "type": "Point", "coordinates": [ 59.480125308036797, 36.359936559558278 ] } },
{ "type": "Feature", "properties": { "camera_id": 5572, "type": "report_map_camera_speed", "highway": 13, "zoom_level": 14, "width": 25, "category": null, "uri": null, "source_layer": "poi", "source_file": "14_10899_6415.bin", "zoom": 14, "tile_x": 10899, "tile_y": 6415, "longitude": 59.481938481330872, "latitude": 36.324997107046805 }, "geometry": { "type": "Point", "coordinates": [ 59.481938481330872, 36.324997107046805 ] } },
{ "type": "Feature", "properties": { "camera_id": 5580, "type": "report_map_camera_speed", "highway": 13, "zoom_level": 14, "width": 25, "category": null, "uri": null, "source_layer": "poi", "source_file": "14_10899_6415.bin", "zoom": 14, "tile_x": 10899, "tile_y": 6415, "longitude": 59.483767747879028, "latitude": 36.323791273597806 }, "geometry": { "type": "Point", "coordinates": [ 59.483767747879028, 36.323791273597806 ] } },
{ "type": "Feature", "properties": { "camera_id": 5589, "type": "report_map_camera_speed", "highway": 11, "zoom_level": 14, "width": 25, "category": null, "uri": null, "source_layer": "poi", "source_file": "14_10899_6415.bin", "zoom": 14, "tile_x": 10899, "tile_y": 6415, "longitude": 59.484663605690002, "latitude": 36.330312924529466 }, "geometry": { "type": "Point", "coordinates": [ 59.484663605690002, 36.330312924529466 ] } },
{ "type": "Feature", "properties": { "camera_id": 5590, "type": "report_map_camera_speed", "highway": 15, "zoom_level": 14, "width": 25, "category": null, "uri": null, "source_layer": "poi", "source_file": "14_10899_6415.bin", "zoom": 14, "tile_x": 10899, "tile_y": 6415, "longitude": 59.485768675804138, "latitude": 36.332037245956528 }, "geometry": { "type": "Point", "coordinates": [ 59.485768675804138, 36.332037245956528 ] } },
{ "type": "Feature", "properties": { "camera_id": 5591, "type": "report_map_camera_speed", "highway": 15, "zoom_level": 14, "width": 25, "category": null, "uri": null, "source_layer": "poi", "source_file": "14_10899_6414.bin", "zoom": 14, "tile_x": 10899, "tile_y": 6414, "longitude": 59.485806226730347, "latitude": 36.332516937613441 }, "geometry": { "type": "Point", "coordinates": [ 59.485806226730347, 36.332516937613441 ] } },
{ "type": "Feature", "properties": { "camera_id": 5597, "type": "report_map_camera_speed", "highway": 11, "zoom_level": 14, "width": 25, "category": null, "uri": null, "source_layer": "poi", "source_file": "14_10899_6414.bin", "zoom": 14, "tile_x": 10899, "tile_y": 6414, "longitude": 59.486380219459534, "latitude": 36.334081316908197 }, "geometry": { "type": "Point", "coordinates": [ 59.486380219459534, 36.334081316908197 ] } },
{ "type": "Feature", "properties": { "camera_id": 5609, "type": "report_map_camera_speed", "highway": 13, "zoom_level": 14, "width": 25, "category": null, "uri": null, "source_layer": "poi", "source_file": "14_10899_6414.bin", "zoom": 14, "tile_x": 10899, "tile_y": 6414, "longitude": 59.487651586532593, "latitude": 36.337879775659886 }, "geometry": { "type": "Point", "coordinates": [ 59.487651586532593, 36.337879775659886 ] } },
{ "type": "Feature", "properties": { "camera_id": 5610, "type": "report_map_camera_speed", "highway": 11, "zoom_level": 14, "width": 25, "category": null, "uri": null, "source_layer": "poi", "source_file": "14_10899_6414.bin", "zoom": 14, "tile_x": 10899, "tile_y": 6414, "longitude": 59.487748146057129, "latitude": 36.336993917313677 }, "geometry": { "type": "Point", "coordinates": [ 59.487748146057129, 36.336993917313677 ] } },
{ "type": "Feature", "properties": { "camera_id": 5617, "type": "report_map_camera_speed", "highway": 13, "zoom_level": 14, "width": 25, "category": null, "uri": null, "source_layer": "poi", "source_file": "14_10899_6415.bin", "zoom": 14, "tile_x": 10899, "tile_y": 6415, "longitude": 59.48846697807312, "latitude": 36.321098610411958 }, "geometry": { "type": "Point", "coordinates": [ 59.48846697807312, 36.321098610411958 ] } },
{ "type": "Feature", "properties": { "camera_id": 5618, "type": "report_map_camera_speed", "highway": 13, "zoom_level": 14, "width": 25, "category": null, "uri": null, "source_layer": "poi", "source_file": "14_10899_6414.bin", "zoom": 14, "tile_x": 10899, "tile_y": 6414, "longitude": 59.488504528999329, "latitude": 36.337473578449391 }, "geometry": { "type": "Point", "coordinates": [ 59.488504528999329, 36.337473578449391 ] } },
{ "type": "Feature", "properties": { "camera_id": 5636, "type": "report_map_camera_speed", "highway": 8, "zoom_level": 14, "width": 25, "category": null, "uri": null, "source_layer": "poi", "source_file": "14_10899_6415.bin", "zoom": 14, "tile_x": 10899, "tile_y": 6415, "longitude": 59.488638639450073, "latitude": 36.320420027324403 }, "geometry": { "type": "Point", "coordinates": [ 59.488638639450073, 36.320420027324403 ] } },
{ "type": "Feature", "properties": { "camera_id": 5637, "type": "report_map_camera_speed", "highway": 15, "zoom_level": 14, "width": 25, "category": null, "uri": null, "source_layer": "poi", "source_file": "14_10899_6411.bin", "zoom": 14, "tile_x": 10899, "tile_y": 6411, "longitude": 59.488740563392639, "latitude": 36.398509019164685 }, "geometry": { "type": "Point", "coordinates": [ 59.488740563392639, 36.398509019164685 ] } },
{ "type": "Feature", "properties": { "camera_id": 5662, "type": "report_map_camera_speed", "highway": 15, "zoom_level": 14, "width": 25, "category": null, "uri": null, "source_layer": "poi", "source_file": "14_10899_6411.bin", "zoom": 14, "tile_x": 10899, "tile_y": 6411, "longitude": 59.488815665245056, "latitude": 36.398638555145801 }, "geometry": { "type": "Point", "coordinates": [ 59.488815665245056, 36.398638555145801 ] } },
{ "type": "Feature", "properties": { "camera_id": 5663, "type": "report_map_camera_speed", "highway": 13, "zoom_level": 14, "width": 25, "category": null, "uri": null, "source_layer": "poi", "source_file": "14_10899_6415.bin", "zoom": 14, "tile_x": 10899, "tile_y": 6415, "longitude": 59.489539861679077, "latitude": 36.320316294357298 }, "geometry": { "type": "Point", "coordinates": [ 59.489539861679077, 36.320316294357298 ] } },
{ "type": "Feature", "properties": { "camera_id": 5666, "type": "report_map_camera_speed", "highway": 8, "zoom_level": 14, "width": 25, "category": null, "uri": null, "source_layer": "poi", "source_file": "14_10899_6414.bin", "zoom": 14, "tile_x": 10899, "tile_y": 6414, "longitude": 59.489647150039673, "latitude": 36.341194092888209 }, "geometry": { "type": "Point", "coordinates": [ 59.489647150039673, 36.341194092888209 ] } },
{ "type": "Feature", "properties": { "camera_id": 5675, "type": "report_map_camera_speed", "highway": 11, "zoom_level": 14, "width": 25, "category": null, "uri": null, "source_layer": "poi", "source_file": "14_10899_6415.bin", "zoom": 14, "tile_x": 10899, "tile_y": 6415, "longitude": 59.489684700965881, "latitude": 36.321362262119777 }, "geometry": { "type": "Point", "coordinates": [ 59.489684700965881, 36.321362262119777 ] } },
{ "type": "Feature", "properties": { "camera_id": 5676, "type": "report_map_camera_speed", "highway": 15, "zoom_level": 14, "width": 25, "category": null, "uri": null, "source_layer": "poi", "source_file": "14_10899_6414.bin", "zoom": 14, "tile_x": 10899, "tile_y": 6414, "longitude": 59.491728544235229, "latitude": 36.346621144810328 }, "geometry": { "type": "Point", "coordinates": [ 59.491728544235229, 36.346621144810328 ] } },
{ "type": "Feature", "properties": { "camera_id": 5703, "type": "report_map_camera_speed", "highway": 11, "zoom_level": 14, "width": 25, "category": null, "uri": null, "source_layer": "poi", "source_file": "14_10899_6414.bin", "zoom": 14, "tile_x": 10899, "tile_y": 6414, "longitude": 59.491927027702332, "latitude": 36.341807679822921 }, "geometry": { "type": "Point", "coordinates": [ 59.491927027702332, 36.341807679822921 ] } },
{ "type": "Feature", "properties": { "camera_id": 5704, "type": "report_map_camera_speed", "highway": 15, "zoom_level": 14, "width": 25, "category": null, "uri": null, "source_layer": "poi", "source_file": "14_10899_6414.bin", "zoom": 14, "tile_x": 10899, "tile_y": 6414, "longitude": 59.492045044898987, "latitude": 36.346357578574761 }, "geometry": { "type": "Point", "coordinates": [ 59.492045044898987, 36.346357578574761 ] } },
{ "type": "Feature", "properties": { "camera_id": 5705, "type": "report_map_camera_speed", "highway": 13, "zoom_level": 14, "width": 25, "category": null, "uri": null, "source_layer": "poi", "source_file": "14_10899_6415.bin", "zoom": 14, "tile_x": 10899, "tile_y": 6415, "longitude": 59.492152333259583, "latitude": 36.318920208076108 }, "geometry": { "type": "Point", "coordinates": [ 59.492152333259583, 36.318920208076108 ] } },
{ "type": "Feature", "properties": { "camera_id": 5737, "type": "report_map_camera_speed", "highway": 11, "zoom_level": 14, "width": 25, "category": null, "uri": null, "source_layer": "poi", "source_file": "14_10899_6415.bin", "zoom": 14, "tile_x": 10899, "tile_y": 6415, "longitude": 59.492361545562737, "latitude": 36.324863126473879 }, "geometry": { "type": "Point", "coordinates": [ 59.492361545562737, 36.324863126473879 ] } },
{ "type": "Feature", "properties": { "camera_id": 5738, "type": "report_map_camera_speed", "highway": 11, "zoom_level": 14, "width": 25, "category": null, "uri": null, "source_layer": "poi", "source_file": "14_10899_6415.bin", "zoom": 14, "tile_x": 10899, "tile_y": 6415, "longitude": 59.492388367652893, "latitude": 36.32569293793042 }, "geometry": { "type": "Point", "coordinates": [ 59.492388367652893, 36.32569293793042 ] } },
{ "type": "Feature", "properties": { "camera_id": 5745, "type": "report_map_camera_speed", "highway": 11, "zoom_level": 14, "width": 25, "category": null, "uri": null, "source_layer": "poi", "source_file": "14_10899_6415.bin", "zoom": 14, "tile_x": 10899, "tile_y": 6415, "longitude": 59.49320375919342, "latitude": 36.32621588748632 }, "geometry": { "type": "Point", "coordinates": [ 59.49320375919342, 36.32621588748632 ] } },
{ "type": "Feature", "properties": { "camera_id": 5757, "type": "report_map_camera_speed", "highway": 11, "zoom_level": 14, "width": 25, "category": null, "uri": null, "source_layer": "poi", "source_file": "14_10899_6415.bin", "zoom": 14, "tile_x": 10899, "tile_y": 6415, "longitude": 59.493874311447136, "latitude": 36.318751638690777 }, "geometry": { "type": "Point", "coordinates": [ 59.493874311447136, 36.318751638690777 ] } },
{ "type": "Feature", "properties": { "camera_id": 5758, "type": "report_map_camera_speed", "highway": 13, "zoom_level": 14, "width": 25, "category": null, "uri": null, "source_layer": "poi", "source_file": "14_10899_6415.bin", "zoom": 14, "tile_x": 10899, "tile_y": 6415, "longitude": 59.49396014213562, "latitude": 36.317653767621273 }, "geometry": { "type": "Point", "coordinates": [ 59.49396014213562, 36.317653767621273 ] } },
{ "type": "Feature", "properties": { "camera_id": 5760, "type": "report_map_camera_speed", "highway": 13, "zoom_level": 14, "width": 25, "category": null, "uri": null, "source_layer": "poi", "source_file": "14_10899_6417.bin", "zoom": 14, "tile_x": 10899, "tile_y": 6417, "longitude": 59.496095180511482, "latitude": 36.295468272969551 }, "geometry": { "type": "Point", "coordinates": [ 59.496095180511482, 36.295468272969551 ] } },
{ "type": "Feature", "properties": { "camera_id": 5761, "type": "report_map_camera_speed", "highway": 11, "zoom_level": 14, "width": 25, "category": null, "uri": null, "source_layer": "poi", "source_file": "14_10899_6415.bin", "zoom": 14, "tile_x": 10899, "tile_y": 6415, "longitude": 59.49670135974884, "latitude": 36.323238053442068 }, "geometry": { "type": "Point", "coordinates": [ 59.49670135974884, 36.323238053442068 ] } },
{ "type": "Feature", "properties": { "camera_id": 5782, "type": "report_map_camera_speed", "highway": 11, "zoom_level": 14, "width": 25, "category": null, "uri": null, "source_layer": "poi", "source_file": "14_10899_6415.bin", "zoom": 14, "tile_x": 10899, "tile_y": 6415, "longitude": 59.496862292289727, "latitude": 36.322304485524093 }, "geometry": { "type": "Point", "coordinates": [ 59.496862292289727, 36.322304485524093 ] } },
{ "type": "Feature", "properties": { "camera_id": 5783, "type": "report_map_camera_speed", "highway": 0, "zoom_level": 14, "width": 25, "category": null, "uri": null, "source_layer": "poi", "source_file": "14_10899_6415.bin", "zoom": 14, "tile_x": 10899, "tile_y": 6415, "longitude": 59.496878385543823, "latitude": 36.328592886690579 }, "geometry": { "type": "Point", "coordinates": [ 59.496878385543823, 36.328592886690579 ] } },
{ "type": "Feature", "properties": { "camera_id": 5794, "type": "report_map_camera_speed", "highway": 0, "zoom_level": 14, "width": 25, "category": null, "uri": null, "source_layer": "poi", "source_file": "14_10899_6415.bin", "zoom": 14, "tile_x": 10899, "tile_y": 6415, "longitude": 59.497575759887695, "latitude": 36.328869478251839 }, "geometry": { "type": "Point", "coordinates": [ 59.497575759887695, 36.328869478251839 ] } },
{ "type": "Feature", "properties": { "camera_id": 5795, "type": "report_map_camera_speed", "highway": 13, "zoom_level": 14, "width": 25, "category": null, "uri": null, "source_layer": "poi", "source_file": "14_10899_6414.bin", "zoom": 14, "tile_x": 10899, "tile_y": 6414, "longitude": 59.497591853141785, "latitude": 36.337970521555732 }, "geometry": { "type": "Point", "coordinates": [ 59.497591853141785, 36.337970521555732 ] } },
{ "type": "Feature", "properties": { "camera_id": 5801, "type": "report_map_camera_speed", "highway": 11, "zoom_level": 14, "width": 25, "category": null, "uri": null, "source_layer": "poi", "source_file": "14_10899_6415.bin", "zoom": 14, "tile_x": 10899, "tile_y": 6415, "longitude": 59.498015642166138, "latitude": 36.322317451821753 }, "geometry": { "type": "Point", "coordinates": [ 59.498015642166138, 36.322317451821753 ] } },
{ "type": "Feature", "properties": { "camera_id": 5802, "type": "report_map_camera_speed", "highway": 11, "zoom_level": 14, "width": 25, "category": null, "uri": null, "source_layer": "poi", "source_file": "14_10899_6414.bin", "zoom": 14, "tile_x": 10899, "tile_y": 6414, "longitude": 59.498160481452942, "latitude": 36.341513850063016 }, "geometry": { "type": "Point", "coordinates": [ 59.498160481452942, 36.341513850063016 ] } },
{ "type": "Feature", "properties": { "camera_id": 5807, "type": "report_map_camera_speed", "highway": 11, "zoom_level": 14, "width": 25, "category": null, "uri": null, "source_layer": "poi", "source_file": "14_10899_6414.bin", "zoom": 14, "tile_x": 10899, "tile_y": 6414, "longitude": 59.498353600502014, "latitude": 36.341691012256838 }, "geometry": { "type": "Point", "coordinates": [ 59.498353600502014, 36.341691012256838 ] } },
{ "type": "Feature", "properties": { "camera_id": 5814, "type": "report_map_camera_speed", "highway": 15, "zoom_level": 14, "width": 25, "category": null, "uri": null, "source_layer": "poi", "source_file": "14_10899_6412.bin", "zoom": 14, "tile_x": 10899, "tile_y": 6412, "longitude": 59.498857855796814, "latitude": 36.370303896923694 }, "geometry": { "type": "Point", "coordinates": [ 59.498857855796814, 36.370303896923694 ] } },
{ "type": "Feature", "properties": { "camera_id": 5815, "type": "report_map_camera_speed", "highway": 13, "zoom_level": 14, "width": 25, "category": null, "uri": null, "source_layer": "poi", "source_file": "14_10899_6416.bin", "zoom": 14, "tile_x": 10899, "tile_y": 6416, "longitude": 59.499635696411133, "latitude": 36.314364384173842 }, "geometry": { "type": "Point", "coordinates": [ 59.499635696411133, 36.314364384173842 ] } },
{ "type": "Feature", "properties": { "camera_id": 5817, "type": "report_map_camera_speed", "highway": 11, "zoom_level": 14, "width": 25, "category": null, "uri": null, "source_layer": "poi", "source_file": "14_10899_6416.bin", "zoom": 14, "tile_x": 10899, "tile_y": 6416, "longitude": 59.499775171279907, "latitude": 36.313724645646843 }, "geometry": { "type": "Point", "coordinates": [ 59.499775171279907, 36.313724645646843 ] } },
{ "type": "Feature", "properties": { "camera_id": 5818, "type": "report_map_camera_speed", "highway": 13, "zoom_level": 14, "width": 25, "category": null, "uri": null, "source_layer": "poi", "source_file": "14_10899_6414.bin", "zoom": 14, "tile_x": 10899, "tile_y": 6414, "longitude": 59.499801993370056, "latitude": 36.337175411063761 }, "geometry": { "type": "Point", "coordinates": [ 59.499801993370056, 36.337175411063761 ] } },
{ "type": "Feature", "properties": { "camera_id": 5830, "type": "report_map_camera_speed", "highway": 10, "zoom_level": 14, "width": 25, "category": null, "uri": null, "source_layer": "poi", "source_file": "14_10899_6415.bin", "zoom": 14, "tile_x": 10899, "tile_y": 6415, "longitude": 59.499818086624153, "latitude": 36.325442266651066 }, "geometry": { "type": "Point", "coordinates": [ 59.499818086624153, 36.325442266651066 ] } },
{ "type": "Feature", "properties": { "camera_id": 5831, "type": "report_map_camera_speed", "highway": 10, "zoom_level": 14, "width": 25, "category": null, "uri": null, "source_layer": "poi", "source_file": "14_10899_6415.bin", "zoom": 14, "tile_x": 10899, "tile_y": 6415, "longitude": 59.499914646148682, "latitude": 36.325377437740691 }, "geometry": { "type": "Point", "coordinates": [ 59.499914646148682, 36.325377437740691 ] } },
{ "type": "Feature", "properties": { "camera_id": 5837, "type": "report_map_camera_speed", "highway": 8, "zoom_level": 14, "width": 25, "category": null, "uri": null, "source_layer": "poi", "source_file": "14_10899_6414.bin", "zoom": 14, "tile_x": 10899, "tile_y": 6414, "longitude": 59.500080943107605, "latitude": 36.340826802621393 }, "geometry": { "type": "Point", "coordinates": [ 59.500080943107605, 36.340826802621393 ] } },
{ "type": "Feature", "properties": { "camera_id": 5838, "type": "report_map_camera_speed", "highway": 11, "zoom_level": 14, "width": 25, "category": null, "uri": null, "source_layer": "poi", "source_file": "14_10899_6416.bin", "zoom": 14, "tile_x": 10899, "tile_y": 6416, "longitude": 59.500402808189392, "latitude": 36.314256320601963 }, "geometry": { "type": "Point", "coordinates": [ 59.500402808189392, 36.314256320601963 ] } },
{ "type": "Feature", "properties": { "camera_id": 5861, "type": "report_map_camera_speed", "highway": 13, "zoom_level": 14, "width": 25, "category": null, "uri": null, "source_layer": "poi", "source_file": "14_10899_6416.bin", "zoom": 14, "tile_x": 10899, "tile_y": 6416, "longitude": 59.500499367713928, "latitude": 36.313612258606717 }, "geometry": { "type": "Point", "coordinates": [ 59.500499367713928, 36.313612258606717 ] } },
{ "type": "Feature", "properties": { "camera_id": 5862, "type": "report_map_camera_speed", "highway": 13, "zoom_level": 14, "width": 25, "category": null, "uri": null, "source_layer": "poi", "source_file": "14_10899_6417.bin", "zoom": 14, "tile_x": 10899, "tile_y": 6417, "longitude": 59.501132369041443, "latitude": 36.293388599720117 }, "geometry": { "type": "Point", "coordinates": [ 59.501132369041443, 36.293388599720117 ] } },
{ "type": "Feature", "properties": { "camera_id": 5872, "type": "report_map_camera_speed", "highway": 15, "zoom_level": 14, "width": 25, "category": null, "uri": null, "source_layer": "poi", "source_file": "14_10899_6415.bin", "zoom": 14, "tile_x": 10899, "tile_y": 6415, "longitude": 59.501749277114868, "latitude": 36.327547015974098 }, "geometry": { "type": "Point", "coordinates": [ 59.501749277114868, 36.327547015974098 ] } },
{ "type": "Feature", "properties": { "camera_id": 5882, "type": "report_map_camera_speed", "highway": 13, "zoom_level": 14, "width": 25, "category": null, "uri": null, "source_layer": "poi", "source_file": "14_10900_6416.bin", "zoom": 14, "tile_x": 10900, "tile_y": 6416, "longitude": 59.503819942474365, "latitude": 36.311316933998057 }, "geometry": { "type": "Point", "coordinates": [ 59.503819942474365, 36.311316933998057 ] } },
{ "type": "Feature", "properties": { "camera_id": 5889, "type": "report_map_camera_speed", "highway": 11, "zoom_level": 14, "width": 25, "category": null, "uri": null, "source_layer": "poi", "source_file": "14_10900_6416.bin", "zoom": 14, "tile_x": 10900, "tile_y": 6416, "longitude": 59.503900408744812, "latitude": 36.310296768036345 }, "geometry": { "type": "Point", "coordinates": [ 59.503900408744812, 36.310296768036345 ] } },
{ "type": "Feature", "properties": { "camera_id": 5890, "type": "report_map_camera_speed", "highway": 11, "zoom_level": 14, "width": 25, "category": null, "uri": null, "source_layer": "poi", "source_file": "14_10900_6415.bin", "zoom": 14, "tile_x": 10900, "tile_y": 6415, "longitude": 59.50395405292511, "latitude": 36.318933174936809 }, "geometry": { "type": "Point", "coordinates": [ 59.50395405292511, 36.318933174936809 ] } },
{ "type": "Feature", "properties": { "camera_id": 5898, "type": "report_map_camera_speed", "highway": 11, "zoom_level": 14, "width": 25, "category": null, "uri": null, "source_layer": "poi", "source_file": "14_10900_6415.bin", "zoom": 14, "tile_x": 10900, "tile_y": 6415, "longitude": 59.504581689834602, "latitude": 36.318440432713921 }, "geometry": { "type": "Point", "coordinates": [ 59.504581689834602, 36.318440432713921 ] } },
{ "type": "Feature", "properties": { "camera_id": 5899, "type": "report_map_camera_speed", "highway": 11, "zoom_level": 14, "width": 25, "category": null, "uri": null, "source_layer": "poi", "source_file": "14_10900_6415.bin", "zoom": 14, "tile_x": 10900, "tile_y": 6415, "longitude": 59.504790902137763, "latitude": 36.319188189425432 }, "geometry": { "type": "Point", "coordinates": [ 59.504790902137763, 36.319188189425432 ] } },
{ "type": "Feature", "properties": { "camera_id": 5911, "type": "report_map_camera_speed", "highway": 13, "zoom_level": 14, "width": 25, "category": null, "uri": null, "source_layer": "poi", "source_file": "14_10900_6416.bin", "zoom": 14, "tile_x": 10900, "tile_y": 6416, "longitude": 59.504828453063965, "latitude": 36.310469678460855 }, "geometry": { "type": "Point", "coordinates": [ 59.504828453063965, 36.310469678460855 ] } },
{ "type": "Feature", "properties": { "camera_id": 5912, "type": "report_map_camera_speed", "highway": 11, "zoom_level": 14, "width": 25, "category": null, "uri": null, "source_layer": "poi", "source_file": "14_10900_6416.bin", "zoom": 14, "tile_x": 10900, "tile_y": 6416, "longitude": 59.504876732826233, "latitude": 36.311139702733946 }, "geometry": { "type": "Point", "coordinates": [ 59.504876732826233, 36.311139702733946 ] } },
{ "type": "Feature", "properties": { "camera_id": 5933, "type": "report_map_camera_speed", "highway": 11, "zoom_level": 14, "width": 25, "category": null, "uri": null, "source_layer": "poi", "source_file": "14_10900_6414.bin", "zoom": 14, "tile_x": 10900, "tile_y": 6414, "longitude": 59.506684541702271, "latitude": 36.3412891559692 }, "geometry": { "type": "Point", "coordinates": [ 59.506684541702271, 36.3412891559692 ] } },
{ "type": "Feature", "properties": { "camera_id": 5941, "type": "report_map_camera_speed", "highway": 11, "zoom_level": 14, "width": 25, "category": null, "uri": null, "source_layer": "poi", "source_file": "14_10900_6414.bin", "zoom": 14, "tile_x": 10900, "tile_y": 6414, "longitude": 59.507505297660828, "latitude": 36.340450868436925 }, "geometry": { "type": "Point", "coordinates": [ 59.507505297660828, 36.340450868436925 ] } },
{ "type": "Feature", "properties": { "camera_id": 5942, "type": "report_map_camera_speed", "highway": 13, "zoom_level": 14, "width": 25, "category": null, "uri": null, "source_layer": "poi", "source_file": "14_10900_6416.bin", "zoom": 14, "tile_x": 10900, "tile_y": 6416, "longitude": 59.507821798324585, "latitude": 36.307785200885483 }, "geometry": { "type": "Point", "coordinates": [ 59.507821798324585, 36.307785200885483 ] } },
{ "type": "Feature", "properties": { "camera_id": 5951, "type": "report_map_camera_speed", "highway": 11, "zoom_level": 14, "width": 25, "category": null, "uri": null, "source_layer": "poi", "source_file": "14_10900_6414.bin", "zoom": 14, "tile_x": 10900, "tile_y": 6414, "longitude": 59.507843255996704, "latitude": 36.341742864530005 }, "geometry": { "type": "Point", "coordinates": [ 59.507843255996704, 36.341742864530005 ] } },
{ "type": "Feature", "properties": { "camera_id": 5952, "type": "report_map_camera_speed", "highway": 11, "zoom_level": 14, "width": 25, "category": null, "uri": null, "source_layer": "poi", "source_file": "14_10900_6415.bin", "zoom": 14, "tile_x": 10900, "tile_y": 6415, "longitude": 59.508395791053772, "latitude": 36.316322470147412 }, "geometry": { "type": "Point", "coordinates": [ 59.508395791053772, 36.316322470147412 ] } },
{ "type": "Feature", "properties": { "camera_id": 5963, "type": "report_map_camera_speed", "highway": 11, "zoom_level": 14, "width": 25, "category": null, "uri": null, "source_layer": "poi", "source_file": "14_10900_6415.bin", "zoom": 14, "tile_x": 10900, "tile_y": 6415, "longitude": 59.508417248725891, "latitude": 36.315280757242263 }, "geometry": { "type": "Point", "coordinates": [ 59.508417248725891, 36.315280757242263 ] } },
{ "type": "Feature", "properties": { "camera_id": 5964, "type": "report_map_camera_speed", "highway": 11, "zoom_level": 14, "width": 25, "category": null, "uri": null, "source_layer": "poi", "source_file": "14_10900_6414.bin", "zoom": 14, "tile_x": 10900, "tile_y": 6414, "longitude": 59.508782029151917, "latitude": 36.34102989274772 }, "geometry": { "type": "Point", "coordinates": [ 59.508782029151917, 36.34102989274772 ] } },
{ "type": "Feature", "properties": { "camera_id": 5971, "type": "report_map_camera_speed", "highway": 13, "zoom_level": 14, "width": 25, "category": null, "uri": null, "source_layer": "poi", "source_file": "14_10900_6416.bin", "zoom": 14, "tile_x": 10900, "tile_y": 6416, "longitude": 59.508883953094482, "latitude": 36.306682852408514 }, "geometry": { "type": "Point", "coordinates": [ 59.508883953094482, 36.306682852408514 ] } },
{ "type": "Feature", "properties": { "camera_id": 5976, "type": "report_map_camera_speed", "highway": 11, "zoom_level": 14, "width": 25, "category": null, "uri": null, "source_layer": "poi", "source_file": "14_10900_6415.bin", "zoom": 14, "tile_x": 10900, "tile_y": 6415, "longitude": 59.509538412094123, "latitude": 36.315483913963753 }, "geometry": { "type": "Point", "coordinates": [ 59.509538412094123, 36.315483913963753 ] } },
{ "type": "Feature", "properties": { "camera_id": 6001, "type": "report_map_camera_speed", "highway": 11, "zoom_level": 14, "width": 25, "category": null, "uri": null, "source_layer": "poi", "source_file": "14_10900_6415.bin", "zoom": 14, "tile_x": 10900, "tile_y": 6415, "longitude": 59.509634971618652, "latitude": 36.316413241151992 }, "geometry": { "type": "Point", "coordinates": [ 59.509634971618652, 36.316413241151992 ] } },
{ "type": "Feature", "properties": { "camera_id": 6013, "type": "report_map_camera_speed", "highway": 13, "zoom_level": 14, "width": 25, "category": null, "uri": null, "source_layer": "poi", "source_file": "14_10900_6416.bin", "zoom": 14, "tile_x": 10900, "tile_y": 6416, "longitude": 59.511576890945442, "latitude": 36.305381628858541 }, "geometry": { "type": "Point", "coordinates": [ 59.511576890945442, 36.305381628858541 ] } },
{ "type": "Feature", "properties": { "camera_id": 6014, "type": "report_map_camera_speed", "highway": 11, "zoom_level": 14, "width": 25, "category": null, "uri": null, "source_layer": "poi", "source_file": "14_10900_6416.bin", "zoom": 14, "tile_x": 10900, "tile_y": 6416, "longitude": 59.512075781822205, "latitude": 36.303855581550629 }, "geometry": { "type": "Point", "coordinates": [ 59.512075781822205, 36.303855581550629 ] } },
{ "type": "Feature", "properties": { "camera_id": 6033, "type": "report_map_camera_speed", "highway": 15, "zoom_level": 14, "width": 25, "category": null, "uri": null, "source_layer": "poi", "source_file": "14_10900_6412.bin", "zoom": 14, "tile_x": 10900, "tile_y": 6412, "longitude": 59.512885808944702, "latitude": 36.379166874945042 }, "geometry": { "type": "Point", "coordinates": [ 59.512885808944702, 36.379166874945042 ] } },
{ "type": "Feature", "properties": { "camera_id": 6034, "type": "report_map_camera_speed", "highway": 11, "zoom_level": 14, "width": 25, "category": null, "uri": null, "source_layer": "poi", "source_file": "14_10900_6416.bin", "zoom": 14, "tile_x": 10900, "tile_y": 6416, "longitude": 59.512955546379089, "latitude": 36.305027138945491 }, "geometry": { "type": "Point", "coordinates": [ 59.512955546379089, 36.305027138945491 ] } },
{ "type": "Feature", "properties": { "camera_id": 6066, "type": "report_map_camera_speed", "highway": 13, "zoom_level": 14, "width": 25, "category": null, "uri": null, "source_layer": "poi", "source_file": "14_10900_6416.bin", "zoom": 14, "tile_x": 10900, "tile_y": 6416, "longitude": 59.513272047042847, "latitude": 36.304365708336029 }, "geometry": { "type": "Point", "coordinates": [ 59.513272047042847, 36.304365708336029 ] } },
{ "type": "Feature", "properties": { "camera_id": 6067, "type": "report_map_camera_speed", "highway": 11, "zoom_level": 14, "width": 25, "category": null, "uri": null, "source_layer": "poi", "source_file": "14_10900_6414.bin", "zoom": 14, "tile_x": 10900, "tile_y": 6414, "longitude": 59.513744115829468, "latitude": 36.340342841036787 }, "geometry": { "type": "Point", "coordinates": [ 59.513744115829468, 36.340342841036787 ] } },
{ "type": "Feature", "properties": { "camera_id": 6073, "type": "report_map_camera_speed", "highway": 11, "zoom_level": 14, "width": 25, "category": null, "uri": null, "source_layer": "poi", "source_file": "14_10900_6415.bin", "zoom": 14, "tile_x": 10900, "tile_y": 6415, "longitude": 59.514087438583374, "latitude": 36.321418450073381 }, "geometry": { "type": "Point", "coordinates": [ 59.514087438583374, 36.321418450073381 ] } },
{ "type": "Feature", "properties": { "camera_id": 6074, "type": "report_map_camera_speed", "highway": 10, "zoom_level": 14, "width": 25, "category": null, "uri": null, "source_layer": "poi", "source_file": "14_10900_6415.bin", "zoom": 14, "tile_x": 10900, "tile_y": 6415, "longitude": 59.514173269271851, "latitude": 36.321353617815632 }, "geometry": { "type": "Point", "coordinates": [ 59.514173269271851, 36.321353617815632 ] } },
{ "type": "Feature", "properties": { "camera_id": 6075, "type": "report_map_camera_speed", "highway": 8, "zoom_level": 14, "width": 25, "category": null, "uri": null, "source_layer": "poi", "source_file": "14_10900_6416.bin", "zoom": 14, "tile_x": 10900, "tile_y": 6416, "longitude": 59.514221549034119, "latitude": 36.31234140926356 }, "geometry": { "type": "Point", "coordinates": [ 59.514221549034119, 36.31234140926356 ] } },
{ "type": "Feature", "properties": { "camera_id": 6085, "type": "report_map_camera_speed", "highway": 15, "zoom_level": 14, "width": 25, "category": null, "uri": null, "source_layer": "poi", "source_file": "14_10900_6414.bin", "zoom": 14, "tile_x": 10900, "tile_y": 6414, "longitude": 59.514511227607727, "latitude": 36.345108867398672 }, "geometry": { "type": "Point", "coordinates": [ 59.514511227607727, 36.345108867398672 ] } },
{ "type": "Feature", "properties": { "camera_id": 6086, "type": "report_map_camera_speed", "highway": 11, "zoom_level": 14, "width": 25, "category": null, "uri": null, "source_layer": "poi", "source_file": "14_10900_6416.bin", "zoom": 14, "tile_x": 10900, "tile_y": 6416, "longitude": 59.514672160148621, "latitude": 36.313244838306431 }, "geometry": { "type": "Point", "coordinates": [ 59.514672160148621, 36.313244838306431 ] } },
{ "type": "Feature", "properties": { "camera_id": 6094, "type": "report_map_camera_speed", "highway": 11, "zoom_level": 14, "width": 25, "category": null, "uri": null, "source_layer": "poi", "source_file": "14_10900_6416.bin", "zoom": 14, "tile_x": 10900, "tile_y": 6416, "longitude": 59.515385627746582, "latitude": 36.312445152843608 }, "geometry": { "type": "Point", "coordinates": [ 59.515385627746582, 36.312445152843608 ] } },
{ "type": "Feature", "properties": { "camera_id": 6095, "type": "report_map_camera_speed", "highway": 11, "zoom_level": 14, "width": 25, "category": null, "uri": null, "source_layer": "poi", "source_file": "14_10900_6416.bin", "zoom": 14, "tile_x": 10900, "tile_y": 6416, "longitude": 59.515723586082458, "latitude": 36.313192967065731 }, "geometry": { "type": "Point", "coordinates": [ 59.515723586082458, 36.313192967065731 ] } },
{ "type": "Feature", "properties": { "camera_id": 6096, "type": "report_map_camera_speed", "highway": 15, "zoom_level": 14, "width": 25, "category": null, "uri": null, "source_layer": "poi", "source_file": "14_10900_6415.bin", "zoom": 14, "tile_x": 10900, "tile_y": 6415, "longitude": 59.515857696533203, "latitude": 36.323142968332299 }, "geometry": { "type": "Point", "coordinates": [ 59.515857696533203, 36.323142968332299 ] } },
{ "type": "Feature", "properties": { "camera_id": 6142, "type": "report_map_camera_speed", "highway": 11, "zoom_level": 14, "width": 25, "category": null, "uri": null, "source_layer": "poi", "source_file": "14_10900_6414.bin", "zoom": 14, "tile_x": 10900, "tile_y": 6414, "longitude": 59.522091150283813, "latitude": 36.339910729937841 }, "geometry": { "type": "Point", "coordinates": [ 59.522091150283813, 36.339910729937841 ] } },
{ "type": "Feature", "properties": { "camera_id": 6143, "type": "report_map_camera_speed", "highway": 11, "zoom_level": 14, "width": 25, "category": null, "uri": null, "source_layer": "poi", "source_file": "14_10900_6414.bin", "zoom": 14, "tile_x": 10900, "tile_y": 6414, "longitude": 59.52217698097229, "latitude": 36.338718090865193 }, "geometry": { "type": "Point", "coordinates": [ 59.52217698097229, 36.338718090865193 ] } },
{ "type": "Feature", "properties": { "camera_id": 6148, "type": "report_map_camera_speed", "highway": 15, "zoom_level": 14, "width": 25, "category": null, "uri": null, "source_layer": "poi", "source_file": "14_10900_6415.bin", "zoom": 14, "tile_x": 10900, "tile_y": 6415, "longitude": 59.522477388381958, "latitude": 36.321107254744383 }, "geometry": { "type": "Point", "coordinates": [ 59.522477388381958, 36.321107254744383 ] } },
{ "type": "Feature", "properties": { "camera_id": 6157, "type": "report_map_camera_speed", "highway": 11, "zoom_level": 14, "width": 25, "category": null, "uri": null, "source_layer": "poi", "source_file": "14_10900_6414.bin", "zoom": 14, "tile_x": 10900, "tile_y": 6414, "longitude": 59.522954821586609, "latitude": 36.340749023283841 }, "geometry": { "type": "Point", "coordinates": [ 59.522954821586609, 36.340749023283841 ] } },
{ "type": "Feature", "properties": { "camera_id": 6158, "type": "report_map_camera_speed", "highway": 11, "zoom_level": 14, "width": 25, "category": null, "uri": null, "source_layer": "poi", "source_file": "14_10900_6415.bin", "zoom": 14, "tile_x": 10900, "tile_y": 6415, "longitude": 59.523319602012641, "latitude": 36.318509589705045 }, "geometry": { "type": "Point", "coordinates": [ 59.523319602012641, 36.318509589705045 ] } },
{ "type": "Feature", "properties": { "camera_id": 6167, "type": "report_map_camera_speed", "highway": 11, "zoom_level": 14, "width": 25, "category": null, "uri": null, "source_layer": "poi", "source_file": "14_10900_6414.bin", "zoom": 14, "tile_x": 10900, "tile_y": 6414, "longitude": 59.523383975028992, "latitude": 36.339556397047765 }, "geometry": { "type": "Point", "coordinates": [ 59.523383975028992, 36.339556397047765 ] } },
{ "type": "Feature", "properties": { "camera_id": 6168, "type": "report_map_camera_speed", "highway": 11, "zoom_level": 14, "width": 25, "category": null, "uri": null, "source_layer": "poi", "source_file": "14_10900_6415.bin", "zoom": 14, "tile_x": 10900, "tile_y": 6415, "longitude": 59.523405432701111, "latitude": 36.318414498826442 }, "geometry": { "type": "Point", "coordinates": [ 59.523405432701111, 36.318414498826442 ] } },
{ "type": "Feature", "properties": { "camera_id": 6173, "type": "report_map_camera_speed", "highway": 15, "zoom_level": 14, "width": 25, "category": null, "uri": null, "source_layer": "poi", "source_file": "14_10900_6412.bin", "zoom": 14, "tile_x": 10900, "tile_y": 6412, "longitude": 59.523609280586243, "latitude": 36.380337299961681 }, "geometry": { "type": "Point", "coordinates": [ 59.523609280586243, 36.380337299961681 ] } },
{ "type": "Feature", "properties": { "camera_id": 6179, "type": "report_map_camera_speed", "highway": 15, "zoom_level": 14, "width": 25, "category": null, "uri": null, "source_layer": "poi", "source_file": "14_10900_6412.bin", "zoom": 14, "tile_x": 10900, "tile_y": 6412, "longitude": 59.524204730987549, "latitude": 36.379983151077184 }, "geometry": { "type": "Point", "coordinates": [ 59.524204730987549, 36.379983151077184 ] } },
{ "type": "Feature", "properties": { "camera_id": 6186, "type": "report_map_camera_speed", "highway": 11, "zoom_level": 14, "width": 25, "category": null, "uri": null, "source_layer": "poi", "source_file": "14_10901_6414.bin", "zoom": 14, "tile_x": 10901, "tile_y": 6414, "longitude": 59.530003666877747, "latitude": 36.338381037382668 }, "geometry": { "type": "Point", "coordinates": [ 59.530003666877747, 36.338381037382668 ] } },
{ "type": "Feature", "properties": { "camera_id": 6187, "type": "report_map_camera_speed", "highway": 15, "zoom_level": 14, "width": 25, "category": null, "uri": null, "source_layer": "poi", "source_file": "14_10901_6414.bin", "zoom": 14, "tile_x": 10901, "tile_y": 6414, "longitude": 59.530148506164551, "latitude": 36.345273058938922 }, "geometry": { "type": "Point", "coordinates": [ 59.530148506164551, 36.345273058938922 ] } },
{ "type": "Feature", "properties": { "camera_id": 6188, "type": "report_map_camera_speed", "highway": 15, "zoom_level": 14, "width": 25, "category": null, "uri": null, "source_layer": "poi", "source_file": "14_10901_6415.bin", "zoom": 14, "tile_x": 10901, "tile_y": 6415, "longitude": 59.530513286590576, "latitude": 36.318090324504752 }, "geometry": { "type": "Point", "coordinates": [ 59.530513286590576, 36.318090324504752 ] } },
{ "type": "Feature", "properties": { "camera_id": 6197, "type": "report_map_camera_speed", "highway": 11, "zoom_level": 14, "width": 25, "category": null, "uri": null, "source_layer": "poi", "source_file": "14_10901_6414.bin", "zoom": 14, "tile_x": 10901, "tile_y": 6414, "longitude": 59.530631303787231, "latitude": 36.338406964625413 }, "geometry": { "type": "Point", "coordinates": [ 59.530631303787231, 36.338406964625413 ] } },
{ "type": "Feature", "properties": { "camera_id": 6198, "type": "report_map_camera_speed", "highway": 11, "zoom_level": 14, "width": 25, "category": null, "uri": null, "source_layer": "poi", "source_file": "14_10901_6414.bin", "zoom": 14, "tile_x": 10901, "tile_y": 6414, "longitude": 59.531006813049324, "latitude": 36.3376680348251 }, "geometry": { "type": "Point", "coordinates": [ 59.531006813049324, 36.3376680348251 ] } },
{ "type": "Feature", "properties": { "camera_id": 6199, "type": "report_map_camera_speed", "highway": 11, "zoom_level": 14, "width": 25, "category": null, "uri": null, "source_layer": "poi", "source_file": "14_10901_6414.bin", "zoom": 14, "tile_x": 10901, "tile_y": 6414, "longitude": 59.53141987323761, "latitude": 36.338670557770101 }, "geometry": { "type": "Point", "coordinates": [ 59.53141987323761, 36.338670557770101 ] } },
{ "type": "Feature", "properties": { "camera_id": 6223, "type": "report_map_camera_speed", "highway": 11, "zoom_level": 14, "width": 25, "category": null, "uri": null, "source_layer": "poi", "source_file": "14_10901_6414.bin", "zoom": 14, "tile_x": 10901, "tile_y": 6414, "longitude": 59.531897306442261, "latitude": 36.338043982441597 }, "geometry": { "type": "Point", "coordinates": [ 59.531897306442261, 36.338043982441597 ] } },
{ "type": "Feature", "properties": { "camera_id": 6226, "type": "report_map_camera_speed", "highway": 15, "zoom_level": 14, "width": 25, "category": null, "uri": null, "source_layer": "poi", "source_file": "14_10901_6415.bin", "zoom": 14, "tile_x": 10901, "tile_y": 6415, "longitude": 59.532680511474609, "latitude": 36.317952009717175 }, "geometry": { "type": "Point", "coordinates": [ 59.532680511474609, 36.317952009717175 ] } },
{ "type": "Feature", "properties": { "camera_id": 6232, "type": "report_map_camera_speed", "highway": 13, "zoom_level": 14, "width": 25, "category": null, "uri": null, "source_layer": "poi", "source_file": "14_10901_6415.bin", "zoom": 14, "tile_x": 10901, "tile_y": 6415, "longitude": 59.53440248966217, "latitude": 36.327879794543001 }, "geometry": { "type": "Point", "coordinates": [ 59.53440248966217, 36.327879794543001 ] } },
{ "type": "Feature", "properties": { "camera_id": 6254, "type": "report_map_camera_speed", "highway": 11, "zoom_level": 14, "width": 25, "category": null, "uri": null, "source_layer": "poi", "source_file": "14_10901_6414.bin", "zoom": 14, "tile_x": 10901, "tile_y": 6414, "longitude": 59.537363648414612, "latitude": 36.336540181088367 }, "geometry": { "type": "Point", "coordinates": [ 59.537363648414612, 36.336540181088367 ] } },
{ "type": "Feature", "properties": { "camera_id": 6261, "type": "report_map_camera_speed", "highway": 15, "zoom_level": 14, "width": 25, "category": null, "uri": null, "source_layer": "poi", "source_file": "14_10901_6416.bin", "zoom": 14, "tile_x": 10901, "tile_y": 6416, "longitude": 59.538549184799201, "latitude": 36.308022960278642 }, "geometry": { "type": "Point", "coordinates": [ 59.538549184799201, 36.308022960278642 ] } },
{ "type": "Feature", "properties": { "camera_id": 6262, "type": "report_map_camera_speed", "highway": 15, "zoom_level": 14, "width": 25, "category": null, "uri": null, "source_layer": "poi", "source_file": "14_10901_6416.bin", "zoom": 14, "tile_x": 10901, "tile_y": 6416, "longitude": 59.538790583610535, "latitude": 36.307776555075705 }, "geometry": { "type": "Point", "coordinates": [ 59.538790583610535, 36.307776555075705 ] } },
{ "type": "Feature", "properties": { "camera_id": 6274, "type": "report_map_camera_speed", "highway": 15, "zoom_level": 14, "width": 25, "category": null, "uri": null, "source_layer": "poi", "source_file": "14_10901_6415.bin", "zoom": 14, "tile_x": 10901, "tile_y": 6415, "longitude": 59.539750814437866, "latitude": 36.315345594551331 }, "geometry": { "type": "Point", "coordinates": [ 59.539750814437866, 36.315345594551331 ] } },
{ "type": "Feature", "properties": { "camera_id": 6275, "type": "report_map_camera_speed", "highway": 15, "zoom_level": 14, "width": 25, "category": null, "uri": null, "source_layer": "poi", "source_file": "14_10901_6415.bin", "zoom": 14, "tile_x": 10901, "tile_y": 6415, "longitude": 59.53990638256073, "latitude": 36.315501203873048 }, "geometry": { "type": "Point", "coordinates": [ 59.53990638256073, 36.315501203873048 ] } },
{ "type": "Feature", "properties": { "camera_id": 6307, "type": "report_map_camera_speed", "highway": 0, "zoom_level": 14, "width": 25, "category": null, "uri": null, "source_layer": "poi", "source_file": "14_10901_6417.bin", "zoom": 14, "tile_x": 10901, "tile_y": 6417, "longitude": 59.543114304542542, "latitude": 36.296761014884936 }, "geometry": { "type": "Point", "coordinates": [ 59.543114304542542, 36.296761014884936 ] } },
{ "type": "Feature", "properties": { "camera_id": 6308, "type": "report_map_camera_speed", "highway": 15, "zoom_level": 14, "width": 25, "category": null, "uri": null, "source_layer": "poi", "source_file": "14_10901_6413.bin", "zoom": 14, "tile_x": 10901, "tile_y": 6413, "longitude": 59.543205499649048, "latitude": 36.354091364300452 }, "geometry": { "type": "Point", "coordinates": [ 59.543205499649048, 36.354091364300452 ] } },
{ "type": "Feature", "properties": { "camera_id": 6314, "type": "report_map_camera_speed", "highway": 15, "zoom_level": 14, "width": 25, "category": null, "uri": null, "source_layer": "poi", "source_file": "14_10901_6413.bin", "zoom": 14, "tile_x": 10901, "tile_y": 6413, "longitude": 59.543221592903137, "latitude": 36.354424029468632 }, "geometry": { "type": "Point", "coordinates": [ 59.543221592903137, 36.354424029468632 ] } },
{ "type": "Feature", "properties": { "camera_id": 6315, "type": "report_map_camera_speed", "highway": 15, "zoom_level": 14, "width": 25, "category": null, "uri": null, "source_layer": "poi", "source_file": "14_10901_6417.bin", "zoom": 14, "tile_x": 10901, "tile_y": 6417, "longitude": 59.543505907058723, "latitude": 36.296752367853003 }, "geometry": { "type": "Point", "coordinates": [ 59.543505907058723, 36.296752367853003 ] } },
{ "type": "Feature", "properties": { "camera_id": 6330, "type": "report_map_camera_speed", "highway": 15, "zoom_level": 14, "width": 25, "category": null, "uri": null, "source_layer": "poi", "source_file": "14_10901_6414.bin", "zoom": 14, "tile_x": 10901, "tile_y": 6414, "longitude": 59.54366147518158, "latitude": 36.345307625534858 }, "geometry": { "type": "Point", "coordinates": [ 59.54366147518158, 36.345307625534858 ] } },
{ "type": "Feature", "properties": { "camera_id": 6331, "type": "report_map_camera_speed", "highway": 0, "zoom_level": 14, "width": 25, "category": null, "uri": null, "source_layer": "poi", "source_file": "14_10901_6414.bin", "zoom": 14, "tile_x": 10901, "tile_y": 6414, "longitude": 59.543854594230652, "latitude": 36.345069979877913 }, "geometry": { "type": "Point", "coordinates": [ 59.543854594230652, 36.345069979877913 ] } },
{ "type": "Feature", "properties": { "camera_id": 6355, "type": "report_map_camera_speed", "highway": 15, "zoom_level": 14, "width": 25, "category": null, "uri": null, "source_layer": "poi", "source_file": "14_10901_6414.bin", "zoom": 14, "tile_x": 10901, "tile_y": 6414, "longitude": 59.545533657073975, "latitude": 36.333497919463127 }, "geometry": { "type": "Point", "coordinates": [ 59.545533657073975, 36.333497919463127 ] } },
{ "type": "Feature", "properties": { "camera_id": 6361, "type": "report_map_camera_speed", "highway": 15, "zoom_level": 14, "width": 25, "category": null, "uri": null, "source_layer": "poi", "source_file": "14_10901_6414.bin", "zoom": 14, "tile_x": 10901, "tile_y": 6414, "longitude": 59.546096920967102, "latitude": 36.336544502398233 }, "geometry": { "type": "Point", "coordinates": [ 59.546096920967102, 36.336544502398233 ] } },
{ "type": "Feature", "properties": { "camera_id": 6379, "type": "report_map_camera_speed", "highway": 0, "zoom_level": 14, "width": 25, "category": null, "uri": null, "source_layer": "poi", "source_file": "14_10902_6416.bin", "zoom": 14, "tile_x": 10902, "tile_y": 6416, "longitude": 59.547985196113594, "latitude": 36.310171407738792 }, "geometry": { "type": "Point", "coordinates": [ 59.547985196113594, 36.310171407738792 ] } },
{ "type": "Feature", "properties": { "camera_id": 6411, "type": "report_map_camera_speed", "highway": 0, "zoom_level": 14, "width": 25, "category": null, "uri": null, "source_layer": "poi", "source_file": "14_10902_6416.bin", "zoom": 14, "tile_x": 10902, "tile_y": 6416, "longitude": 59.548360705375671, "latitude": 36.310080629466462 }, "geometry": { "type": "Point", "coordinates": [ 59.548360705375671, 36.310080629466462 ] } },
{ "type": "Feature", "properties": { "camera_id": 6467, "type": "report_map_camera_speed", "highway": 13, "zoom_level": 14, "width": 25, "category": null, "uri": null, "source_layer": "poi", "source_file": "14_10902_6418.bin", "zoom": 14, "tile_x": 10902, "tile_y": 6418, "longitude": 59.551745653152473, "latitude": 36.264185172745535 }, "geometry": { "type": "Point", "coordinates": [ 59.551745653152473, 36.264185172745535 ] } },
{ "type": "Feature", "properties": { "camera_id": 6480, "type": "report_map_camera_speed", "highway": 0, "zoom_level": 14, "width": 25, "category": null, "uri": null, "source_layer": "poi", "source_file": "14_10902_6417.bin", "zoom": 14, "tile_x": 10902, "tile_y": 6417, "longitude": 59.552153348922729, "latitude": 36.290037658216562 }, "geometry": { "type": "Point", "coordinates": [ 59.552153348922729, 36.290037658216562 ] } },
{ "type": "Feature", "properties": { "camera_id": 6496, "type": "report_map_camera_speed", "highway": 15, "zoom_level": 14, "width": 25, "category": null, "uri": null, "source_layer": "poi", "source_file": "14_10902_6417.bin", "zoom": 14, "tile_x": 10902, "tile_y": 6417, "longitude": 59.555194973945618, "latitude": 36.279785045494521 }, "geometry": { "type": "Point", "coordinates": [ 59.555194973945618, 36.279785045494521 ] } },
{ "type": "Feature", "properties": { "camera_id": 6508, "type": "report_map_camera_speed", "highway": 15, "zoom_level": 14, "width": 25, "category": null, "uri": null, "source_layer": "poi", "source_file": "14_10902_6417.bin", "zoom": 14, "tile_x": 10902, "tile_y": 6417, "longitude": 59.555650949478149, "latitude": 36.280783988535113 }, "geometry": { "type": "Point", "coordinates": [ 59.555650949478149, 36.280783988535113 ] } },
{ "type": "Feature", "properties": { "camera_id": 6509, "type": "report_map_camera_speed", "highway": 15, "zoom_level": 14, "width": 25, "category": null, "uri": null, "source_layer": "poi", "source_file": "14_10902_6414.bin", "zoom": 14, "tile_x": 10902, "tile_y": 6414, "longitude": 59.556487798690803, "latitude": 36.346776691678272 }, "geometry": { "type": "Point", "coordinates": [ 59.556487798690803, 36.346776691678272 ] } },
{ "type": "Feature", "properties": { "camera_id": 6510, "type": "report_map_camera_speed", "highway": 0, "zoom_level": 14, "width": 25, "category": null, "uri": null, "source_layer": "poi", "source_file": "14_10902_6414.bin", "zoom": 14, "tile_x": 10902, "tile_y": 6414, "longitude": 59.557110071182251, "latitude": 36.346625465560848 }, "geometry": { "type": "Point", "coordinates": [ 59.557110071182251, 36.346625465560848 ] } },
{ "type": "Feature", "properties": { "camera_id": 6516, "type": "report_map_camera_speed", "highway": 13, "zoom_level": 14, "width": 25, "category": null, "uri": null, "source_layer": "poi", "source_file": "14_10902_6417.bin", "zoom": 14, "tile_x": 10902, "tile_y": 6417, "longitude": 59.557775259017937, "latitude": 36.288718861128693 }, "geometry": { "type": "Point", "coordinates": [ 59.557775259017937, 36.288718861128693 ] } },
{ "type": "Feature", "properties": { "camera_id": 6517, "type": "report_map_camera_speed", "highway": 13, "zoom_level": 14, "width": 25, "category": null, "uri": null, "source_layer": "poi", "source_file": "14_10902_6418.bin", "zoom": 14, "tile_x": 10902, "tile_y": 6418, "longitude": 59.558869600296021, "latitude": 36.263860773033031 }, "geometry": { "type": "Point", "coordinates": [ 59.558869600296021, 36.263860773033031 ] } },
{ "type": "Feature", "properties": { "camera_id": 6532, "type": "report_map_camera_speed", "highway": 15, "zoom_level": 14, "width": 25, "category": null, "uri": null, "source_layer": "poi", "source_file": "14_10902_6418.bin", "zoom": 14, "tile_x": 10902, "tile_y": 6418, "longitude": 59.560039043426514, "latitude": 36.272999678483686 }, "geometry": { "type": "Point", "coordinates": [ 59.560039043426514, 36.272999678483686 ] } },
{ "type": "Feature", "properties": { "camera_id": 6546, "type": "report_map_camera_speed", "highway": 0, "zoom_level": 14, "width": 25, "category": null, "uri": null, "source_layer": "poi", "source_file": "14_10902_6418.bin", "zoom": 14, "tile_x": 10902, "tile_y": 6418, "longitude": 59.563059210777283, "latitude": 36.272658015983708 }, "geometry": { "type": "Point", "coordinates": [ 59.563059210777283, 36.272658015983708 ] } },
{ "type": "Feature", "properties": { "camera_id": 12598, "type": "report_map_camera_speed", "highway": 13, "zoom_level": 14, "width": 25, "category": null, "uri": null, "source_layer": "poi", "source_file": "14_10896_6414.bin", "zoom": 14, "tile_x": 10896, "tile_y": 6414, "longitude": 59.432124495506287, "latitude": 36.335252420072905 }, "geometry": { "type": "Point", "coordinates": [ 59.432124495506287, 36.335252420072905 ] } },
{ "type": "Feature", "properties": { "camera_id": 15373, "type": "report_map_camera_speed", "highway": 15, "zoom_level": 14, "width": 25, "category": null, "uri": null, "source_layer": "poi", "source_file": "14_10898_6415.bin", "zoom": 14, "tile_x": 10898, "tile_y": 6415, "longitude": 59.462192058563232, "latitude": 36.333130592904453 }, "geometry": { "type": "Point", "coordinates": [ 59.462192058563232, 36.333130592904453 ] } },
{ "type": "Feature", "properties": { "camera_id": 15420, "type": "report_map_camera_speed", "highway": 13, "zoom_level": 14, "width": 25, "category": null, "uri": null, "source_layer": "poi", "source_file": "14_10898_6415.bin", "zoom": 14, "tile_x": 10898, "tile_y": 6415, "longitude": 59.464042782783508, "latitude": 36.332482365340532 }, "geometry": { "type": "Point", "coordinates": [ 59.464042782783508, 36.332482365340532 ] } },
{ "type": "Feature", "properties": { "camera_id": 15421, "type": "report_map_camera_speed", "highway": 13, "zoom_level": 14, "width": 25, "category": null, "uri": null, "source_layer": "poi", "source_file": "14_10898_6415.bin", "zoom": 14, "tile_x": 10898, "tile_y": 6415, "longitude": 59.464091062545776, "latitude": 36.332590403642413 }, "geometry": { "type": "Point", "coordinates": [ 59.464091062545776, 36.332590403642413 ] } },
{ "type": "Feature", "properties": { "camera_id": 15547, "type": "report_map_camera_speed", "highway": 13, "zoom_level": 14, "width": 25, "category": null, "uri": null, "source_layer": "poi", "source_file": "14_10898_6415.bin", "zoom": 14, "tile_x": 10898, "tile_y": 6415, "longitude": 59.469621777534485, "latitude": 36.330589509984776 }, "geometry": { "type": "Point", "coordinates": [ 59.469621777534485, 36.330589509984776 ] } },
{ "type": "Feature", "properties": { "camera_id": 15615, "type": "report_map_camera_speed", "highway": 13, "zoom_level": 14, "width": 25, "category": null, "uri": null, "source_layer": "poi", "source_file": "14_10898_6415.bin", "zoom": 14, "tile_x": 10898, "tile_y": 6415, "longitude": 59.472770690917969, "latitude": 36.329651708446022 }, "geometry": { "type": "Point", "coordinates": [ 59.472770690917969, 36.329651708446022 ] } },
{ "type": "Feature", "properties": { "camera_id": 15616, "type": "report_map_camera_speed", "highway": 11, "zoom_level": 14, "width": 25, "category": null, "uri": null, "source_layer": "poi", "source_file": "14_10898_6415.bin", "zoom": 14, "tile_x": 10898, "tile_y": 6415, "longitude": 59.473580718040473, "latitude": 36.328571277933513 }, "geometry": { "type": "Point", "coordinates": [ 59.473580718040473, 36.328571277933513 ] } },
{ "type": "Feature", "properties": { "camera_id": 15639, "type": "report_map_camera_speed", "highway": 13, "zoom_level": 14, "width": 25, "category": null, "uri": null, "source_layer": "poi", "source_file": "14_10898_6415.bin", "zoom": 14, "tile_x": 10898, "tile_y": 6415, "longitude": 59.475114941596985, "latitude": 36.328929982524976 }, "geometry": { "type": "Point", "coordinates": [ 59.475114941596985, 36.328929982524976 ] } },
{ "type": "Feature", "properties": { "camera_id": 16889, "type": "report_map_camera_speed", "highway": 15, "zoom_level": 14, "width": 25, "category": null, "uri": null, "source_layer": "poi", "source_file": "14_10900_6411.bin", "zoom": 14, "tile_x": 10900, "tile_y": 6411, "longitude": 59.510595202445984, "latitude": 36.389743249534277 }, "geometry": { "type": "Point", "coordinates": [ 59.510595202445984, 36.389743249534277 ] } },
{ "type": "Feature", "properties": { "camera_id": 16896, "type": "report_map_camera_speed", "highway": 0, "zoom_level": 14, "width": 25, "category": null, "uri": null, "source_layer": "poi", "source_file": "14_10900_6411.bin", "zoom": 14, "tile_x": 10900, "tile_y": 6411, "longitude": 59.510670304298401, "latitude": 36.389855526724624 }, "geometry": { "type": "Point", "coordinates": [ 59.510670304298401, 36.389855526724624 ] } },
{ "type": "Feature", "properties": { "camera_id": 17017, "type": "report_map_camera_speed", "highway": 0, "zoom_level": 14, "width": 25, "category": null, "uri": null, "source_layer": "poi", "source_file": "14_10900_6411.bin", "zoom": 14, "tile_x": 10900, "tile_y": 6411, "longitude": 59.51618492603302, "latitude": 36.39425148309455 }, "geometry": { "type": "Point", "coordinates": [ 59.51618492603302, 36.39425148309455 ] } },
{ "type": "Feature", "properties": { "camera_id": 17024, "type": "report_map_camera_speed", "highway": 0, "zoom_level": 14, "width": 25, "category": null, "uri": null, "source_layer": "poi", "source_file": "14_10900_6411.bin", "zoom": 14, "tile_x": 10900, "tile_y": 6411, "longitude": 59.51619565486908, "latitude": 36.394441479533548 }, "geometry": { "type": "Point", "coordinates": [ 59.51619565486908, 36.394441479533548 ] } },
{ "type": "Feature", "properties": { "camera_id": 17095, "type": "report_map_camera_speed", "highway": 15, "zoom_level": 14, "width": 25, "category": null, "uri": null, "source_layer": "poi", "source_file": "14_10901_6412.bin", "zoom": 14, "tile_x": 10901, "tile_y": 6412, "longitude": 59.523609280586243, "latitude": 36.380337299961681 }, "geometry": { "type": "Point", "coordinates": [ 59.523609280586243, 36.380337299961681 ] } },
{ "type": "Feature", "properties": { "camera_id": 17096, "type": "report_map_camera_speed", "highway": 15, "zoom_level": 14, "width": 25, "category": null, "uri": null, "source_layer": "poi", "source_file": "14_10901_6412.bin", "zoom": 14, "tile_x": 10901, "tile_y": 6412, "longitude": 59.524204730987549, "latitude": 36.379983151077184 }, "geometry": { "type": "Point", "coordinates": [ 59.524204730987549, 36.379983151077184 ] } },
{ "type": "Feature", "properties": { "camera_id": 17333, "type": "report_map_camera_speed", "highway": 0, "zoom_level": 14, "width": 25, "category": null, "uri": null, "source_layer": "poi", "source_file": "14_10901_6412.bin", "zoom": 14, "tile_x": 10901, "tile_y": 6412, "longitude": 59.545120596885681, "latitude": 36.369923785615619 }, "geometry": { "type": "Point", "coordinates": [ 59.545120596885681, 36.369923785615619 ] } }
]
}
