{
"type": "FeatureCollection",
"name": "Mashhad_speed_camera_osm",
"crs": { "type": "name", "properties": { "name": "urn:ogc:def:crs:OGC:1.3:CRS84" } },
"features": [
{ "type": "Feature", "properties": { "element": "node", "id": 260141328, "highway": "speed_camera", "name": "دوربین کنترل سرعت", "maxspeed": null, "surface": null }, "geometry": { "type": "Point", "coordinates": [ 59.5872833, 36.2593233 ] } },
{ "type": "Feature", "properties": { "element": "node", "id": 667030324, "highway": "speed_camera", "name": "دوربین کنترل سرعت", "maxspeed": "80", "surface": null }, "geometry": { "type": "Point", "coordinates": [ 59.5436174, 36.2966116 ] } },
{ "type": "Feature", "properties": { "element": "node", "id": 2355046707, "highway": "speed_camera", "name": "دوربین کنترل سرعت", "maxspeed": null, "surface": null }, "geometry": { "type": "Point", "coordinates": [ 59.571971, 36.2714901 ] } },
{ "type": "Feature", "properties": { "element": "node", "id": 2355046708, "highway": "speed_camera", "name": "دوربین کنترل سرعت", "maxspeed": null, "surface": null }, "geometry": { "type": "Point", "coordinates": [ 59.5604576, 36.2728951 ] } },
{ "type": "Feature", "properties": { "element": "node", "id": 2355046709, "highway": "speed_camera", "name": "دوربین کنترل سرعت", "maxspeed": null, "surface": null }, "geometry": { "type": "Point", "coordinates": [ 59.5555899, 36.2807428 ] } },
{ "type": "Feature", "properties": { "element": "node", "id": 2427123727, "highway": "speed_camera", "name": null, "maxspeed": null, "surface": null }, "geometry": { "type": "Point", "coordinates": [ 59.6052226, 36.2528997 ] } },
{ "type": "Feature", "properties": { "element": "node", "id": 2427123730, "highway": "speed_camera", "name": null, "maxspeed": null, "surface": null }, "geometry": { "type": "Point", "coordinates": [ 59.6055891, 36.2527626 ] } },
{ "type": "Feature", "properties": { "element": "node", "id": 3179633823, "highway": "speed_camera", "name": null, "maxspeed": "80", "surface": null }, "geometry": { "type": "Point", "coordinates": [ 59.6257349, 36.2232885 ] } },
{ "type": "Feature", "properties": { "element": "node", "id": 3179633857, "highway": "speed_camera", "name": "دوربین کنترل سرعت", "maxspeed": "80", "surface": null }, "geometry": { "type": "Point", "coordinates": [ 59.5526221, 36.2896002 ] } },
{ "type": "Feature", "properties": { "element": "node", "id": 3413453526, "highway": "speed_camera", "name": "دوربین کنترل سرعت", "maxspeed": "80", "surface": null }, "geometry": { "type": "Point", "coordinates": [ 59.5436082, 36.2963177 ] } },
{ "type": "Feature", "properties": { "element": "node", "id": 3413461466, "highway": "speed_camera", "name": "دوربین کنترل سرعت", "maxspeed": "80", "surface": null }, "geometry": { "type": "Point", "coordinates": [ 59.5386761, 36.3077538 ] } },
{ "type": "Feature", "properties": { "element": "node", "id": 3413461507, "highway": "speed_camera", "name": "دوربین کنترل سرعت", "maxspeed": "80", "surface": null }, "geometry": { "type": "Point", "coordinates": [ 59.5392371, 36.3098158 ] } },
{ "type": "Feature", "properties": { "element": "node", "id": 4428117344, "highway": "speed_camera", "name": "دوربین کنترل سرعت", "maxspeed": null, "surface": null }, "geometry": { "type": "Point", "coordinates": [ 59.5553065, 36.2798202 ] } },
{ "type": "Feature", "properties": { "element": "node", "id": 4531487081, "highway": "speed_camera", "name": "دوربین کنترل سرعت", "maxspeed": "80", "surface": null }, "geometry": { "type": "Point", "coordinates": [ 59.5821571, 36.3477037 ] } },
{ "type": "Feature", "properties": { "element": "node", "id": 4531493045, "highway": "speed_camera", "name": "دوربین کنترل سرعت", "maxspeed": "80", "surface": null }, "geometry": { "type": "Point", "coordinates": [ 59.5519885, 36.2899534 ] } },
{ "type": "Feature", "properties": { "element": "node", "id": 4550916501, "highway": "speed_camera", "name": null, "maxspeed": "60", "surface": null }, "geometry": { "type": "Point", "coordinates": [ 59.44743, 36.3446093 ] } },
{ "type": "Feature", "properties": { "element": "node", "id": 4550916502, "highway": "speed_camera", "name": "دوربین کنترل سرعت", "maxspeed": null, "surface": null }, "geometry": { "type": "Point", "coordinates": [ 59.471221, 36.3366792 ] } },
{ "type": "Feature", "properties": { "element": "node", "id": 4813936721, "highway": "speed_camera", "name": "دوربین کنترل سرعت", "maxspeed": "80", "surface": null }, "geometry": { "type": "Point", "coordinates": [ 59.556448, 36.3466997 ] } },
{ "type": "Feature", "properties": { "element": "node", "id": 5668828444, "highway": "speed_camera", "name": "دوربین کنترل سرعت", "maxspeed": "80", "surface": "asphalt" }, "geometry": { "type": "Point", "coordinates": [ 59.5433785, 36.354059 ] } },
{ "type": "Feature", "properties": { "element": "node", "id": 5668828445, "highway": "speed_camera", "name": "دوربین کنترل سرعت", "maxspeed": "80", "surface": null }, "geometry": { "type": "Point", "coordinates": [ 59.510604, 36.389899 ] } },
{ "type": "Feature", "properties": { "element": "node", "id": 5668828451, "highway": "speed_camera", "name": "دوربین کنترل سرعت", "maxspeed": "70", "surface": "asphalt" }, "geometry": { "type": "Point", "coordinates": [ 59.543302, 36.3541032 ] } },
{ "type": "Feature", "properties": { "element": "node", "id": 6188291218, "highway": "speed_camera", "name": null, "maxspeed": "60", "surface": null }, "geometry": { "type": "Point", "coordinates": [ 59.5167492, 36.3939303 ] } },
{ "type": "Feature", "properties": { "element": "node", "id": 6188291219, "highway": "speed_camera", "name": null, "maxspeed": "60", "surface": null }, "geometry": { "type": "Point", "coordinates": [ 59.516598, 36.3938862 ] } },
{ "type": "Feature", "properties": { "element": "node", "id": 6209629583, "highway": "speed_camera", "name": "دوربین کنترل سرعت", "maxspeed": "80", "surface": null }, "geometry": { "type": "Point", "coordinates": [ 59.5105209, 36.3897828 ] } },
{ "type": "Feature", "properties": { "element": "node", "id": 6533417418, "highway": "speed_camera", "name": null, "maxspeed": "90", "surface": null }, "geometry": { "type": "Point", "coordinates": [ 59.6237319, 36.1936384 ] } },
{ "type": "Feature", "properties": { "element": "node", "id": 7277749505, "highway": "speed_camera", "name": null, "maxspeed": "70", "surface": null }, "geometry": { "type": "Point", "coordinates": [ 59.5477639, 36.3103735 ] } },
{ "type": "Feature", "properties": { "element": "node", "id": 8358619665, "highway": "speed_camera", "name": null, "maxspeed": "80", "surface": null }, "geometry": { "type": "Point", "coordinates": [ 59.5991438, 36.3393823 ] } },
{ "type": "Feature", "properties": { "element": "node", "id": 8358637552, "highway": "speed_camera", "name": null, "maxspeed": "80", "surface": null }, "geometry": { "type": "Point", "coordinates": [ 59.5429732, 36.3452832 ] } },
{ "type": "Feature", "properties": { "element": "node", "id": 8358637553, "highway": "speed_camera", "name": null, "maxspeed": "80", "surface": null }, "geometry": { "type": "Point", "coordinates": [ 59.5428391, 36.3450448 ] } },
{ "type": "Feature", "properties": { "element": "node", "id": 8358644841, "highway": "speed_camera", "name": "دوربین کنترل سرعت", "maxspeed": "80", "surface": null }, "geometry": { "type": "Point", "coordinates": [ 59.5818931, 36.347585 ] } },
{ "type": "Feature", "properties": { "element": "node", "id": 8358659687, "highway": "speed_camera", "name": null, "maxspeed": "80", "surface": null }, "geometry": { "type": "Point", "coordinates": [ 59.5569401, 36.346674 ] } },
{ "type": "Feature", "properties": { "element": "node", "id": 8358672555, "highway": "speed_camera", "name": null, "maxspeed": "80", "surface": null }, "geometry": { "type": "Point", "coordinates": [ 59.5362864, 36.3450456 ] } },
{ "type": "Feature", "properties": { "element": "node", "id": 8358680355, "highway": "speed_camera", "name": null, "maxspeed": "80", "surface": null }, "geometry": { "type": "Point", "coordinates": [ 59.5385678, 36.361954 ] } },
{ "type": "Feature", "properties": { "element": "node", "id": 8483998907, "highway": "speed_camera", "name": null, "maxspeed": "50", "surface": null }, "geometry": { "type": "Point", "coordinates": [ 59.4942262, 36.3005495 ] } },
{ "type": "Feature", "properties": { "element": "node", "id": 8734166264, "highway": "speed_camera", "name": null, "maxspeed": "60", "surface": null }, "geometry": { "type": "Point", "coordinates": [ 59.6315115, 36.3565784 ] } },
{ "type": "Feature", "properties": { "element": "node", "id": 8734166265, "highway": "speed_camera", "name": null, "maxspeed": "60", "surface": null }, "geometry": { "type": "Point", "coordinates": [ 59.6317298, 36.355682 ] } },
{ "type": "Feature", "properties": { "element": "node", "id": 8901262461, "highway": "speed_camera", "name": null, "maxspeed": "80", "surface": null }, "geometry": { "type": "Point", "coordinates": [ 59.5302519, 36.3452654 ] } },
{ "type": "Feature", "properties": { "element": "node", "id": 8901349095, "highway": "speed_camera", "name": null, "maxspeed": "80", "surface": null }, "geometry": { "type": "Point", "coordinates": [ 59.4917265, 36.3465385 ] } },
{ "type": "Feature", "properties": { "element": "node", "id": 8901349096, "highway": "speed_camera", "name": null, "maxspeed": "80", "surface": null }, "geometry": { "type": "Point", "coordinates": [ 59.4915582, 36.346485 ] } },
{ "type": "Feature", "properties": { "element": "node", "id": 8901731612, "highway": "speed_camera", "name": null, "maxspeed": "80", "surface": null }, "geometry": { "type": "Point", "coordinates": [ 59.6254548, 36.2258679 ] } },
{ "type": "Feature", "properties": { "element": "node", "id": 8901747706, "highway": "speed_camera", "name": null, "maxspeed": "80", "surface": null }, "geometry": { "type": "Point", "coordinates": [ 59.6255437, 36.2232662 ] } },
{ "type": "Feature", "properties": { "element": "node", "id": 8901760687, "highway": "speed_camera", "name": null, "maxspeed": "90", "surface": null }, "geometry": { "type": "Point", "coordinates": [ 59.6238569, 36.193647 ] } },
{ "type": "Feature", "properties": { "element": "node", "id": 9904935805, "highway": "speed_camera", "name": null, "maxspeed": "60", "surface": null }, "geometry": { "type": "Point", "coordinates": [ 59.4481177, 36.3440564 ] } },
{ "type": "Feature", "properties": { "element": "node", "id": 11018095621, "highway": "speed_camera", "name": null, "maxspeed": "80", "surface": null }, "geometry": { "type": "Point", "coordinates": [ 59.524283, 36.3797487 ] } },
{ "type": "Feature", "properties": { "element": "node", "id": 11018095622, "highway": "speed_camera", "name": null, "maxspeed": "80", "surface": null }, "geometry": { "type": "Point", "coordinates": [ 59.5241352, 36.3799336 ] } }
]
}
