{
"type": "FeatureCollection",
"name": "Mashhad_traffic_signals_osm",
"crs": { "type": "name", "properties": { "name": "urn:ogc:def:crs:OGC:1.3:CRS84" } },
"features": [
{ "type": "Feature", "properties": { "cluster": 0, "count": 4 }, "geometry": { "type": "Point", "coordinates": [ 59.543828999994837, 36.287393075126687 ] } },
{ "type": "Feature", "properties": { "cluster": 1, "count": 2 }, "geometry": { "type": "Point", "coordinates": [ 59.599560200058633, 36.255947750038359 ] } },
{ "type": "Feature", "properties": { "cluster": 2, "count": 4 }, "geometry": { "type": "Point", "coordinates": [ 59.559820899842492, 36.292889250099755 ] } },
{ "type": "Feature", "properties": { "cluster": 3, "count": 4 }, "geometry": { "type": "Point", "coordinates": [ 59.563267049994479, 36.300193025284955 ] } },
{ "type": "Feature", "properties": { "cluster": 4, "count": 4 }, "geometry": { "type": "Point", "coordinates": [ 59.534645850064898, 36.326311125087145 ] } },
{ "type": "Feature", "properties": { "cluster": 5, "count": 3 }, "geometry": { "type": "Point", "coordinates": [ 59.551453033328926, 36.339223833416959 ] } },
{ "type": "Feature", "properties": { "cluster": 6, "count": 1 }, "geometry": { "type": "Point", "coordinates": [ 59.5440227, 36.3256241 ] } },
{ "type": "Feature", "properties": { "cluster": 7, "count": 1 }, "geometry": { "type": "Point", "coordinates": [ 59.5444161, 36.3264375 ] } },
{ "type": "Feature", "properties": { "cluster": 8, "count": 1 }, "geometry": { "type": "Point", "coordinates": [ 59.5425878, 36.3260969 ] } },
{ "type": "Feature", "properties": { "cluster": 9, "count": 3 }, "geometry": { "type": "Point", "coordinates": [ 59.54800663324685, 36.325390000131137 ] } },
{ "type": "Feature", "properties": { "cluster": 10, "count": 4 }, "geometry": { "type": "Point", "coordinates": [ 59.503480474981217, 36.331704075122907 ] } },
{ "type": "Feature", "properties": { "cluster": 11, "count": 1 }, "geometry": { "type": "Point", "coordinates": [ 59.5627464, 36.3242772 ] } },
{ "type": "Feature", "properties": { "cluster": 12, "count": 2 }, "geometry": { "type": "Point", "coordinates": [ 59.570279350233754, 36.324232350161466 ] } },
{ "type": "Feature", "properties": { "cluster": 13, "count": 2 }, "geometry": { "type": "Point", "coordinates": [ 59.598330600018848, 36.255048500025005 ] } },
{ "type": "Feature", "properties": { "cluster": 14, "count": 2 }, "geometry": { "type": "Point", "coordinates": [ 59.597945050010978, 36.255780100032453 ] } },
{ "type": "Feature", "properties": { "cluster": 15, "count": 1 }, "geometry": { "type": "Point", "coordinates": [ 59.6010926, 36.2534893 ] } },
{ "type": "Feature", "properties": { "cluster": 16, "count": 4 }, "geometry": { "type": "Point", "coordinates": [ 59.64587699999803, 36.293464400054866 ] } },
{ "type": "Feature", "properties": { "cluster": 17, "count": 4 }, "geometry": { "type": "Point", "coordinates": [ 59.617863024990896, 36.299695325145748 ] } },
{ "type": "Feature", "properties": { "cluster": 18, "count": 2 }, "geometry": { "type": "Point", "coordinates": [ 59.524704299944688, 36.298709100026919 ] } },
{ "type": "Feature", "properties": { "cluster": 19, "count": 2 }, "geometry": { "type": "Point", "coordinates": [ 59.51288749983771, 36.304527200249467 ] } },
{ "type": "Feature", "properties": { "cluster": 20, "count": 4 }, "geometry": { "type": "Point", "coordinates": [ 59.504453275017219, 36.310853650191113 ] } },
{ "type": "Feature", "properties": { "cluster": 21, "count": 4 }, "geometry": { "type": "Point", "coordinates": [ 59.500104524998683, 36.314042350110533 ] } },
{ "type": "Feature", "properties": { "cluster": 22, "count": 4 }, "geometry": { "type": "Point", "coordinates": [ 59.577924149970727, 36.331629625093427 ] } },
{ "type": "Feature", "properties": { "cluster": 23, "count": 3 }, "geometry": { "type": "Point", "coordinates": [ 59.56528939987929, 36.319539933423513 ] } },
{ "type": "Feature", "properties": { "cluster": 24, "count": 2 }, "geometry": { "type": "Point", "coordinates": [ 59.597628749983386, 36.249651500006983 ] } },
{ "type": "Feature", "properties": { "cluster": 25, "count": 2 }, "geometry": { "type": "Point", "coordinates": [ 59.602235599983594, 36.247000050005859 ] } },
{ "type": "Feature", "properties": { "cluster": 26, "count": 1 }, "geometry": { "type": "Point", "coordinates": [ 59.5857661, 36.29849 ] } },
{ "type": "Feature", "properties": { "cluster": 27, "count": 3 }, "geometry": { "type": "Point", "coordinates": [ 59.581267666641416, 36.334681566698556 ] } },
{ "type": "Feature", "properties": { "cluster": 28, "count": 1 }, "geometry": { "type": "Point", "coordinates": [ 59.6487336, 36.3016986 ] } },
{ "type": "Feature", "properties": { "cluster": 29, "count": 1 }, "geometry": { "type": "Point", "coordinates": [ 59.6019517, 36.2414452 ] } },
{ "type": "Feature", "properties": { "cluster": 30, "count": 4 }, "geometry": { "type": "Point", "coordinates": [ 59.567676599978313, 36.292483775088627 ] } },
{ "type": "Feature", "properties": { "cluster": 31, "count": 3 }, "geometry": { "type": "Point", "coordinates": [ 59.583964099964589, 36.314581900052282 ] } },
{ "type": "Feature", "properties": { "cluster": 32, "count": 4 }, "geometry": { "type": "Point", "coordinates": [ 59.589582025008383, 36.320067025143643 ] } },
{ "type": "Feature", "properties": { "cluster": 33, "count": 4 }, "geometry": { "type": "Point", "coordinates": [ 59.575926074986491, 36.316282900104561 ] } },
{ "type": "Feature", "properties": { "cluster": 34, "count": 4 }, "geometry": { "type": "Point", "coordinates": [ 59.585876725098259, 36.324051575073298 ] } },
{ "type": "Feature", "properties": { "cluster": 35, "count": 2 }, "geometry": { "type": "Point", "coordinates": [ 59.566137050063702, 36.305815150020408 ] } },
{ "type": "Feature", "properties": { "cluster": 36, "count": 1 }, "geometry": { "type": "Point", "coordinates": [ 59.5684442, 36.3093668 ] } },
{ "type": "Feature", "properties": { "cluster": 37, "count": 2 }, "geometry": { "type": "Point", "coordinates": [ 59.554425249990949, 36.317958500000699 ] } },
{ "type": "Feature", "properties": { "cluster": 38, "count": 2 }, "geometry": { "type": "Point", "coordinates": [ 59.551544999991009, 36.318120500000497 ] } },
{ "type": "Feature", "properties": { "cluster": 39, "count": 4 }, "geometry": { "type": "Point", "coordinates": [ 59.546071499918057, 36.318465700154555 ] } },
{ "type": "Feature", "properties": { "cluster": 40, "count": 1 }, "geometry": { "type": "Point", "coordinates": [ 59.5507586, 36.3129304 ] } },
{ "type": "Feature", "properties": { "cluster": 41, "count": 4 }, "geometry": { "type": "Point", "coordinates": [ 59.636867599973954, 36.280463200104194 ] } },
{ "type": "Feature", "properties": { "cluster": 42, "count": 4 }, "geometry": { "type": "Point", "coordinates": [ 59.64298717518939, 36.284565925086 ] } },
{ "type": "Feature", "properties": { "cluster": 43, "count": 1 }, "geometry": { "type": "Point", "coordinates": [ 59.5698849, 36.3238798 ] } },
{ "type": "Feature", "properties": { "cluster": 44, "count": 3 }, "geometry": { "type": "Point", "coordinates": [ 59.60923200011613, 36.303106400100091 ] } },
{ "type": "Feature", "properties": { "cluster": 45, "count": 3 }, "geometry": { "type": "Point", "coordinates": [ 59.606373766693373, 36.290885266680235 ] } },
{ "type": "Feature", "properties": { "cluster": 46, "count": 4 }, "geometry": { "type": "Point", "coordinates": [ 59.610224650020562, 36.293959275084951 ] } },
{ "type": "Feature", "properties": { "cluster": 47, "count": 1 }, "geometry": { "type": "Point", "coordinates": [ 59.5122054, 36.304954399999986 ] } },
{ "type": "Feature", "properties": { "cluster": 48, "count": 4 }, "geometry": { "type": "Point", "coordinates": [ 59.537602975015027, 36.33708800013116 ] } },
{ "type": "Feature", "properties": { "cluster": 49, "count": 5 }, "geometry": { "type": "Point", "coordinates": [ 59.636196220038002, 36.269669020079377 ] } },
{ "type": "Feature", "properties": { "cluster": 50, "count": 1 }, "geometry": { "type": "Point", "coordinates": [ 59.5430541, 36.3268287 ] } },
{ "type": "Feature", "properties": { "cluster": 51, "count": 4 }, "geometry": { "type": "Point", "coordinates": [ 59.600854625023892, 36.33180317506605 ] } },
{ "type": "Feature", "properties": { "cluster": 52, "count": 2 }, "geometry": { "type": "Point", "coordinates": [ 59.608674350041269, 36.316574799999152 ] } },
{ "type": "Feature", "properties": { "cluster": 53, "count": 4 }, "geometry": { "type": "Point", "coordinates": [ 59.593677424997793, 36.314123500106248 ] } },
{ "type": "Feature", "properties": { "cluster": 54, "count": 4 }, "geometry": { "type": "Point", "coordinates": [ 59.615861424980054, 36.321672225137881 ] } },
{ "type": "Feature", "properties": { "cluster": 55, "count": 4 }, "geometry": { "type": "Point", "coordinates": [ 59.609913649970665, 36.325965600089127 ] } },
{ "type": "Feature", "properties": { "cluster": 56, "count": 4 }, "geometry": { "type": "Point", "coordinates": [ 59.63750172504826, 36.312958475053321 ] } },
{ "type": "Feature", "properties": { "cluster": 57, "count": 2 }, "geometry": { "type": "Point", "coordinates": [ 59.579453149987579, 36.28507220000305 ] } },
{ "type": "Feature", "properties": { "cluster": 58, "count": 4 }, "geometry": { "type": "Point", "coordinates": [ 59.50753929999469, 36.359298325108703 ] } },
{ "type": "Feature", "properties": { "cluster": 59, "count": 3 }, "geometry": { "type": "Point", "coordinates": [ 59.590209333354416, 36.292580866695651 ] } },
{ "type": "Feature", "properties": { "cluster": 60, "count": 4 }, "geometry": { "type": "Point", "coordinates": [ 59.602144999959037, 36.29151610010355 ] } },
{ "type": "Feature", "properties": { "cluster": 61, "count": 4 }, "geometry": { "type": "Point", "coordinates": [ 59.634165150053619, 36.305660675009634 ] } },
{ "type": "Feature", "properties": { "cluster": 62, "count": 4 }, "geometry": { "type": "Point", "coordinates": [ 59.632860600175533, 36.265756475104062 ] } },
{ "type": "Feature", "properties": { "cluster": 63, "count": 4 }, "geometry": { "type": "Point", "coordinates": [ 59.488137500023029, 36.337705175123077 ] } },
{ "type": "Feature", "properties": { "cluster": 64, "count": 4 }, "geometry": { "type": "Point", "coordinates": [ 59.496584199856812, 36.338144050117037 ] } },
{ "type": "Feature", "properties": { "cluster": 65, "count": 4 }, "geometry": { "type": "Point", "coordinates": [ 59.477926374973144, 36.316213900099228 ] } },
{ "type": "Feature", "properties": { "cluster": 66, "count": 1 }, "geometry": { "type": "Point", "coordinates": [ 59.540745, 36.3145091 ] } },
{ "type": "Feature", "properties": { "cluster": 67, "count": 1 }, "geometry": { "type": "Point", "coordinates": [ 59.541366, 36.314932 ] } },
{ "type": "Feature", "properties": { "cluster": 68, "count": 1 }, "geometry": { "type": "Point", "coordinates": [ 59.5405061, 36.3157668 ] } },
{ "type": "Feature", "properties": { "cluster": 69, "count": 2 }, "geometry": { "type": "Point", "coordinates": [ 59.631147349980893, 36.301709100015422 ] } },
{ "type": "Feature", "properties": { "cluster": 70, "count": 4 }, "geometry": { "type": "Point", "coordinates": [ 59.614621200027088, 36.301024375107168 ] } },
{ "type": "Feature", "properties": { "cluster": 71, "count": 4 }, "geometry": { "type": "Point", "coordinates": [ 59.560209524995571, 36.314851200128501 ] } },
{ "type": "Feature", "properties": { "cluster": 72, "count": 2 }, "geometry": { "type": "Point", "coordinates": [ 59.580847449940499, 36.29356675014801 ] } },
{ "type": "Feature", "properties": { "cluster": 73, "count": 3 }, "geometry": { "type": "Point", "coordinates": [ 59.552363400032981, 36.307431766786173 ] } },
{ "type": "Feature", "properties": { "cluster": 74, "count": 3 }, "geometry": { "type": "Point", "coordinates": [ 59.591271500030992, 36.29849070004299 ] } },
{ "type": "Feature", "properties": { "cluster": 75, "count": 2 }, "geometry": { "type": "Point", "coordinates": [ 59.59161084995506, 36.292993550014003 ] } },
{ "type": "Feature", "properties": { "cluster": 76, "count": 4 }, "geometry": { "type": "Point", "coordinates": [ 59.564936599961001, 36.292630775095596 ] } },
{ "type": "Feature", "properties": { "cluster": 77, "count": 4 }, "geometry": { "type": "Point", "coordinates": [ 59.595854950036035, 36.281206900054421 ] } },
{ "type": "Feature", "properties": { "cluster": 78, "count": 5 }, "geometry": { "type": "Point", "coordinates": [ 59.558354140002628, 36.316075300140717 ] } },
{ "type": "Feature", "properties": { "cluster": 79, "count": 3 }, "geometry": { "type": "Point", "coordinates": [ 59.572050833379116, 36.292272000048847 ] } },
{ "type": "Feature", "properties": { "cluster": 80, "count": 3 }, "geometry": { "type": "Point", "coordinates": [ 59.587236933420662, 36.267166466690533 ] } },
{ "type": "Feature", "properties": { "cluster": 81, "count": 4 }, "geometry": { "type": "Point", "coordinates": [ 59.526578949994757, 36.324397825057233 ] } },
{ "type": "Feature", "properties": { "cluster": 82, "count": 4 }, "geometry": { "type": "Point", "coordinates": [ 59.604416100020465, 36.262381200078615 ] } },
{ "type": "Feature", "properties": { "cluster": 83, "count": 4 }, "geometry": { "type": "Point", "coordinates": [ 59.535031775051351, 36.327724825127035 ] } },
{ "type": "Feature", "properties": { "cluster": 84, "count": 1 }, "geometry": { "type": "Point", "coordinates": [ 59.5634907, 36.3238459 ] } },
{ "type": "Feature", "properties": { "cluster": 85, "count": 1 }, "geometry": { "type": "Point", "coordinates": [ 59.5647343, 36.3244908 ] } },
{ "type": "Feature", "properties": { "cluster": 86, "count": 1 }, "geometry": { "type": "Point", "coordinates": [ 59.5634312, 36.3252293 ] } },
{ "type": "Feature", "properties": { "cluster": 87, "count": 4 }, "geometry": { "type": "Point", "coordinates": [ 59.585193200074492, 36.338514375099024 ] } },
{ "type": "Feature", "properties": { "cluster": 88, "count": 4 }, "geometry": { "type": "Point", "coordinates": [ 59.522584325009369, 36.339772000136577 ] } },
{ "type": "Feature", "properties": { "cluster": 89, "count": 4 }, "geometry": { "type": "Point", "coordinates": [ 59.520085174997661, 36.331014325112072 ] } },
{ "type": "Feature", "properties": { "cluster": 90, "count": 4 }, "geometry": { "type": "Point", "coordinates": [ 59.595638000057022, 36.326494525064177 ] } },
{ "type": "Feature", "properties": { "cluster": 91, "count": 4 }, "geometry": { "type": "Point", "coordinates": [ 59.488135374993902, 36.35214562506755 ] } },
{ "type": "Feature", "properties": { "cluster": 92, "count": 4 }, "geometry": { "type": "Point", "coordinates": [ 59.497446024936544, 36.352169225092723 ] } },
{ "type": "Feature", "properties": { "cluster": 93, "count": 4 }, "geometry": { "type": "Point", "coordinates": [ 59.520015874945337, 36.353320400069371 ] } },
{ "type": "Feature", "properties": { "cluster": 94, "count": 3 }, "geometry": { "type": "Point", "coordinates": [ 59.506650166771138, 36.362780533410472 ] } },
{ "type": "Feature", "properties": { "cluster": 95, "count": 4 }, "geometry": { "type": "Point", "coordinates": [ 59.508722874994305, 36.368622000067347 ] } },
{ "type": "Feature", "properties": { "cluster": 96, "count": 3 }, "geometry": { "type": "Point", "coordinates": [ 59.574593700117873, 36.337594866737177 ] } },
{ "type": "Feature", "properties": { "cluster": 97, "count": 4 }, "geometry": { "type": "Point", "coordinates": [ 59.512021675025608, 36.333639775070004 ] } },
{ "type": "Feature", "properties": { "cluster": 98, "count": 3 }, "geometry": { "type": "Point", "coordinates": [ 59.497290866635161, 36.310933366798352 ] } },
{ "type": "Feature", "properties": { "cluster": 99, "count": 4 }, "geometry": { "type": "Point", "coordinates": [ 59.614443424924566, 36.311607400094033 ] } },
{ "type": "Feature", "properties": { "cluster": 100, "count": 3 }, "geometry": { "type": "Point", "coordinates": [ 59.616209933230522, 36.314183566740937 ] } },
{ "type": "Feature", "properties": { "cluster": 101, "count": 4 }, "geometry": { "type": "Point", "coordinates": [ 59.619696750016182, 36.320147750081048 ] } },
{ "type": "Feature", "properties": { "cluster": 102, "count": 4 }, "geometry": { "type": "Point", "coordinates": [ 59.62784917499436, 36.316860525043992 ] } },
{ "type": "Feature", "properties": { "cluster": 103, "count": 4 }, "geometry": { "type": "Point", "coordinates": [ 59.626249274989519, 36.314297575086108 ] } },
{ "type": "Feature", "properties": { "cluster": 104, "count": 4 }, "geometry": { "type": "Point", "coordinates": [ 59.568354375048237, 36.344962650100271 ] } },
{ "type": "Feature", "properties": { "cluster": 105, "count": 3 }, "geometry": { "type": "Point", "coordinates": [ 59.593780566706762, 36.33614143341017 ] } },
{ "type": "Feature", "properties": { "cluster": 106, "count": 4 }, "geometry": { "type": "Point", "coordinates": [ 59.590083350029438, 36.330505725056881 ] } },
{ "type": "Feature", "properties": { "cluster": 107, "count": 4 }, "geometry": { "type": "Point", "coordinates": [ 59.535028249951516, 36.354998625096208 ] } },
{ "type": "Feature", "properties": { "cluster": 108, "count": 2 }, "geometry": { "type": "Point", "coordinates": [ 59.531695850166422, 36.359234700074708 ] } },
{ "type": "Feature", "properties": { "cluster": 109, "count": 4 }, "geometry": { "type": "Point", "coordinates": [ 59.633579249963084, 36.299161550088179 ] } },
{ "type": "Feature", "properties": { "cluster": 110, "count": 4 }, "geometry": { "type": "Point", "coordinates": [ 59.637870074947934, 36.301838400060873 ] } },
{ "type": "Feature", "properties": { "cluster": 111, "count": 4 }, "geometry": { "type": "Point", "coordinates": [ 59.60380227500081, 36.320582225050565 ] } },
{ "type": "Feature", "properties": { "cluster": 112, "count": 3 }, "geometry": { "type": "Point", "coordinates": [ 59.62974590015299, 36.275706666754381 ] } },
{ "type": "Feature", "properties": { "cluster": 113, "count": 4 }, "geometry": { "type": "Point", "coordinates": [ 59.660368150045031, 36.315794800027675 ] } },
{ "type": "Feature", "properties": { "cluster": 114, "count": 4 }, "geometry": { "type": "Point", "coordinates": [ 59.650285450043704, 36.309544825024552 ] } },
{ "type": "Feature", "properties": { "cluster": 115, "count": 4 }, "geometry": { "type": "Point", "coordinates": [ 59.644599475055671, 36.30603325007376 ] } },
{ "type": "Feature", "properties": { "cluster": 116, "count": 4 }, "geometry": { "type": "Point", "coordinates": [ 59.644558749949908, 36.283008000097396 ] } },
{ "type": "Feature", "properties": { "cluster": 117, "count": 4 }, "geometry": { "type": "Point", "coordinates": [ 59.537855549961236, 36.291006200131406 ] } },
{ "type": "Feature", "properties": { "cluster": 118, "count": 4 }, "geometry": { "type": "Point", "coordinates": [ 59.524597650054169, 36.367979875095337 ] } },
{ "type": "Feature", "properties": { "cluster": 119, "count": 4 }, "geometry": { "type": "Point", "coordinates": [ 59.66762257495806, 36.266054750082269 ] } },
{ "type": "Feature", "properties": { "cluster": 120, "count": 4 }, "geometry": { "type": "Point", "coordinates": [ 59.493253800009704, 36.318235000100522 ] } },
{ "type": "Feature", "properties": { "cluster": 121, "count": 4 }, "geometry": { "type": "Point", "coordinates": [ 59.501580225004474, 36.352103875110785 ] } },
{ "type": "Feature", "properties": { "cluster": 122, "count": 4 }, "geometry": { "type": "Point", "coordinates": [ 59.507140449978273, 36.351971300080137 ] } },
{ "type": "Feature", "properties": { "cluster": 123, "count": 2 }, "geometry": { "type": "Point", "coordinates": [ 59.577665700023829, 36.288115900030775 ] } },
{ "type": "Feature", "properties": { "cluster": 124, "count": 4 }, "geometry": { "type": "Point", "coordinates": [ 59.586004324934457, 36.291088325277272 ] } },
{ "type": "Feature", "properties": { "cluster": 125, "count": 1 }, "geometry": { "type": "Point", "coordinates": [ 59.609037, 36.2675723 ] } },
{ "type": "Feature", "properties": { "cluster": 126, "count": 1 }, "geometry": { "type": "Point", "coordinates": [ 59.6093119, 36.268036 ] } },
{ "type": "Feature", "properties": { "cluster": 127, "count": 4 }, "geometry": { "type": "Point", "coordinates": [ 59.502245800018926, 36.307946550083081 ] } },
{ "type": "Feature", "properties": { "cluster": 128, "count": 1 }, "geometry": { "type": "Point", "coordinates": [ 59.5397496, 36.3151469 ] } },
{ "type": "Feature", "properties": { "cluster": 129, "count": 4 }, "geometry": { "type": "Point", "coordinates": [ 59.604836524961641, 36.245502850074438 ] } },
{ "type": "Feature", "properties": { "cluster": 130, "count": 5 }, "geometry": { "type": "Point", "coordinates": [ 59.573140660262681, 36.297049020145508 ] } },
{ "type": "Feature", "properties": { "cluster": 131, "count": 4 }, "geometry": { "type": "Point", "coordinates": [ 59.480661600004602, 36.366654350046744 ] } },
{ "type": "Feature", "properties": { "cluster": 132, "count": 4 }, "geometry": { "type": "Point", "coordinates": [ 59.509001574931006, 36.315889050231092 ] } },
{ "type": "Feature", "properties": { "cluster": 133, "count": 3 }, "geometry": { "type": "Point", "coordinates": [ 59.577934333282023, 36.284495833383964 ] } },
{ "type": "Feature", "properties": { "cluster": 134, "count": 4 }, "geometry": { "type": "Point", "coordinates": [ 59.548911975039793, 36.28428807516238 ] } },
{ "type": "Feature", "properties": { "cluster": 135, "count": 4 }, "geometry": { "type": "Point", "coordinates": [ 59.595845324994549, 36.307324725065705 ] } },
{ "type": "Feature", "properties": { "cluster": 136, "count": 4 }, "geometry": { "type": "Point", "coordinates": [ 59.517418875149374, 36.359145100132125 ] } },
{ "type": "Feature", "properties": { "cluster": 137, "count": 4 }, "geometry": { "type": "Point", "coordinates": [ 59.522582599991836, 36.360853475125722 ] } },
{ "type": "Feature", "properties": { "cluster": 138, "count": 4 }, "geometry": { "type": "Point", "coordinates": [ 59.527986900023329, 36.363588400110011 ] } },
{ "type": "Feature", "properties": { "cluster": 139, "count": 4 }, "geometry": { "type": "Point", "coordinates": [ 59.513508300044563, 36.351804325110741 ] } },
{ "type": "Feature", "properties": { "cluster": 140, "count": 4 }, "geometry": { "type": "Point", "coordinates": [ 59.526050425015221, 36.356383300070043 ] } },
{ "type": "Feature", "properties": { "cluster": 141, "count": 4 }, "geometry": { "type": "Point", "coordinates": [ 59.51159635005817, 36.364924950094824 ] } },
{ "type": "Feature", "properties": { "cluster": 142, "count": 4 }, "geometry": { "type": "Point", "coordinates": [ 59.518232100029557, 36.36647690010718 ] } },
{ "type": "Feature", "properties": { "cluster": 143, "count": 4 }, "geometry": { "type": "Point", "coordinates": [ 59.625792024990659, 36.270866550075574 ] } },
{ "type": "Feature", "properties": { "cluster": 144, "count": 4 }, "geometry": { "type": "Point", "coordinates": [ 59.640690724998393, 36.298886850051176 ] } },
{ "type": "Feature", "properties": { "cluster": 145, "count": 1 }, "geometry": { "type": "Point", "coordinates": [ 59.6030634, 36.273885 ] } },
{ "type": "Feature", "properties": { "cluster": 146, "count": 3 }, "geometry": { "type": "Point", "coordinates": [ 59.597347766718762, 36.279661866712821 ] } },
{ "type": "Feature", "properties": { "cluster": 147, "count": 3 }, "geometry": { "type": "Point", "coordinates": [ 59.574048100100008, 36.286949700058237 ] } },
{ "type": "Feature", "properties": { "cluster": 148, "count": 4 }, "geometry": { "type": "Point", "coordinates": [ 59.628308299895245, 36.295871425214294 ] } },
{ "type": "Feature", "properties": { "cluster": 149, "count": 3 }, "geometry": { "type": "Point", "coordinates": [ 59.593257766755436, 36.283761200063303 ] } },
{ "type": "Feature", "properties": { "cluster": 150, "count": 4 }, "geometry": { "type": "Point", "coordinates": [ 59.615963150036727, 36.260897025097726 ] } },
{ "type": "Feature", "properties": { "cluster": 151, "count": 3 }, "geometry": { "type": "Point", "coordinates": [ 59.629454433247787, 36.286448533433557 ] } },
{ "type": "Feature", "properties": { "cluster": 152, "count": 6 }, "geometry": { "type": "Point", "coordinates": [ 59.575006999593306, 36.269518816798865 ] } },
{ "type": "Feature", "properties": { "cluster": 153, "count": 4 }, "geometry": { "type": "Point", "coordinates": [ 59.468066499996809, 36.365712375156214 ] } },
{ "type": "Feature", "properties": { "cluster": 154, "count": 4 }, "geometry": { "type": "Point", "coordinates": [ 59.591616850005842, 36.285438575058485 ] } },
{ "type": "Feature", "properties": { "cluster": 155, "count": 1 }, "geometry": { "type": "Point", "coordinates": [ 59.599006, 36.2867458 ] } },
{ "type": "Feature", "properties": { "cluster": 156, "count": 3 }, "geometry": { "type": "Point", "coordinates": [ 59.583996700020933, 36.30106316672169 ] } },
{ "type": "Feature", "properties": { "cluster": 157, "count": 2 }, "geometry": { "type": "Point", "coordinates": [ 59.512925300104698, 36.288788350016574 ] } },
{ "type": "Feature", "properties": { "cluster": 158, "count": 2 }, "geometry": { "type": "Point", "coordinates": [ 59.513663850014453, 36.288885749997874 ] } },
{ "type": "Feature", "properties": { "cluster": 159, "count": 4 }, "geometry": { "type": "Point", "coordinates": [ 59.505114599944172, 36.292056400095895 ] } },
{ "type": "Feature", "properties": { "cluster": 160, "count": 4 }, "geometry": { "type": "Point", "coordinates": [ 59.538410724906406, 36.27280515013701 ] } },
{ "type": "Feature", "properties": { "cluster": 161, "count": 3 }, "geometry": { "type": "Point", "coordinates": [ 59.553725099897385, 36.33899096678762 ] } },
{ "type": "Feature", "properties": { "cluster": 162, "count": 4 }, "geometry": { "type": "Point", "coordinates": [ 59.608835650000792, 36.257906650082553 ] } },
{ "type": "Feature", "properties": { "cluster": 163, "count": 4 }, "geometry": { "type": "Point", "coordinates": [ 59.531903825048701, 36.340544800039289 ] } },
{ "type": "Feature", "properties": { "cluster": 164, "count": 4 }, "geometry": { "type": "Point", "coordinates": [ 59.625715525054687, 36.335510500115241 ] } },
{ "type": "Feature", "properties": { "cluster": 165, "count": 3 }, "geometry": { "type": "Point", "coordinates": [ 59.473306300062127, 36.363262066780067 ] } },
{ "type": "Feature", "properties": { "cluster": 166, "count": 4 }, "geometry": { "type": "Point", "coordinates": [ 59.48420769996936, 36.342000175102434 ] } },
{ "type": "Feature", "properties": { "cluster": 167, "count": 3 }, "geometry": { "type": "Point", "coordinates": [ 59.483420833362409, 36.340419066733766 ] } },
{ "type": "Feature", "properties": { "cluster": 168, "count": 4 }, "geometry": { "type": "Point", "coordinates": [ 59.630546325048705, 36.289154475177376 ] } },
{ "type": "Feature", "properties": { "cluster": 169, "count": 1 }, "geometry": { "type": "Point", "coordinates": [ 59.608655, 36.2382631 ] } },
{ "type": "Feature", "properties": { "cluster": 170, "count": 2 }, "geometry": { "type": "Point", "coordinates": [ 59.609158799987846, 36.237979850012678 ] } },
{ "type": "Feature", "properties": { "cluster": 171, "count": 4 }, "geometry": { "type": "Point", "coordinates": [ 59.571380799870489, 36.261469875186151 ] } },
{ "type": "Feature", "properties": { "cluster": 172, "count": 4 }, "geometry": { "type": "Point", "coordinates": [ 59.62126885000621, 36.283638075052743 ] } },
{ "type": "Feature", "properties": { "cluster": 173, "count": 1 }, "geometry": { "type": "Point", "coordinates": [ 59.5127837, 36.30512610000001 ] } },
{ "type": "Feature", "properties": { "cluster": 174, "count": 3 }, "geometry": { "type": "Point", "coordinates": [ 59.574692866704716, 36.311505333361445 ] } },
{ "type": "Feature", "properties": { "cluster": 175, "count": 1 }, "geometry": { "type": "Point", "coordinates": [ 59.5990553, 36.2566068 ] } },
{ "type": "Feature", "properties": { "cluster": 176, "count": 4 }, "geometry": { "type": "Point", "coordinates": [ 59.50536122499048, 36.335535200099145 ] } },
{ "type": "Feature", "properties": { "cluster": 177, "count": 3 }, "geometry": { "type": "Point", "coordinates": [ 59.577534766692629, 36.281548833369101 ] } },
{ "type": "Feature", "properties": { "cluster": 178, "count": 3 }, "geometry": { "type": "Point", "coordinates": [ 59.576482100069505, 36.276082633357959 ] } },
{ "type": "Feature", "properties": { "cluster": 179, "count": 4 }, "geometry": { "type": "Point", "coordinates": [ 59.566371474964953, 36.356077600059258 ] } },
{ "type": "Feature", "properties": { "cluster": 180, "count": 4 }, "geometry": { "type": "Point", "coordinates": [ 59.472473424999045, 36.369498375062278 ] } },
{ "type": "Feature", "properties": { "cluster": 181, "count": 4 }, "geometry": { "type": "Point", "coordinates": [ 59.585101624994806, 36.264132575115447 ] } },
{ "type": "Feature", "properties": { "cluster": 182, "count": 1 }, "geometry": { "type": "Point", "coordinates": [ 59.5797324, 36.2602441 ] } },
{ "type": "Feature", "properties": { "cluster": 183, "count": 1 }, "geometry": { "type": "Point", "coordinates": [ 59.5800009, 36.2598269 ] } },
{ "type": "Feature", "properties": { "cluster": 184, "count": 1 }, "geometry": { "type": "Point", "coordinates": [ 59.579234, 36.2599637 ] } },
{ "type": "Feature", "properties": { "cluster": 185, "count": 1 }, "geometry": { "type": "Point", "coordinates": [ 59.5795375, 36.2595772 ] } }
]
}
