{
"type": "FeatureCollection",
"name": "Isfahan_speed_camera_osm",
"crs": { "type": "name", "properties": { "name": "urn:ogc:def:crs:OGC:1.3:CRS84" } },
"features": [
{ "type": "Feature", "properties": { "element": "node", "id": 478734587, "direction": "180", "highway": "speed_camera", "name": null, "maxspeed": null, "enforcement": null, "description": null, "traffic_signals": null }, "geometry": { "type": "Point", "coordinates": [ 51.6725225, 32.6369772 ] } },
{ "type": "Feature", "properties": { "element": "node", "id": 2082713923, "direction": "0", "highway": "speed_camera", "name": null, "maxspeed": null, "enforcement": null, "description": null, "traffic_signals": null }, "geometry": { "type": "Point", "coordinates": [ 51.6718506, 32.6333612 ] } },
{ "type": "Feature", "properties": { "element": "node", "id": 4362368690, "direction": null, "highway": "speed_camera", "name": "دوربین کنترل سرعت", "maxspeed": null, "enforcement": null, "description": null, "traffic_signals": null }, "geometry": { "type": "Point", "coordinates": [ 51.5494555, 32.7665814 ] } },
{ "type": "Feature", "properties": { "element": "node", "id": 4362368991, "direction": null, "highway": "speed_camera", "name": "دوربین کنترل سرعت", "maxspeed": "110", "enforcement": null, "description": null, "traffic_signals": null }, "geometry": { "type": "Point", "coordinates": [ 51.551348, 32.7616427 ] } },
{ "type": "Feature", "properties": { "element": "node", "id": 4413918805, "direction": null, "highway": "speed_camera", "name": "دوربین کنترل سرعت", "maxspeed": "70", "enforcement": null, "description": null, "traffic_signals": null }, "geometry": { "type": "Point", "coordinates": [ 51.6436028, 32.6566607 ] } },
{ "type": "Feature", "properties": { "element": "node", "id": 4413918808, "direction": null, "highway": "speed_camera", "name": "دوربین کنترل سرعت", "maxspeed": "70", "enforcement": null, "description": null, "traffic_signals": null }, "geometry": { "type": "Point", "coordinates": [ 51.6432199, 32.6703834 ] } },
{ "type": "Feature", "properties": { "element": "node", "id": 4413918810, "direction": null, "highway": "speed_camera", "name": "دوربین کنترل سرعت", "maxspeed": null, "enforcement": null, "description": null, "traffic_signals": null }, "geometry": { "type": "Point", "coordinates": [ 51.6623499, 32.6890741 ] } },
{ "type": "Feature", "properties": { "element": "node", "id": 4413918813, "direction": null, "highway": "speed_camera", "name": "دوربین کنترل سرعت", "maxspeed": "70", "enforcement": null, "description": null, "traffic_signals": null }, "geometry": { "type": "Point", "coordinates": [ 51.6211635, 32.6970991 ] } },
{ "type": "Feature", "properties": { "element": "node", "id": 4413918816, "direction": null, "highway": "speed_camera", "name": "دوربین کنترل سرعت", "maxspeed": "110", "enforcement": null, "description": null, "traffic_signals": null }, "geometry": { "type": "Point", "coordinates": [ 51.6748768, 32.717084 ] } },
{ "type": "Feature", "properties": { "element": "node", "id": 4413918819, "direction": null, "highway": "speed_camera", "name": "دوربین کنترل سرعت", "maxspeed": "70", "enforcement": null, "description": null, "traffic_signals": null }, "geometry": { "type": "Point", "coordinates": [ 51.5714051, 32.7349067 ] } },
{ "type": "Feature", "properties": { "element": "node", "id": 4413918822, "direction": null, "highway": "speed_camera", "name": "دوربین کنترل سرعت", "maxspeed": "120", "enforcement": null, "description": null, "traffic_signals": null }, "geometry": { "type": "Point", "coordinates": [ 51.6440083, 32.7530286 ] } },
{ "type": "Feature", "properties": { "element": "node", "id": 4691336137, "direction": null, "highway": "speed_camera", "name": "دوربین کنترل سرعت", "maxspeed": null, "enforcement": null, "description": null, "traffic_signals": null }, "geometry": { "type": "Point", "coordinates": [ 51.6440696, 32.7530817 ] } },
{ "type": "Feature", "properties": { "element": "node", "id": 4691336841, "direction": null, "highway": "speed_camera", "name": "دوربین کنترل سرعت", "maxspeed": null, "enforcement": null, "description": null, "traffic_signals": null }, "geometry": { "type": "Point", "coordinates": [ 51.643903, 32.7528476 ] } },
{ "type": "Feature", "properties": { "element": "node", "id": 4699852393, "direction": null, "highway": "speed_camera", "name": "دوربین کنترل سرعت", "maxspeed": null, "enforcement": null, "description": null, "traffic_signals": null }, "geometry": { "type": "Point", "coordinates": [ 51.6747791, 32.7172758 ] } },
{ "type": "Feature", "properties": { "element": "node", "id": 4747282856, "direction": null, "highway": "speed_camera", "name": "دوربین کنترل سرعت", "maxspeed": null, "enforcement": null, "description": null, "traffic_signals": null }, "geometry": { "type": "Point", "coordinates": [ 51.6904678, 32.693892 ] } },
{ "type": "Feature", "properties": { "element": "node", "id": 4747282858, "direction": "0", "highway": "speed_camera", "name": "دوربین کنترل سرعت", "maxspeed": "60", "enforcement": "maxspeed", "description": null, "traffic_signals": null }, "geometry": { "type": "Point", "coordinates": [ 51.7070184, 32.6952929 ] } },
{ "type": "Feature", "properties": { "element": "node", "id": 4747282859, "direction": null, "highway": "speed_camera", "name": "دوربین کنترل سرعت", "maxspeed": "70", "enforcement": null, "description": null, "traffic_signals": null }, "geometry": { "type": "Point", "coordinates": [ 51.7232692, 32.6970299 ] } },
{ "type": "Feature", "properties": { "element": "node", "id": 4747283126, "direction": null, "highway": "speed_camera", "name": "دوربین کنترل سرعت", "maxspeed": null, "enforcement": null, "description": null, "traffic_signals": null }, "geometry": { "type": "Point", "coordinates": [ 51.7327006, 32.672469 ] } },
{ "type": "Feature", "properties": { "element": "node", "id": 4747283127, "direction": null, "highway": "speed_camera", "name": "دوربین کنترل سرعت", "maxspeed": null, "enforcement": null, "description": null, "traffic_signals": null }, "geometry": { "type": "Point", "coordinates": [ 51.7240439, 32.6643171 ] } },
{ "type": "Feature", "properties": { "element": "node", "id": 4758241959, "direction": null, "highway": "speed_camera", "name": "دوربین کنترل سرعت", "maxspeed": null, "enforcement": null, "description": null, "traffic_signals": null }, "geometry": { "type": "Point", "coordinates": [ 51.6750296, 32.5731971 ] } },
{ "type": "Feature", "properties": { "element": "node", "id": 4759065296, "direction": null, "highway": "speed_camera", "name": "دوربین کنترل سرعت", "maxspeed": null, "enforcement": null, "description": null, "traffic_signals": null }, "geometry": { "type": "Point", "coordinates": [ 51.6750753, 32.5729916 ] } },
{ "type": "Feature", "properties": { "element": "node", "id": 4759065297, "direction": null, "highway": "speed_camera", "name": "دوربین کنترل سرعت", "maxspeed": null, "enforcement": null, "description": null, "traffic_signals": null }, "geometry": { "type": "Point", "coordinates": [ 51.6880607, 32.5502383 ] } },
{ "type": "Feature", "properties": { "element": "node", "id": 4759066689, "direction": null, "highway": "speed_camera", "name": "دوربین کنترل سرعت", "maxspeed": null, "enforcement": null, "description": null, "traffic_signals": null }, "geometry": { "type": "Point", "coordinates": [ 51.6409783, 32.6045879 ] } },
{ "type": "Feature", "properties": { "element": "node", "id": 4759067223, "direction": null, "highway": "speed_camera", "name": "دوربین کنترل سرعت", "maxspeed": null, "enforcement": null, "description": null, "traffic_signals": null }, "geometry": { "type": "Point", "coordinates": [ 51.6742908, 32.5750729 ] } },
{ "type": "Feature", "properties": { "element": "node", "id": 4759067225, "direction": "360", "highway": "speed_camera", "name": "دوربین کنترل سرعت", "maxspeed": null, "enforcement": null, "description": null, "traffic_signals": null }, "geometry": { "type": "Point", "coordinates": [ 51.6434366, 32.6496907 ] } },
{ "type": "Feature", "properties": { "element": "node", "id": 5012472323, "direction": null, "highway": "speed_camera", "name": "دوربین کنترل سرعت", "maxspeed": null, "enforcement": null, "description": null, "traffic_signals": null }, "geometry": { "type": "Point", "coordinates": [ 51.7599864, 32.7097973 ] } },
{ "type": "Feature", "properties": { "element": "node", "id": 5056425202, "direction": null, "highway": "speed_camera", "name": "دوربین کنترل سرعت", "maxspeed": null, "enforcement": null, "description": null, "traffic_signals": null }, "geometry": { "type": "Point", "coordinates": [ 51.7601837, 32.7097291 ] } },
{ "type": "Feature", "properties": { "element": "node", "id": 5056427562, "direction": null, "highway": "speed_camera", "name": "دوربین کنترل سرعت", "maxspeed": null, "enforcement": null, "description": null, "traffic_signals": null }, "geometry": { "type": "Point", "coordinates": [ 51.7601675, 32.7098735 ] } },
{ "type": "Feature", "properties": { "element": "node", "id": 5056761323, "direction": null, "highway": "speed_camera", "name": "دوربین کنترل سرعت", "maxspeed": null, "enforcement": null, "description": null, "traffic_signals": null }, "geometry": { "type": "Point", "coordinates": [ 51.6654898, 32.6905231 ] } },
{ "type": "Feature", "properties": { "element": "node", "id": 5056861958, "direction": null, "highway": "speed_camera", "name": "دوربین کنترل سرعت", "maxspeed": null, "enforcement": null, "description": null, "traffic_signals": null }, "geometry": { "type": "Point", "coordinates": [ 51.7501185, 32.6971669 ] } },
{ "type": "Feature", "properties": { "element": "node", "id": 5056861959, "direction": null, "highway": "speed_camera", "name": "دوربین کنترل سرعت", "maxspeed": null, "enforcement": null, "description": null, "traffic_signals": null }, "geometry": { "type": "Point", "coordinates": [ 51.75023, 32.6969047 ] } },
{ "type": "Feature", "properties": { "element": "node", "id": 5135113622, "direction": null, "highway": "speed_camera", "name": "دوربین کنترل سرعت", "maxspeed": null, "enforcement": null, "description": null, "traffic_signals": null }, "geometry": { "type": "Point", "coordinates": [ 51.6553005, 32.7398655 ] } },
{ "type": "Feature", "properties": { "element": "node", "id": 5417632616, "direction": "180", "highway": "speed_camera", "name": "دوربین کنترل سرعت", "maxspeed": null, "enforcement": null, "description": null, "traffic_signals": null }, "geometry": { "type": "Point", "coordinates": [ 51.643627, 32.6485791 ] } },
{ "type": "Feature", "properties": { "element": "node", "id": 5433952993, "direction": "70", "highway": "speed_camera", "name": "دوربین کنترل سرعت", "maxspeed": null, "enforcement": null, "description": null, "traffic_signals": null }, "geometry": { "type": "Point", "coordinates": [ 51.6172572, 32.6072809 ] } },
{ "type": "Feature", "properties": { "element": "node", "id": 5433956655, "direction": null, "highway": "speed_camera", "name": "دوربین کنترل سرعت", "maxspeed": null, "enforcement": null, "description": null, "traffic_signals": null }, "geometry": { "type": "Point", "coordinates": [ 51.6167549, 32.6057932 ] } },
{ "type": "Feature", "properties": { "element": "node", "id": 5433957812, "direction": null, "highway": "speed_camera", "name": "دوربین کنترل سرعت", "maxspeed": null, "enforcement": null, "description": null, "traffic_signals": null }, "geometry": { "type": "Point", "coordinates": [ 51.5815792, 32.6039403 ] } },
{ "type": "Feature", "properties": { "element": "node", "id": 5469185300, "direction": null, "highway": "speed_camera", "name": "دوربین کنترل سرعت", "maxspeed": null, "enforcement": null, "description": null, "traffic_signals": null }, "geometry": { "type": "Point", "coordinates": [ 51.620861, 32.6314956 ] } },
{ "type": "Feature", "properties": { "element": "node", "id": 5495937757, "direction": null, "highway": "speed_camera", "name": null, "maxspeed": "100", "enforcement": null, "description": "دوربین کنترل سرعت", "traffic_signals": null }, "geometry": { "type": "Point", "coordinates": [ 51.6930372, 32.7337361 ] } },
{ "type": "Feature", "properties": { "element": "node", "id": 5495940751, "direction": null, "highway": "speed_camera", "name": null, "maxspeed": null, "enforcement": null, "description": "دوربین کنترل سرعت", "traffic_signals": null }, "geometry": { "type": "Point", "coordinates": [ 51.7043521, 32.7210835 ] } },
{ "type": "Feature", "properties": { "element": "node", "id": 5495943103, "direction": null, "highway": "speed_camera", "name": null, "maxspeed": null, "enforcement": null, "description": "دوربین کنترل سرعت", "traffic_signals": null }, "geometry": { "type": "Point", "coordinates": [ 51.7059298, 32.7266317 ] } },
{ "type": "Feature", "properties": { "element": "node", "id": 5495954716, "direction": null, "highway": "speed_camera", "name": "دوربین کنترل سرعت", "maxspeed": null, "enforcement": null, "description": null, "traffic_signals": null }, "geometry": { "type": "Point", "coordinates": [ 51.7590793, 32.7093001 ] } },
{ "type": "Feature", "properties": { "element": "node", "id": 5624590142, "direction": null, "highway": "speed_camera", "name": null, "maxspeed": null, "enforcement": null, "description": null, "traffic_signals": null }, "geometry": { "type": "Point", "coordinates": [ 51.581439, 32.6040175 ] } },
{ "type": "Feature", "properties": { "element": "node", "id": 6236880740, "direction": null, "highway": "speed_camera", "name": null, "maxspeed": null, "enforcement": null, "description": null, "traffic_signals": null }, "geometry": { "type": "Point", "coordinates": [ 51.6018854, 32.6167939 ] } },
{ "type": "Feature", "properties": { "element": "node", "id": 6882635340, "direction": null, "highway": "speed_camera", "name": null, "maxspeed": "60", "enforcement": null, "description": null, "traffic_signals": null }, "geometry": { "type": "Point", "coordinates": [ 51.7069972, 32.6954152 ] } },
{ "type": "Feature", "properties": { "element": "node", "id": 6882635351, "direction": null, "highway": "speed_camera", "name": null, "maxspeed": "70", "enforcement": null, "description": null, "traffic_signals": null }, "geometry": { "type": "Point", "coordinates": [ 51.7232839, 32.6971351 ] } },
{ "type": "Feature", "properties": { "element": "node", "id": 6882699219, "direction": null, "highway": "speed_camera", "name": null, "maxspeed": "90", "enforcement": null, "description": null, "traffic_signals": null }, "geometry": { "type": "Point", "coordinates": [ 51.7408637, 32.7024712 ] } },
{ "type": "Feature", "properties": { "element": "node", "id": 7629249434, "direction": null, "highway": "speed_camera", "name": null, "maxspeed": null, "enforcement": null, "description": null, "traffic_signals": null }, "geometry": { "type": "Point", "coordinates": [ 51.6139792, 32.7584732 ] } },
{ "type": "Feature", "properties": { "element": "node", "id": 7873883197, "direction": null, "highway": "speed_camera", "name": "دوربین کنترل سرعت", "maxspeed": null, "enforcement": null, "description": null, "traffic_signals": null }, "geometry": { "type": "Point", "coordinates": [ 51.7378435, 32.6853807 ] } },
{ "type": "Feature", "properties": { "element": "node", "id": 7979250399, "direction": null, "highway": "speed_camera", "name": "دوربین کنترل سرعت", "maxspeed": "70", "enforcement": null, "description": null, "traffic_signals": null }, "geometry": { "type": "Point", "coordinates": [ 51.5672502, 32.7380147 ] } },
{ "type": "Feature", "properties": { "element": "node", "id": 7979250400, "direction": null, "highway": "speed_camera", "name": "دوربین کنترل سرعت", "maxspeed": "60", "enforcement": null, "description": null, "traffic_signals": null }, "geometry": { "type": "Point", "coordinates": [ 51.5607142, 32.7431316 ] } },
{ "type": "Feature", "properties": { "element": "node", "id": 7979250409, "direction": null, "highway": "speed_camera", "name": "دوربین کنترل سرعت", "maxspeed": "70", "enforcement": null, "description": null, "traffic_signals": null }, "geometry": { "type": "Point", "coordinates": [ 51.6265543, 32.692978 ] } },
{ "type": "Feature", "properties": { "element": "node", "id": 7979250410, "direction": null, "highway": "speed_camera", "name": "دوربین کنترل سرعن", "maxspeed": "70", "enforcement": null, "description": null, "traffic_signals": null }, "geometry": { "type": "Point", "coordinates": [ 51.6266531, 32.6930384 ] } },
{ "type": "Feature", "properties": { "element": "node", "id": 7979250411, "direction": null, "highway": "speed_camera", "name": null, "maxspeed": null, "enforcement": null, "description": null, "traffic_signals": "signal" }, "geometry": { "type": "Point", "coordinates": [ 51.6257246, 32.6928955 ] } },
{ "type": "Feature", "properties": { "element": "node", "id": 9105907872, "direction": "90", "highway": "speed_camera", "name": null, "maxspeed": null, "enforcement": null, "description": null, "traffic_signals": null }, "geometry": { "type": "Point", "coordinates": [ 51.6874846, 32.624908 ] } }
]
}
