{
"type": "FeatureCollection",
"name": "Isfahan_traffic_signals_osm",
"crs": { "type": "name", "properties": { "name": "urn:ogc:def:crs:OGC:1.3:CRS84" } },
"features": [
{ "type": "Feature", "properties": { "cluster": 0, "count": 1 }, "geometry": { "type": "Point", "coordinates": [ 51.684161, 32.6603391 ] } },
{ "type": "Feature", "properties": { "cluster": 1, "count": 4 }, "geometry": { "type": "Point", "coordinates": [ 51.661318324960575, 32.714499350037187 ] } },
{ "type": "Feature", "properties": { "cluster": 2, "count": 3 }, "geometry": { "type": "Point", "coordinates": [ 51.665047533399239, 32.627180800095772 ] } },
{ "type": "Feature", "properties": { "cluster": 3, "count": 4 }, "geometry": { "type": "Point", "coordinates": [ 51.713398775062338, 32.650826600184928 ] } },
{ "type": "Feature", "properties": { "cluster": 4, "count": 1 }, "geometry": { "type": "Point", "coordinates": [ 51.6784078, 32.6344584 ] } },
{ "type": "Feature", "properties": { "cluster": 5, "count": 4 }, "geometry": { "type": "Point", "coordinates": [ 51.676034925023593, 32.713208725096152 ] } },
{ "type": "Feature", "properties": { "cluster": 6, "count": 4 }, "geometry": { "type": "Point", "coordinates": [ 51.673023000000832, 32.639132000043141 ] } },
{ "type": "Feature", "properties": { "cluster": 7, "count": 1 }, "geometry": { "type": "Point", "coordinates": [ 51.6689731, 32.5906709 ] } },
{ "type": "Feature", "properties": { "cluster": 8, "count": 1 }, "geometry": { "type": "Point", "coordinates": [ 51.6696638, 32.591129 ] } },
{ "type": "Feature", "properties": { "cluster": 9, "count": 1 }, "geometry": { "type": "Point", "coordinates": [ 51.6695399, 32.5906556 ] } },
{ "type": "Feature", "properties": { "cluster": 10, "count": 3 }, "geometry": { "type": "Point", "coordinates": [ 51.716766799939371, 32.659393633398182 ] } },
{ "type": "Feature", "properties": { "cluster": 11, "count": 4 }, "geometry": { "type": "Point", "coordinates": [ 51.71423867503421, 32.671919325050347 ] } },
{ "type": "Feature", "properties": { "cluster": 12, "count": 4 }, "geometry": { "type": "Point", "coordinates": [ 51.728790100007124, 32.676818875066083 ] } },
{ "type": "Feature", "properties": { "cluster": 13, "count": 2 }, "geometry": { "type": "Point", "coordinates": [ 51.70810755001262, 32.65779140003017 ] } },
{ "type": "Feature", "properties": { "cluster": 14, "count": 4 }, "geometry": { "type": "Point", "coordinates": [ 51.694155024949339, 32.65245955005318 ] } },
{ "type": "Feature", "properties": { "cluster": 15, "count": 4 }, "geometry": { "type": "Point", "coordinates": [ 51.69279775000863, 32.647973125021728 ] } },
{ "type": "Feature", "properties": { "cluster": 16, "count": 4 }, "geometry": { "type": "Point", "coordinates": [ 51.698505450000951, 32.652251500164716 ] } },
{ "type": "Feature", "properties": { "cluster": 17, "count": 2 }, "geometry": { "type": "Point", "coordinates": [ 51.666454399997555, 32.658462700014056 ] } },
{ "type": "Feature", "properties": { "cluster": 18, "count": 2 }, "geometry": { "type": "Point", "coordinates": [ 51.709128100038065, 32.669590100026525 ] } },
{ "type": "Feature", "properties": { "cluster": 19, "count": 3 }, "geometry": { "type": "Point", "coordinates": [ 51.701582066669438, 32.668854300032457 ] } },
{ "type": "Feature", "properties": { "cluster": 20, "count": 4 }, "geometry": { "type": "Point", "coordinates": [ 51.688248224941823, 32.678066450090064 ] } },
{ "type": "Feature", "properties": { "cluster": 21, "count": 4 }, "geometry": { "type": "Point", "coordinates": [ 51.674975449993816, 32.621991050016227 ] } },
{ "type": "Feature", "properties": { "cluster": 22, "count": 4 }, "geometry": { "type": "Point", "coordinates": [ 51.693484125004709, 32.636195500072887 ] } },
{ "type": "Feature", "properties": { "cluster": 23, "count": 2 }, "geometry": { "type": "Point", "coordinates": [ 51.659983949993205, 32.721575900018401 ] } },
{ "type": "Feature", "properties": { "cluster": 24, "count": 2 }, "geometry": { "type": "Point", "coordinates": [ 51.643199449940148, 32.663562750017292 ] } },
{ "type": "Feature", "properties": { "cluster": 25, "count": 5 }, "geometry": { "type": "Point", "coordinates": [ 51.666439679985565, 32.613542300040919 ] } },
{ "type": "Feature", "properties": { "cluster": 26, "count": 2 }, "geometry": { "type": "Point", "coordinates": [ 51.675276450002187, 32.6660326000002 ] } },
{ "type": "Feature", "properties": { "cluster": 27, "count": 3 }, "geometry": { "type": "Point", "coordinates": [ 51.626092000093188, 32.623729366721875 ] } },
{ "type": "Feature", "properties": { "cluster": 28, "count": 2 }, "geometry": { "type": "Point", "coordinates": [ 51.59832804999354, 32.692397650000977 ] } },
{ "type": "Feature", "properties": { "cluster": 29, "count": 1 }, "geometry": { "type": "Point", "coordinates": [ 51.6691149, 32.5911398 ] } },
{ "type": "Feature", "properties": { "cluster": 30, "count": 2 }, "geometry": { "type": "Point", "coordinates": [ 51.717680099961612, 32.628215850013575 ] } },
{ "type": "Feature", "properties": { "cluster": 31, "count": 2 }, "geometry": { "type": "Point", "coordinates": [ 51.628551649939666, 32.715366550018288 ] } },
{ "type": "Feature", "properties": { "cluster": 32, "count": 4 }, "geometry": { "type": "Point", "coordinates": [ 51.693658925005067, 32.662182950037511 ] } },
{ "type": "Feature", "properties": { "cluster": 33, "count": 1 }, "geometry": { "type": "Point", "coordinates": [ 51.666619, 32.6655515 ] } },
{ "type": "Feature", "properties": { "cluster": 34, "count": 3 }, "geometry": { "type": "Point", "coordinates": [ 51.666734000006969, 32.661694533357291 ] } },
{ "type": "Feature", "properties": { "cluster": 35, "count": 3 }, "geometry": { "type": "Point", "coordinates": [ 51.665388899985103, 32.645573133345231 ] } },
{ "type": "Feature", "properties": { "cluster": 36, "count": 4 }, "geometry": { "type": "Point", "coordinates": [ 51.659266950007712, 32.644278800026115 ] } },
{ "type": "Feature", "properties": { "cluster": 37, "count": 4 }, "geometry": { "type": "Point", "coordinates": [ 51.670336450002843, 32.665383575088015 ] } },
{ "type": "Feature", "properties": { "cluster": 38, "count": 4 }, "geometry": { "type": "Point", "coordinates": [ 51.671146949973533, 32.622129175082648 ] } },
{ "type": "Feature", "properties": { "cluster": 39, "count": 3 }, "geometry": { "type": "Point", "coordinates": [ 51.657875966604102, 32.622500333380756 ] } },
{ "type": "Feature", "properties": { "cluster": 40, "count": 4 }, "geometry": { "type": "Point", "coordinates": [ 51.673870400000013, 32.614408900013949 ] } },
{ "type": "Feature", "properties": { "cluster": 41, "count": 2 }, "geometry": { "type": "Point", "coordinates": [ 51.669569949999364, 32.614800950000365 ] } },
{ "type": "Feature", "properties": { "cluster": 42, "count": 4 }, "geometry": { "type": "Point", "coordinates": [ 51.65204687496977, 32.6226683000164 ] } },
{ "type": "Feature", "properties": { "cluster": 43, "count": 4 }, "geometry": { "type": "Point", "coordinates": [ 51.671731925051695, 32.626529725079074 ] } },
{ "type": "Feature", "properties": { "cluster": 44, "count": 4 }, "geometry": { "type": "Point", "coordinates": [ 51.658188725004649, 32.627788300020896 ] } },
{ "type": "Feature", "properties": { "cluster": 45, "count": 3 }, "geometry": { "type": "Point", "coordinates": [ 51.666395366717801, 32.635717733402892 ] } },
{ "type": "Feature", "properties": { "cluster": 46, "count": 4 }, "geometry": { "type": "Point", "coordinates": [ 51.659118599998614, 32.641640725015115 ] } },
{ "type": "Feature", "properties": { "cluster": 47, "count": 4 }, "geometry": { "type": "Point", "coordinates": [ 51.653414225004703, 32.641438275019397 ] } },
{ "type": "Feature", "properties": { "cluster": 48, "count": 3 }, "geometry": { "type": "Point", "coordinates": [ 51.667257799979083, 32.642472733351035 ] } },
{ "type": "Feature", "properties": { "cluster": 49, "count": 4 }, "geometry": { "type": "Point", "coordinates": [ 51.652807724999747, 32.628191775014599 ] } },
{ "type": "Feature", "properties": { "cluster": 50, "count": 4 }, "geometry": { "type": "Point", "coordinates": [ 51.636425750009607, 32.623301500067562 ] } },
{ "type": "Feature", "properties": { "cluster": 51, "count": 3 }, "geometry": { "type": "Point", "coordinates": [ 51.638008200042592, 32.629278733364877 ] } },
{ "type": "Feature", "properties": { "cluster": 52, "count": 3 }, "geometry": { "type": "Point", "coordinates": [ 51.672186200027312, 32.635079100074101 ] } },
{ "type": "Feature", "properties": { "cluster": 53, "count": 4 }, "geometry": { "type": "Point", "coordinates": [ 51.673667625000697, 32.612839000019093 ] } },
{ "type": "Feature", "properties": { "cluster": 54, "count": 4 }, "geometry": { "type": "Point", "coordinates": [ 51.652980800000165, 32.644901225019694 ] } },
{ "type": "Feature", "properties": { "cluster": 55, "count": 4 }, "geometry": { "type": "Point", "coordinates": [ 51.639821924956586, 32.637530100052302 ] } },
{ "type": "Feature", "properties": { "cluster": 56, "count": 4 }, "geometry": { "type": "Point", "coordinates": [ 51.658761825025906, 32.636510425034423 ] } },
{ "type": "Feature", "properties": { "cluster": 57, "count": 4 }, "geometry": { "type": "Point", "coordinates": [ 51.685075750032723, 32.630325375043888 ] } },
{ "type": "Feature", "properties": { "cluster": 58, "count": 4 }, "geometry": { "type": "Point", "coordinates": [ 51.678087799991154, 32.630930700025267 ] } },
{ "type": "Feature", "properties": { "cluster": 59, "count": 4 }, "geometry": { "type": "Point", "coordinates": [ 51.675005225012129, 32.641038550017825 ] } },
{ "type": "Feature", "properties": { "cluster": 60, "count": 3 }, "geometry": { "type": "Point", "coordinates": [ 51.669833533384008, 32.644941966697317 ] } },
{ "type": "Feature", "properties": { "cluster": 61, "count": 4 }, "geometry": { "type": "Point", "coordinates": [ 51.693724075036059, 32.632838925048695 ] } },
{ "type": "Feature", "properties": { "cluster": 62, "count": 4 }, "geometry": { "type": "Point", "coordinates": [ 51.694126175034434, 32.629643125064234 ] } },
{ "type": "Feature", "properties": { "cluster": 63, "count": 3 }, "geometry": { "type": "Point", "coordinates": [ 51.60274123334311, 32.747813466700308 ] } },
{ "type": "Feature", "properties": { "cluster": 64, "count": 3 }, "geometry": { "type": "Point", "coordinates": [ 51.671711000036723, 32.631428233361468 ] } },
{ "type": "Feature", "properties": { "cluster": 65, "count": 4 }, "geometry": { "type": "Point", "coordinates": [ 51.669104474999564, 32.552665625076799 ] } },
{ "type": "Feature", "properties": { "cluster": 66, "count": 1 }, "geometry": { "type": "Point", "coordinates": [ 51.669032, 32.6574022 ] } },
{ "type": "Feature", "properties": { "cluster": 67, "count": 4 }, "geometry": { "type": "Point", "coordinates": [ 51.664439624995246, 32.724578175008368 ] } },
{ "type": "Feature", "properties": { "cluster": 68, "count": 3 }, "geometry": { "type": "Point", "coordinates": [ 51.651357466622585, 32.666029533424691 ] } },
{ "type": "Feature", "properties": { "cluster": 69, "count": 3 }, "geometry": { "type": "Point", "coordinates": [ 51.774608733337693, 32.649342566830128 ] } },
{ "type": "Feature", "properties": { "cluster": 70, "count": 4 }, "geometry": { "type": "Point", "coordinates": [ 51.62424789999973, 32.614026050008022 ] } },
{ "type": "Feature", "properties": { "cluster": 71, "count": 4 }, "geometry": { "type": "Point", "coordinates": [ 51.709992525032419, 32.661468625078491 ] } },
{ "type": "Feature", "properties": { "cluster": 72, "count": 3 }, "geometry": { "type": "Point", "coordinates": [ 51.701567466629044, 32.663868466675794 ] } },
{ "type": "Feature", "properties": { "cluster": 73, "count": 2 }, "geometry": { "type": "Point", "coordinates": [ 51.702889600017194, 32.663910400009442 ] } },
{ "type": "Feature", "properties": { "cluster": 74, "count": 2 }, "geometry": { "type": "Point", "coordinates": [ 51.702417949998996, 32.663392850000108 ] } },
{ "type": "Feature", "properties": { "cluster": 75, "count": 2 }, "geometry": { "type": "Point", "coordinates": [ 51.7020454, 32.664440000000134 ] } },
{ "type": "Feature", "properties": { "cluster": 76, "count": 4 }, "geometry": { "type": "Point", "coordinates": [ 51.694436149996051, 32.666355975042471 ] } },
{ "type": "Feature", "properties": { "cluster": 77, "count": 3 }, "geometry": { "type": "Point", "coordinates": [ 51.673857566643434, 32.665824133347066 ] } },
{ "type": "Feature", "properties": { "cluster": 78, "count": 3 }, "geometry": { "type": "Point", "coordinates": [ 51.700482266643071, 32.640415933421963 ] } },
{ "type": "Feature", "properties": { "cluster": 79, "count": 4 }, "geometry": { "type": "Point", "coordinates": [ 51.729395675000376, 32.675346600058255 ] } },
{ "type": "Feature", "properties": { "cluster": 80, "count": 3 }, "geometry": { "type": "Point", "coordinates": [ 51.731739233308872, 32.687143100021046 ] } },
{ "type": "Feature", "properties": { "cluster": 81, "count": 4 }, "geometry": { "type": "Point", "coordinates": [ 51.736797024810038, 32.689762450226191 ] } },
{ "type": "Feature", "properties": { "cluster": 82, "count": 3 }, "geometry": { "type": "Point", "coordinates": [ 51.724282033310416, 32.656906433466368 ] } },
{ "type": "Feature", "properties": { "cluster": 83, "count": 3 }, "geometry": { "type": "Point", "coordinates": [ 51.731161399938237, 32.65635416677857 ] } },
{ "type": "Feature", "properties": { "cluster": 84, "count": 4 }, "geometry": { "type": "Point", "coordinates": [ 51.711704950131036, 32.647576875289666 ] } },
{ "type": "Feature", "properties": { "cluster": 85, "count": 2 }, "geometry": { "type": "Point", "coordinates": [ 51.708283349929303, 32.641530850042287 ] } },
{ "type": "Feature", "properties": { "cluster": 86, "count": 2 }, "geometry": { "type": "Point", "coordinates": [ 51.707820399962301, 32.641815600012151 ] } },
{ "type": "Feature", "properties": { "cluster": 87, "count": 4 }, "geometry": { "type": "Point", "coordinates": [ 51.722231674982709, 32.669359800013993 ] } },
{ "type": "Feature", "properties": { "cluster": 88, "count": 2 }, "geometry": { "type": "Point", "coordinates": [ 51.643227899957658, 32.655974250006949 ] } },
{ "type": "Feature", "properties": { "cluster": 89, "count": 2 }, "geometry": { "type": "Point", "coordinates": [ 51.64377424997587, 32.655822050004907 ] } },
{ "type": "Feature", "properties": { "cluster": 90, "count": 4 }, "geometry": { "type": "Point", "coordinates": [ 51.643510475042468, 32.650750675287298 ] } },
{ "type": "Feature", "properties": { "cluster": 91, "count": 2 }, "geometry": { "type": "Point", "coordinates": [ 51.647542549892073, 32.645392550145772 ] } },
{ "type": "Feature", "properties": { "cluster": 92, "count": 2 }, "geometry": { "type": "Point", "coordinates": [ 51.709467599952951, 32.633768950026486 ] } },
{ "type": "Feature", "properties": { "cluster": 93, "count": 4 }, "geometry": { "type": "Point", "coordinates": [ 51.706292674998508, 32.651132850041506 ] } },
{ "type": "Feature", "properties": { "cluster": 94, "count": 3 }, "geometry": { "type": "Point", "coordinates": [ 51.663662800035752, 32.615417600032096 ] } }
]
}
